{"type": "Feature", "properties": {"unit_id": "baoding_130602", "name": "竞秀区", "district_codes": [130602]}, "geometry": {"type": "MultiPolygon", "coordinates": [[[[115.48116344337339, 38.956209419936194], [115.47989881614905, 38.963172634544776], [115.47404600149389, 38.98126641570107], [115.45781282797348, 38.99632231258864], [115.44751202335489, 39.002937447638445], [115.43721582767495, 39.00609963458348], [115.42947258061267, 39.006879573019894], [115.42834274281815, 38.99138771888163], [115.43065904054656, 38.97890710311792], [115.43557515040933, 38.96142135973657], [115.43001945260457, 38.95119603979919], [115.42168875101108, 38.95144521005816], [115.41970913831874, 38.946919310561384], [115.41377294695857, 38.94719037907093], [115.4069648402984, 38.945140233356184], [115.40436976116898, 38.94920044702195], [115.39772006777979, 38.949200879649034], [115.39492156189101, 38.95222981676652], [115.38955741433496, 38.95238707855629], [115.38524640760453, 38.955709818960955], [115.37637154352285, 38.953997691247], [115.36732131869174, 38.95385354775903], [115.36865476353283, 38.94839807061677], [115.36537337784856, 38.94850539741991], [115.36299080672349, 38.93975099958981], [115.36683603431788, 38.938782203555704], [115.36429952485314, 38.930749467900156], [115.3611213725908, 38.931528635026055], [115.3622240205771, 38.925520548808706], [115.35796926777536, 38.92616364455642], [115.35615035457343, 38.92331022266993], [115.35515164415212, 38.913672494877694], [115.35146263903978, 38.913299875266446], [115.35343667221505, 38.90260676089918], [115.3505935880026, 38.896998817842686], [115.34972366733253, 38.88783957266193], [115.33699187349349, 38.88643357800721], [115.33640328825967, 38.87858214812519], [115.33102443680481, 38.87182320744906], [115.33207559574875, 38.865551703766315], [115.33153905681972, 38.856422793122825], [115.34096631477188, 38.85342462548915], [115.3527512663596, 38.85340369905736], [115.35346934757368, 38.848319282034346], [115.35903009280865, 38.846191491875516], [115.35895423929794, 38.83817895095487], [115.34842357924721, 38.83156098405398], [115.33594829386028, 38.830929227452266], [115.34783509548338, 38.82204806846308], [115.3477585366989, 38.81989433696347], [115.35795670360982, 38.818343054390674], [115.35752210457865, 38.81415492827419], [115.36146827147158, 38.81452767164079], [115.36344338166789, 38.80795618958214], [115.37644160950951, 38.808595649887934], [115.38328900041736, 38.813881618914685], [115.39560538638547, 38.81577084923751], [115.397068058284, 38.82276878410521], [115.41157751909486, 38.827717324531484], [115.41353170368662, 38.819944304438636], [115.42162811760157, 38.82000172169398], [115.41987790641925, 38.8302728569133], [115.42743730439305, 38.8320030758829], [115.42754149957305, 38.823661625050576], [115.43602924139444, 38.82358670176974], [115.43301893363817, 38.828580786888], [115.4369292936952, 38.829568877797364], [115.44565406483447, 38.82851422273381], [115.44562715934056, 38.83527056132808], [115.44338719150875, 38.83971208871438], [115.46251980187508, 38.84948838350824], [115.48313217284917, 38.87291967395232], [115.48542619681552, 38.879316704557624], [115.48423935120876, 38.881568984687824], [115.4838510328704, 38.896463348992235], [115.48116917866601, 38.909814920616], [115.47869448473826, 38.913079012509975], [115.47967230252645, 38.91988078541098], [115.47650255482063, 38.91971700991081], [115.47724977204042, 38.924055533947005], [115.47384718608143, 38.925440356720785], [115.47299655362396, 38.93011929014621], [115.47933687789859, 38.92936225195725], [115.47595996651717, 38.93267486655837], [115.47624226811604, 38.9386121210712], [115.47070114243402, 38.94042103847564], [115.4707525928847, 38.94632265321354], [115.47879289996096, 38.94514034212971], [115.48116344337339, 38.956209419936194]]]]}}