{"type": "Feature", "properties": {"unit_id": "baoding_130607", "name": "满城区", "district_codes": [130607]}, "geometry": {"type": "MultiPolygon", "coordinates": [[[[115.37467472048228, 38.786819589543015], [115.37508424227259, 38.79413147651578], [115.38021261700834, 38.7952637882711], [115.38021101507029, 38.808143211437276], [115.37644160950951, 38.808595649887934], [115.36344338166789, 38.80795618958214], [115.36146827147158, 38.81452767164079], [115.35752210457865, 38.81415492827419], [115.35795670360982, 38.818343054390674], [115.3477585366989, 38.81989433696347], [115.34783509548338, 38.82204806846308], [115.33594829386028, 38.830929227452266], [115.34842357924721, 38.83156098405398], [115.35895423929794, 38.83817895095487], [115.35903009280865, 38.846191491875516], [115.35346934757368, 38.848319282034346], [115.3527512663596, 38.85340369905736], [115.34096631477188, 38.85342462548915], [115.33153905681972, 38.856422793122825], [115.33207559574875, 38.865551703766315], [115.33102443680481, 38.87182320744906], [115.33640328825967, 38.87858214812519], [115.33699187349349, 38.88643357800721], [115.34972366733253, 38.88783957266193], [115.3505935880026, 38.896998817842686], [115.35343667221505, 38.90260676089918], [115.35146263903978, 38.913299875266446], [115.35515164415212, 38.913672494877694], [115.35615035457343, 38.92331022266993], [115.35796926777536, 38.92616364455642], [115.3622240205771, 38.925520548808706], [115.3611213725908, 38.931528635026055], [115.36429952485314, 38.930749467900156], [115.36683603431788, 38.938782203555704], [115.36299080672349, 38.93975099958981], [115.36537337784856, 38.94850539741991], [115.36865476353283, 38.94839807061677], [115.36732131869174, 38.95385354775903], [115.37637154352285, 38.953997691247], [115.38524640760453, 38.955709818960955], [115.38955741433496, 38.95238707855629], [115.39492156189101, 38.95222981676652], [115.39772006777979, 38.949200879649034], [115.40436976116898, 38.94920044702195], [115.4069648402984, 38.945140233356184], [115.41377294695857, 38.94719037907093], [115.41970913831874, 38.946919310561384], [115.42168875101108, 38.95144521005816], [115.43001945260457, 38.95119603979919], [115.43557515040933, 38.96142135973657], [115.43065904054656, 38.97890710311792], [115.42834274281815, 38.99138771888163], [115.42947258061267, 39.006879573019894], [115.40726508353673, 39.00758543584163], [115.39843117708581, 39.01076536304297], [115.39224390272531, 39.015082631714705], [115.3890608963462, 39.022904432983346], [115.38980463970651, 39.02883237625382], [115.39804315325276, 39.027472173119065], [115.39873649935578, 39.031578522696655], [115.39308879660379, 39.03630622755112], [115.3927552987323, 39.03364300363056], [115.3884436740577, 39.03615364267078], [115.38890458413151, 39.04214968282838], [115.38431200868071, 39.045331781056085], [115.38156613904559, 39.05060774783346], [115.37671876715807, 39.05210740640763], [115.3693847582101, 39.05852390721544], [115.36605194314836, 39.05414699259857], [115.36618138948963, 39.04878711510249], [115.36400263509046, 39.0460238502364], [115.35795394063024, 39.04902307525775], [115.3534186927736, 39.04698568598134], [115.33955864933053, 39.04713027417318], [115.33822745481918, 39.04259755812092], [115.32534259191756, 39.049837691337906], [115.32354842588065, 39.05509788741346], [115.31890742259041, 39.09170422720389], [115.3261295862897, 39.10638650293404], [115.33457998357036, 39.11831706968411], [115.33719284490564, 39.12383877323329], [115.31457535149185, 39.121444208944865], [115.30012515222691, 39.12579482911994], [115.26520709208029, 39.11570918296773], [115.26022914039324, 39.11294734478617], [115.24824352298174, 39.10280470213401], [115.24064224332311, 39.097515499856414], [115.23956423965934, 39.0865098544156], [115.24670623320465, 39.07282494547737], [115.24793908376412, 39.06573140247772], [115.24506374611896, 39.059753760718216], [115.24062119795833, 39.057038326887856], [115.2272864291616, 39.05407648631876], [115.21512646281494, 39.05318776385779], [115.20036211237765, 39.062271603678745], [115.19089233626987, 39.07115344800863], [115.17823069829011, 39.07358606536681], [115.17208044823627, 39.06965897797434], [115.15612814226758, 39.04805486348271], [115.14614439243861, 39.04570130670321], [115.1219712310105, 39.04568665635607], [115.11397811830807, 39.04942499674456], [115.10950723043929, 39.05380381328537], [115.10891465993724, 39.064487972574106], [115.1028530581483, 39.06687358199047], [115.10067049014917, 39.06359228614794], [115.09191752066333, 39.061549379277515], [115.08850513335875, 39.058802317286215], [115.08273231396821, 39.060333680452196], [115.07029661392784, 39.0586798890818], [115.06201996444838, 39.05458625637344], [115.0615593519302, 39.051838690426564], [115.05315731298037, 39.051956670419095], [115.05389982267015, 39.055940778813316], [115.04775420750745, 39.05524873890824], [115.04332475664269, 39.063108761489644], [115.04752267042828, 39.06510917415743], [115.04695825270416, 39.07397295250557], [115.03897180648529, 39.07146693045006], [115.03285521350949, 39.07623942066688], [115.0288885879513, 39.08365139942343], [115.03318662441778, 39.087726517598625], [115.0270969128873, 39.09407789270847], [115.01970241964018, 39.10754148735116], [115.01481622043596, 39.11121150543721], [115.01074952479794, 39.111257563768454], [115.00727221747941, 39.106375987052715], [114.99701727802699, 39.10530875917504], [114.98865324921265, 39.11367590152098], [114.98591618415627, 39.11392488776913], [114.98381860646175, 39.12141452521692], [114.97652803391416, 39.12028518103147], [114.97189875428418, 39.11684807646835], [114.96299333409921, 39.11585891456232], [114.95575121936798, 39.11223736864941], [114.95321702853255, 39.102870711112814], [114.94866062512938, 39.09872482410676], [114.95380745680502, 39.09284253839102], [114.95145290717299, 39.08865819114313], [114.95570304762956, 39.081385315727736], [114.96077102427658, 39.08010320233333], [114.96494353682118, 39.075232813436955], [114.96340868734146, 39.06769631641127], [114.9598262861523, 39.0619346386823], [114.95463122911346, 39.05705067336867], [114.9586771910665, 39.04355567908429], [114.95599033830511, 39.037891396559864], [114.95755179281323, 39.03501856944013], [114.96689349526291, 39.035528211799814], [114.97004052917484, 39.03342320739379], [114.9742876644174, 39.0354913671071], [114.97996635017658, 39.03291491259842], [114.98249916944665, 39.02713313523843], [114.98679624243503, 39.026363965379225], [114.98774390678605, 39.022580472521824], [114.9963628464069, 39.015473879177144], [115.00572245898246, 39.01666572372806], [115.00866407093095, 39.012015696914986], [115.01083788704182, 39.01529216432333], [115.01702683943913, 39.01828201885406], [115.02147772924154, 39.01636134897849], [115.02654317697963, 39.01923438658847], [115.03281185995044, 39.01543591136182], [115.0396713530587, 39.00783834138776], [115.04893759865946, 39.00797227421189], [115.04868164042806, 39.00556628864426], [115.0559284562045, 39.0080443862072], [115.07004616680332, 39.00975827617577], [115.07161059311292, 39.00810636159269], [115.07807101427318, 39.01263776678414], [115.08884503848385, 39.009519463288456], [115.10378549996574, 38.99995988713442], [115.11717052793416, 39.00043034263302], [115.12164213036881, 39.00380407524765], [115.12400587567122, 39.009839673107024], [115.14162169205407, 39.00888283632407], [115.14478581357703, 39.00577665836724], [115.14923704295866, 39.00812148986749], [115.15829494895632, 39.00609152820958], [115.1685382949553, 38.99887283130381], [115.16835853634618, 38.99368066704896], [115.17520531623995, 38.98167381159513], [115.17520626869329, 38.97396948995812], [115.16874739276754, 38.96948610052101], [115.16432064670396, 38.968910199613454], [115.1631117024292, 38.963145445228534], [115.17428332754993, 38.948664005649476], [115.17109279885413, 38.94378893675192], [115.17698621963095, 38.94163225753617], [115.17991959517722, 38.94265309988297], [115.19132024562, 38.94090064328335], [115.1984481505726, 38.93483916182118], [115.20518788719056, 38.93908199933498], [115.20824845728119, 38.935507481544846], [115.20521418875596, 38.92880912788201], [115.20495739341507, 38.92350787769837], [115.20873920402971, 38.91953758347714], [115.21583840301261, 38.906378330020445], [115.23000335132356, 38.90160559682974], [115.23514348994962, 38.89601303839715], [115.24852477699515, 38.89589592845808], [115.24898624558834, 38.908171840957756], [115.25578853751647, 38.90787824792141], [115.25589128267355, 38.90961721143597], [115.26402541950863, 38.916739826396885], [115.27000280657063, 38.91677089540629], [115.27444092444502, 38.914305621272824], [115.28226190375194, 38.90529373306481], [115.27590447987295, 38.89423088132273], [115.27821372615327, 38.88265618359242], [115.26934178082473, 38.87345027648954], [115.25936147467922, 38.86896036364519], [115.25063386110894, 38.86839352057203], [115.24357252547107, 38.86317380981666], [115.23771749788634, 38.857108232920154], [115.23730724919211, 38.84940628097812], [115.24378065582069, 38.845893363325246], [115.24940469865352, 38.83822612027867], [115.24871320794888, 38.82633446810567], [115.25251460051324, 38.81771683764215], [115.25639025095877, 38.81752619965112], [115.25554437600564, 38.81121669596765], [115.2582395343386, 38.80771674469668], [115.24771445612639, 38.808251883023644], [115.24717477608223, 38.805701156119184], [115.23870033003097, 38.80412988664502], [115.23353780280623, 38.78669412768538], [115.23366759588498, 38.78081311741331], [115.22945269859444, 38.77977583774856], [115.22708948721603, 38.77296033277908], [115.2297625173844, 38.76680436847599], [115.23508229511214, 38.765410395166164], [115.23387543701585, 38.75838806144844], [115.23158915090812, 38.756454554149116], [115.23318361413983, 38.745049865857496], [115.24189226420569, 38.746916887203255], [115.25285602757704, 38.747314555665874], [115.25591072761249, 38.74921210449267], [115.26335323749652, 38.749572076037076], [115.26314812892535, 38.7434979819697], [115.26466379645892, 38.72799913808561], [115.26869216227055, 38.72737482543008], [115.27492454197183, 38.73130495356018], [115.27651405304715, 38.734634945000444], [115.27823030735165, 38.7460060408783], [115.27802475898913, 38.75292504464895], [115.28369101890355, 38.75407516324384], [115.28502322147499, 38.75900820901068], [115.28981631403957, 38.76291805910515], [115.29978541625752, 38.76307500890645], [115.29830029807304, 38.748774105767424], [115.30726877177614, 38.7468270050305], [115.30752414168803, 38.75536758274182], [115.30193839465392, 38.75789593985856], [115.30216830886043, 38.76267429262926], [115.30578056047068, 38.76825749122577], [115.30552284846218, 38.778883768082295], [115.31323336988208, 38.78257820813663], [115.31927782888118, 38.78929260769726], [115.33241818491679, 38.78897465098724], [115.337489967914, 38.78674013075715], [115.34325487703687, 38.780469520760235], [115.35862809990635, 38.78006346937287], [115.36183145497017, 38.78330100628222], [115.36967481349274, 38.782220775213965], [115.37467472048228, 38.786819589543015]]]]}}