{"type": "Feature", "properties": {"unit_id": "baoding_130606", "name": "莲池区", "district_codes": [130606]}, "geometry": {"type": "MultiPolygon", "coordinates": [[[[115.58304540422384, 38.91653765421385], [115.5782881868393, 38.92014896045112], [115.57193642582934, 38.92064132278168], [115.56578680986262, 38.93001396933694], [115.55579980083627, 38.930978318649224], [115.53766866620904, 38.93696307810148], [115.53491162273619, 38.93511437297777], [115.52468101571301, 38.936309729960676], [115.52406327206377, 38.93176472529852], [115.51728346020272, 38.9326410930823], [115.51362295328747, 38.93498809550258], [115.51367376348558, 38.938188342292314], [115.49910750041396, 38.9416899614104], [115.49129504818205, 38.94505563321256], [115.4918873744303, 38.953298454945106], [115.48557162255457, 38.95369263420539], [115.48116344337339, 38.956209419936194], [115.47879289996096, 38.94514034212971], [115.4707525928847, 38.94632265321354], [115.47070114243402, 38.94042103847564], [115.47624226811604, 38.9386121210712], [115.47595996651717, 38.93267486655837], [115.47933687789859, 38.92936225195725], [115.47299655362396, 38.93011929014621], [115.47384718608143, 38.925440356720785], [115.47724977204042, 38.924055533947005], [115.47650255482063, 38.91971700991081], [115.47967230252645, 38.91988078541098], [115.47869448473826, 38.913079012509975], [115.48116917866601, 38.909814920616], [115.4838510328704, 38.896463348992235], [115.48423935120876, 38.881568984687824], [115.48542619681552, 38.879316704557624], [115.48313217284917, 38.87291967395232], [115.46251980187508, 38.84948838350824], [115.44338719150875, 38.83971208871438], [115.44562715934056, 38.83527056132808], [115.44565406483447, 38.82851422273381], [115.4369292936952, 38.829568877797364], [115.43301893363817, 38.828580786888], [115.43602924139444, 38.82358670176974], [115.42754149957305, 38.823661625050576], [115.42743730439305, 38.8320030758829], [115.41987790641925, 38.8302728569133], [115.42162811760157, 38.82000172169398], [115.41353170368662, 38.819944304438636], [115.41157751909486, 38.827717324531484], [115.397068058284, 38.82276878410521], [115.39560538638547, 38.81577084923751], [115.38328900041736, 38.813881618914685], [115.37644160950951, 38.808595649887934], [115.38021101507029, 38.808143211437276], [115.38021261700834, 38.7952637882711], [115.37508424227259, 38.79413147651578], [115.37467472048228, 38.786819589543015], [115.37680310905945, 38.78469638082937], [115.38865409668601, 38.78401410054673], [115.3880138074118, 38.782117421868044], [115.4062647338874, 38.792564011784094], [115.40575014018484, 38.796340027060644], [115.41147889864799, 38.80018661850054], [115.41625829462983, 38.79972327171566], [115.4227865966158, 38.80312549724508], [115.42309558881497, 38.798211285486666], [115.43230251381479, 38.79756695308892], [115.43536515872172, 38.78969017558922], [115.44118033976885, 38.78952740521246], [115.44190161895646, 38.78432023014963], [115.45006208881527, 38.783007197514486], [115.45049997982193, 38.78535392564307], [115.46726685897548, 38.78991152069081], [115.46363460343015, 38.79126470532396], [115.47066783188745, 38.79604129648603], [115.48200724572392, 38.7965903494453], [115.48577030925824, 38.79939479658818], [115.48644125307153, 38.79653420613659], [115.493247070906, 38.79520897020964], [115.49969344703884, 38.78891740977863], [115.50062154971197, 38.78559184948404], [115.50531447362367, 38.78369083644199], [115.51114022119032, 38.78626084806967], [115.52572974914655, 38.787940584075514], [115.52699215566814, 38.789669144270995], [115.54695910982043, 38.79194168157568], [115.55038337678528, 38.79653546431796], [115.5619163411533, 38.797125855668305], [115.5659560371857, 38.804734959443394], [115.56909413407801, 38.8046361856171], [115.57089487635909, 38.80894816885605], [115.56672686547257, 38.81077090973966], [115.5645910051022, 38.81504267665483], [115.56330230317762, 38.83155304686852], [115.57176667702603, 38.831840146455484], [115.57354092089643, 38.83778791996679], [115.57276695900491, 38.85210529028495], [115.57585365415133, 38.85340077398011], [115.57749810454406, 38.8611380297183], [115.58374569536748, 38.861314640155335], [115.58515821997179, 38.86884326438738], [115.59548843226248, 38.86655582312799], [115.59620700664999, 38.87236062265228], [115.59122183346487, 38.87887012476949], [115.59003953370818, 38.883312246498654], [115.58433444681617, 38.885393448299446], [115.58407676640118, 38.888923281251984], [115.58828953189288, 38.90619544777449], [115.58718404621708, 38.911101113798125], [115.58319996102705, 38.91325067603147], [115.58304540422384, 38.91653765421385]]]]}}