{"type": "Feature", "properties": {"unit_id": "baoding_core", "name": "主城区", "district_codes": [130606, 130602]}, "geometry": {"type": "Polygon", "coordinates": [[[115.48557162255457, 38.95369263420539], [115.4918873744303, 38.953298454945106], [115.49129504818205, 38.94505563321256], [115.49910750041396, 38.9416899614104], [115.51367376348558, 38.938188342292314], [115.51362295328747, 38.93498809550258], [115.51728346020272, 38.9326410930823], [115.52406327206377, 38.93176472529852], [115.52468101571301, 38.936309729960676], [115.53491162273619, 38.93511437297777], [115.53766866620904, 38.93696307810148], [115.55579980083627, 38.930978318649224], [115.56578680986262, 38.93001396933694], [115.57193642582934, 38.92064132278168], [115.5782881868393, 38.92014896045112], [115.58304540422384, 38.91653765421385], [115.58319996102705, 38.91325067603147], [115.58718404621708, 38.911101113798125], [115.58828953189288, 38.90619544777449], [115.58407676640118, 38.888923281251984], [115.58433444681617, 38.885393448299446], [115.59003953370818, 38.883312246498654], [115.59122183346487, 38.87887012476949], [115.59620700664999, 38.87236062265228], [115.59548843226248, 38.86655582312799], [115.58515821997179, 38.86884326438738], [115.58374569536748, 38.861314640155335], [115.57749810454406, 38.8611380297183], [115.57585365415133, 38.85340077398011], [115.57276695900491, 38.85210529028495], [115.57354092089643, 38.83778791996679], [115.57176667702603, 38.831840146455484], [115.56330230317762, 38.83155304686852], [115.5645910051022, 38.81504267665483], [115.56672686547257, 38.81077090973966], [115.57089487635909, 38.80894816885605], [115.56909413407801, 38.8046361856171], [115.5659560371857, 38.804734959443394], [115.5619163411533, 38.797125855668305], [115.55038337678528, 38.79653546431796], [115.54695910982043, 38.79194168157568], [115.52699215566814, 38.789669144270995], [115.52572974914655, 38.787940584075514], [115.51114022119032, 38.78626084806967], [115.50531447362367, 38.78369083644199], [115.50062154971197, 38.78559184948404], [115.49969344703884, 38.78891740977863], [115.493247070906, 38.79520897020964], [115.48644125307153, 38.79653420613659], [115.48577030925824, 38.79939479658818], [115.48200724572392, 38.7965903494453], [115.47066783188745, 38.79604129648603], [115.46363460343015, 38.79126470532396], [115.46726685897548, 38.78991152069081], [115.45049997982193, 38.78535392564307], [115.45006208881527, 38.783007197514486], [115.44190161895646, 38.78432023014963], [115.44118033976885, 38.78952740521246], [115.43536515872172, 38.78969017558922], [115.43230251381479, 38.79756695308892], [115.42309558881497, 38.798211285486666], [115.4227865966158, 38.80312549724508], [115.41625829462983, 38.79972327171566], [115.41147889864799, 38.80018661850054], [115.40575014018484, 38.796340027060644], [115.4062647338874, 38.792564011784094], [115.3880138074118, 38.782117421868044], [115.38865409668601, 38.78401410054673], [115.37680310905945, 38.78469638082937], [115.37467472048228, 38.786819589543015], [115.37508424227259, 38.79413147651578], [115.38021261700834, 38.7952637882711], [115.38021101507029, 38.808143211437276], [115.37644160950951, 38.808595649887934], [115.36344338166789, 38.80795618958214], [115.36146827147158, 38.81452767164079], [115.35752210457865, 38.81415492827419], [115.35795670360982, 38.818343054390674], [115.3477585366989, 38.81989433696347], [115.34783509548338, 38.82204806846308], [115.33594829386028, 38.830929227452266], [115.34842357924721, 38.83156098405398], [115.35895423929794, 38.83817895095487], [115.35903009280865, 38.846191491875516], [115.35346934757368, 38.848319282034346], [115.3527512663596, 38.85340369905736], [115.34096631477188, 38.85342462548915], [115.33153905681972, 38.856422793122825], [115.33207559574875, 38.865551703766315], [115.33102443680481, 38.87182320744906], [115.33640328825967, 38.87858214812519], [115.33699187349349, 38.88643357800721], [115.34972366733253, 38.88783957266193], [115.3505935880026, 38.896998817842686], [115.35343667221505, 38.90260676089918], [115.35146263903978, 38.913299875266446], [115.35515164415212, 38.913672494877694], [115.35615035457343, 38.92331022266993], [115.35796926777536, 38.92616364455642], [115.3622240205771, 38.925520548808706], [115.3611213725908, 38.931528635026055], [115.36429952485314, 38.930749467900156], [115.36683603431788, 38.938782203555704], [115.36299080672349, 38.93975099958981], [115.36537337784856, 38.94850539741991], [115.36865476353283, 38.94839807061677], [115.36732131869174, 38.95385354775903], [115.37637154352285, 38.953997691247], [115.38524640760453, 38.955709818960955], [115.38955741433496, 38.95238707855629], [115.39492156189101, 38.95222981676652], [115.39772006777979, 38.949200879649034], [115.40436976116898, 38.94920044702195], [115.4069648402984, 38.945140233356184], [115.41377294695857, 38.94719037907093], [115.41970913831874, 38.946919310561384], [115.42168875101108, 38.95144521005816], [115.43001945260457, 38.95119603979919], [115.43557515040933, 38.96142135973657], [115.43065904054656, 38.97890710311792], [115.42834274281815, 38.99138771888163], [115.42947258061267, 39.006879573019894], [115.43721582767495, 39.00609963458348], [115.44751202335489, 39.002937447638445], [115.45781282797348, 38.99632231258864], [115.47404600149389, 38.98126641570107], [115.47989881614905, 38.963172634544776], [115.48116344337339, 38.956209419936194], [115.48557162255457, 38.95369263420539]]]}}