{"type": "Feature", "properties": {"unit_id": "baoding_urban", "name": "全部市辖区联合区域", "district_codes": [130606, 130602, 130607, 130608, 130609]}, "geometry": {"type": "Polygon", "coordinates": [[[115.75535770245423, 38.8799405767783], [115.7571570565342, 38.8710020049061], [115.75538441411797, 38.86595444824133], [115.74752436317131, 38.86061415781262], [115.7476018061371, 38.85713407551167], [115.74038494431424, 38.85808334688609], [115.73602122005248, 38.85395065611338], [115.73178578672265, 38.85436706049048], [115.72709008000017, 38.84996014264392], [115.71598130676364, 38.850885218437746], [115.70798020220009, 38.84713890002196], [115.69867406849934, 38.84661957014998], [115.69083018783195, 38.84778740301358], [115.68875444867001, 38.84553435785317], [115.68762930244503, 38.831715858085516], [115.67678933955457, 38.83142532408481], [115.67717417669047, 38.82609942510362], [115.68027474537975, 38.826283435304795], [115.6824018452096, 38.82255640012597], [115.68704060230819, 38.822185994217605], [115.68327433696427, 38.81203927380906], [115.67953334884794, 38.8089259321039], [115.6741771499873, 38.811711710325945], [115.65744526409624, 38.799761569754416], [115.65496020547019, 38.799783086844954], [115.65447253522409, 38.80507725730269], [115.64929573905982, 38.80268959911485], [115.64709182091755, 38.79405473296009], [115.65091055421004, 38.79549646129907], [115.65070739291848, 38.78325294534825], [115.64650477836453, 38.77806867214887], [115.66664822111089, 38.7756863027471], [115.66785296204829, 38.773511061759855], [115.67605289708678, 38.77266675476696], [115.67551584199718, 38.76575112048856], [115.67812963020745, 38.76390001642289], [115.650145375264, 38.7670578270443], [115.65117017223055, 38.76928097056016], [115.66019139430558, 38.768746871433635], [115.66098517742651, 38.77374796460406], [115.6540401440236, 38.77341587862478], [115.64563373043752, 38.774758736243065], [115.64573651006857, 38.76663349970231], [115.63550981712062, 38.75367535898638], [115.63558726686864, 38.74889547655439], [115.64102279591903, 38.74824972182699], [115.64212532916824, 38.74507246588948], [115.64637984924349, 38.74560032778531], [115.64397185620308, 38.73925417951469], [115.64410080156934, 38.729364413401164], [115.62751152641503, 38.728283277143774], [115.62138119015798, 38.72692543363959], [115.62322914549254, 38.72057137814645], [115.62315319963953, 38.71226803390673], [115.62469214481946, 38.70763837776431], [115.62115330039046, 38.70228921979971], [115.61974234506887, 38.69555630908544], [115.61540670587138, 38.69486916745101], [115.61776787033004, 38.687700202237345], [115.62941411348625, 38.68653057974394], [115.64685002240843, 38.67774741604541], [115.64385110021846, 38.67122286024761], [115.63954484355105, 38.66661734164745], [115.63205778973469, 38.668320295768595], [115.63174991598679, 38.670791759308536], [115.61533277298234, 38.66916734264478], [115.60914721135066, 38.66623428416697], [115.60301146141552, 38.66538986649108], [115.59648941283267, 38.65751143491222], [115.59795475837875, 38.649614304914486], [115.59027342998095, 38.647954755951815], [115.59060813617927, 38.64382431657747], [115.58328302953824, 38.64221344151521], [115.5818701920134, 38.63604162724739], [115.57739661126531, 38.635174351306546], [115.57137918246593, 38.62692190682845], [115.5633007772464, 38.62440492442834], [115.56155191402769, 38.61601692350446], [115.56628698811016, 38.61586799234227], [115.56659675882047, 38.60604747159134], [115.56309881697295, 38.59483576119035], [115.55699903859916, 38.591625676275285], [115.52575436565311, 38.58264555890019], [115.51583115950471, 38.58102606168436], [115.49863592371676, 38.57640832632907], [115.47907030133557, 38.57430950969229], [115.46958758510792, 38.57120349127356], [115.46471759355573, 38.57567284076299], [115.45969361419168, 38.57493385630172], [115.4574545512707, 38.560394412283976], [115.45142819220274, 38.56051923844628], [115.45176252885389, 38.56527873883615], [115.44280384012193, 38.5643967096038], [115.44035987119521, 38.55989266447729], [115.4345440923551, 38.55915789158328], [115.427907638565, 38.56062005544491], [115.42716187041893, 38.565948880724235], [115.42050221160888, 38.567171221336764], [115.42039950175342, 38.56391796729281], [115.41664672313797, 38.56507398898817], [115.41744279785307, 38.570162196974394], [115.41448730626739, 38.57073127400011], [115.41538646341564, 38.574987649622756], [115.40349207197328, 38.57643760737871], [115.39486536225209, 38.576490847486205], [115.39535404102274, 38.56950053596495], [115.38688516825832, 38.56851789104175], [115.38608957934656, 38.570560894037605], [115.37472633731167, 38.57115893208049], [115.37326598403278, 38.56654076553092], [115.35683471761331, 38.56929783456861], [115.35586100496238, 38.56701498909601], [115.34453612524501, 38.56674058071308], [115.34194976425086, 38.562280439900725], [115.3348282465471, 38.560304290219705], [115.32893749583651, 38.55476090984129], [115.32322559792614, 38.55551567250955], [115.3192810025071, 38.5500364738541], [115.30829131409862, 38.550039643943], [115.302373156346, 38.554185833507624], [115.29914332023907, 38.56069852287455], [115.2981682260417, 38.57014767121557], [115.29883392678347, 38.5776376293484], [115.29270866912532, 38.58280256972113], [115.293476700749, 38.58676234339267], [115.30200901056904, 38.595068571567936], [115.30203396189613, 38.60328409665911], [115.29672831620518, 38.6105893863288], [115.28844848229139, 38.62519372449871], [115.28634637094669, 38.63183528111533], [115.28657603601324, 38.639612339337674], [115.28419114391484, 38.6471507006423], [115.27772946561859, 38.6512544922085], [115.26926582360727, 38.65074312218037], [115.25812889405255, 38.656192099067496], [115.2539962022857, 38.66006371751152], [115.25337973620942, 38.66555877397013], [115.25514891925982, 38.68388638869359], [115.25471092241854, 38.693523617011785], [115.2502696681953, 38.69692674395685], [115.2594065622789, 38.70283043617342], [115.26874599869699, 38.703447062281136], [115.2676672117666, 38.71879629165603], [115.26189295984777, 38.727672721788], [115.25460388925083, 38.72727732284991], [115.25296281545204, 38.71569464099785], [115.2530673371735, 38.70283206758877], [115.24089550737705, 38.70127658727938], [115.23848036216063, 38.70384863200984], [115.23038763214335, 38.703688176446406], [115.2298981463494, 38.71283896691957], [115.23144005392358, 38.71498111996031], [115.23082100813957, 38.728151960418245], [115.22776244452378, 38.73696974987047], [115.22788973061004, 38.74380374236794], [115.23318361413983, 38.745049865857496], [115.23158915090812, 38.756454554149116], [115.23387543701585, 38.75838806144844], [115.23508229511214, 38.765410395166164], [115.2297625173844, 38.76680436847599], [115.22708948721603, 38.77296033277908], [115.22945269859444, 38.77977583774856], [115.23366759588498, 38.78081311741331], [115.23353780280623, 38.78669412768538], [115.23870033003097, 38.80412988664502], [115.24717477608223, 38.805701156119184], [115.24771445612639, 38.808251883023644], [115.2582395343386, 38.80771674469668], [115.25554437600564, 38.81121669596765], [115.25639025095877, 38.81752619965112], [115.25251460051324, 38.81771683764215], [115.24871320794888, 38.82633446810567], [115.24940469865352, 38.83822612027867], [115.24378065582069, 38.845893363325246], [115.23730724919211, 38.84940628097812], [115.23771749788634, 38.857108232920154], [115.24357252547107, 38.86317380981666], [115.25063386110894, 38.86839352057203], [115.25936147467922, 38.86896036364519], [115.26934178082473, 38.87345027648954], [115.27821372615327, 38.88265618359242], [115.27590447987295, 38.89423088132273], [115.28226190375194, 38.90529373306481], [115.27444092444502, 38.914305621272824], [115.27000280657063, 38.91677089540629], [115.26402541950863, 38.916739826396885], [115.25589128267355, 38.90961721143597], [115.25578853751647, 38.90787824792141], [115.24898624558834, 38.908171840957756], [115.24852477699515, 38.89589592845808], [115.23514348994962, 38.89601303839715], [115.23000335132356, 38.90160559682974], [115.21583840301261, 38.906378330020445], [115.20873920402971, 38.91953758347714], [115.20495739341507, 38.92350787769837], [115.20521418875596, 38.92880912788201], [115.20824845728119, 38.935507481544846], [115.20518788719056, 38.93908199933498], [115.1984481505726, 38.93483916182118], [115.19132024562, 38.94090064328335], [115.17991959517722, 38.94265309988297], [115.17698621963095, 38.94163225753617], [115.17109279885413, 38.94378893675192], [115.17428332754993, 38.948664005649476], [115.1631117024292, 38.963145445228534], [115.16432064670396, 38.968910199613454], [115.16874739276754, 38.96948610052101], [115.17520626869329, 38.97396948995812], [115.17520531623995, 38.98167381159513], [115.16835853634618, 38.99368066704896], [115.1685382949553, 38.99887283130381], [115.15829494895632, 39.00609152820958], [115.14923704295866, 39.00812148986749], [115.14478581357703, 39.00577665836724], [115.14162169205407, 39.00888283632407], [115.12400587567122, 39.009839673107024], [115.12164213036881, 39.00380407524765], [115.11717052793416, 39.00043034263302], [115.10378549996574, 38.99995988713442], [115.08884503848385, 39.009519463288456], [115.07807101427318, 39.01263776678414], [115.07161059311292, 39.00810636159269], [115.07004616680332, 39.00975827617577], [115.0559284562045, 39.0080443862072], [115.04868164042806, 39.00556628864426], [115.04893759865946, 39.00797227421189], [115.0396713530587, 39.00783834138776], [115.03281185995044, 39.01543591136182], [115.02654317697963, 39.01923438658847], [115.02147772924154, 39.01636134897849], [115.01702683943913, 39.01828201885406], [115.01083788704182, 39.01529216432333], [115.00866407093095, 39.012015696914986], [115.00572245898246, 39.01666572372806], [114.9963628464069, 39.015473879177144], [114.98774390678605, 39.022580472521824], [114.98679624243503, 39.026363965379225], [114.98249916944665, 39.02713313523843], [114.97996635017658, 39.03291491259842], [114.9742876644174, 39.0354913671071], [114.97004052917484, 39.03342320739379], [114.96689349526291, 39.035528211799814], [114.95755179281323, 39.03501856944013], [114.95599033830511, 39.037891396559864], [114.9586771910665, 39.04355567908429], [114.95463122911346, 39.05705067336867], [114.9598262861523, 39.0619346386823], [114.96340868734146, 39.06769631641127], [114.96494353682118, 39.075232813436955], [114.96077102427658, 39.08010320233333], [114.95570304762956, 39.081385315727736], [114.95145290717299, 39.08865819114313], [114.95380745680502, 39.09284253839102], [114.94866062512938, 39.09872482410676], [114.95321702853255, 39.102870711112814], [114.95575121936798, 39.11223736864941], [114.96299333409921, 39.11585891456232], [114.97189875428418, 39.11684807646835], [114.97652803391416, 39.12028518103147], [114.98381860646175, 39.12141452521692], [114.98591618415627, 39.11392488776913], [114.98865324921265, 39.11367590152098], [114.99701727802699, 39.10530875917504], [115.00727221747941, 39.106375987052715], [115.01074952479794, 39.111257563768454], [115.01481622043596, 39.11121150543721], [115.01970241964018, 39.10754148735116], [115.0270969128873, 39.09407789270847], [115.03318662441778, 39.087726517598625], [115.0288885879513, 39.08365139942343], [115.03285521350949, 39.07623942066688], [115.03897180648529, 39.07146693045006], [115.04695825270416, 39.07397295250557], [115.04752267042828, 39.06510917415743], [115.04332475664269, 39.063108761489644], [115.04775420750745, 39.05524873890824], [115.05389982267015, 39.055940778813316], [115.05315731298037, 39.051956670419095], [115.0615593519302, 39.051838690426564], [115.06201996444838, 39.05458625637344], [115.07029661392784, 39.0586798890818], [115.08273231396821, 39.060333680452196], [115.08850513335875, 39.058802317286215], [115.09191752066333, 39.061549379277515], [115.10067049014917, 39.06359228614794], [115.1028530581483, 39.06687358199047], [115.10891465993724, 39.064487972574106], [115.10950723043929, 39.05380381328537], [115.11397811830807, 39.04942499674456], [115.1219712310105, 39.04568665635607], [115.14614439243861, 39.04570130670321], [115.15612814226758, 39.04805486348271], [115.17208044823627, 39.06965897797434], [115.17823069829011, 39.07358606536681], [115.19089233626987, 39.07115344800863], [115.20036211237765, 39.062271603678745], [115.21512646281494, 39.05318776385779], [115.2272864291616, 39.05407648631876], [115.24062119795833, 39.057038326887856], [115.24506374611896, 39.059753760718216], [115.24793908376412, 39.06573140247772], [115.24670623320465, 39.07282494547737], [115.23956423965934, 39.0865098544156], [115.24064224332311, 39.097515499856414], [115.24824352298174, 39.10280470213401], [115.26022914039324, 39.11294734478617], [115.26520709208029, 39.11570918296773], [115.30012515222691, 39.12579482911994], [115.31457535149185, 39.121444208944865], [115.33719284490564, 39.12383877323329], [115.3483090229288, 39.13486976363205], [115.35740475738939, 39.13902401007739], [115.37439872747045, 39.148934919079274], [115.39412628580085, 39.14741004321126], [115.41151315370409, 39.14059937134325], [115.42212761303854, 39.13928493524737], [115.42858114126619, 39.142053855680835], [115.44175173471297, 39.15651821330863], [115.44731163196805, 39.161348475086186], [115.46492714043606, 39.16735619080799], [115.47907449371543, 39.16670835566247], [115.48791696539011, 39.16239438241785], [115.49560013069744, 39.15622483254508], [115.50645416632288, 39.159430401612866], [115.50838789786805, 39.159230269933765], [115.50942032809705, 39.1484257639918], [115.51279777586514, 39.14762918560358], [115.51140637282478, 39.13880638854408], [115.51269573915033, 39.136493564380636], [115.52421802221728, 39.136303532672535], [115.52687303713714, 39.13457781690041], [115.54336380657982, 39.12888735005127], [115.55809326676516, 39.124815203681344], [115.5754613947217, 39.119123250575996], [115.60046728440261, 39.11347028671312], [115.62251470162514, 39.11762790238255], [115.63926018140175, 39.121554261222165], [115.65394737260613, 39.124104294692145], [115.66365957167918, 39.12478992371912], [115.68131524990112, 39.11955639174468], [115.6936950195026, 39.11066026546993], [115.7019240028821, 39.10745354228703], [115.71633523256837, 39.10334783958242], [115.72397975195688, 39.10244707492076], [115.7330899265564, 39.103143265250374], [115.74839323792204, 39.10200430060864], [115.75497097782761, 39.09740338594449], [115.75661589098286, 39.090982639095415], [115.75813364629333, 39.077916042931804], [115.76142511409469, 39.06505309173415], [115.76402386966885, 39.0478418728646], [115.76086491915692, 39.02130880026613], [115.76107167200648, 39.016719701634884], [115.76415670215681, 39.00936461033939], [115.77747856746186, 38.998904919959806], [115.76999573901793, 38.9857116570358], [115.76400642326652, 38.977436036305285], [115.76262052499108, 38.964639127090656], [115.75969081109895, 38.95595119787261], [115.75529707807856, 38.95068621135304], [115.74443189886703, 38.94175684414967], [115.7397336590047, 38.935116303146366], [115.73642200301718, 38.93730255969612], [115.7294161045074, 38.91997740260148], [115.73739923666, 38.916977060079475], [115.74312648353444, 38.91124318663254], [115.74230640721007, 38.89511177545954], [115.74541382281636, 38.89416453048756], [115.74698096868475, 38.88744811774494], [115.74626268893678, 38.88012938879457], [115.75535770245423, 38.8799405767783]]]}}