{"type": "Feature", "properties": {"unit_id": "baoding_130609", "name": "徐水区", "district_codes": [130609]}, "geometry": {"type": "MultiPolygon", "coordinates": [[[[115.42947258061267, 39.006879573019894], [115.43721582767495, 39.00609963458348], [115.44751202335489, 39.002937447638445], [115.45781282797348, 38.99632231258864], [115.47404600149389, 38.98126641570107], [115.47989881614905, 38.963172634544776], [115.48116344337339, 38.956209419936194], [115.48557162255457, 38.95369263420539], [115.4918873744303, 38.953298454945106], [115.49129504818205, 38.94505563321256], [115.49910750041396, 38.9416899614104], [115.51367376348558, 38.938188342292314], [115.51362295328747, 38.93498809550258], [115.51728346020272, 38.9326410930823], [115.52406327206377, 38.93176472529852], [115.52468101571301, 38.936309729960676], [115.53491162273619, 38.93511437297777], [115.53766866620904, 38.93696307810148], [115.55579980083627, 38.930978318649224], [115.56578680986262, 38.93001396933694], [115.57193642582934, 38.92064132278168], [115.5782881868393, 38.92014896045112], [115.58304540422384, 38.91653765421385], [115.58918800490507, 38.91640384267398], [115.59337532787876, 38.91864167912485], [115.59432620924949, 38.923444008129266], [115.60298121939557, 38.92179153335807], [115.61419924677278, 38.92531416551958], [115.634155902981, 38.92145543622358], [115.64676902886141, 38.923312030281565], [115.66670758913304, 38.92220946949002], [115.67611216522717, 38.919694927433675], [115.68052056315328, 38.915246149661414], [115.68374851917974, 38.919129812339186], [115.68731149783197, 38.91013849289927], [115.69238668750049, 38.91059412374348], [115.68979836210066, 38.90429738384346], [115.69707816289174, 38.902132975269595], [115.69420781863045, 38.898092198970424], [115.70569394799931, 38.88564175719602], [115.72431435381233, 38.88153704722429], [115.72377613050806, 38.878799117398025], [115.72978095842791, 38.8781912301391], [115.73406641747643, 38.882390881496], [115.74218001043648, 38.8818703828277], [115.74626268893678, 38.88012938879457], [115.74698096868475, 38.88744811774494], [115.74541382281636, 38.89416453048756], [115.74230640721007, 38.89511177545954], [115.74312648353444, 38.91124318663254], [115.73739923666, 38.916977060079475], [115.7294161045074, 38.91997740260148], [115.73642200301718, 38.93730255969612], [115.7397336590047, 38.935116303146366], [115.74443189886703, 38.94175684414967], [115.75529707807856, 38.95068621135304], [115.75969081109895, 38.95595119787261], [115.76262052499108, 38.964639127090656], [115.76400642326652, 38.977436036305285], [115.76999573901793, 38.9857116570358], [115.77747856746186, 38.998904919959806], [115.76415670215681, 39.00936461033939], [115.76107167200648, 39.016719701634884], [115.76086491915692, 39.02130880026613], [115.76402386966885, 39.0478418728646], [115.76142511409469, 39.06505309173415], [115.75813364629333, 39.077916042931804], [115.75661589098286, 39.090982639095415], [115.75497097782761, 39.09740338594449], [115.74839323792204, 39.10200430060864], [115.7330899265564, 39.103143265250374], [115.72397975195688, 39.10244707492076], [115.71633523256837, 39.10334783958242], [115.7019240028821, 39.10745354228703], [115.6936950195026, 39.11066026546993], [115.68131524990112, 39.11955639174468], [115.66365957167918, 39.12478992371912], [115.65394737260613, 39.124104294692145], [115.63926018140175, 39.121554261222165], [115.62251470162514, 39.11762790238255], [115.60046728440261, 39.11347028671312], [115.5754613947217, 39.119123250575996], [115.55809326676516, 39.124815203681344], [115.54336380657982, 39.12888735005127], [115.52687303713714, 39.13457781690041], [115.52421802221728, 39.136303532672535], [115.51269573915033, 39.136493564380636], [115.51140637282478, 39.13880638854408], [115.51279777586514, 39.14762918560358], [115.50942032809705, 39.1484257639918], [115.50838789786805, 39.159230269933765], [115.50645416632288, 39.159430401612866], [115.49560013069744, 39.15622483254508], [115.48791696539011, 39.16239438241785], [115.47907449371543, 39.16670835566247], [115.46492714043606, 39.16735619080799], [115.44731163196805, 39.161348475086186], [115.44175173471297, 39.15651821330863], [115.42858114126619, 39.142053855680835], [115.42212761303854, 39.13928493524737], [115.41151315370409, 39.14059937134325], [115.39412628580085, 39.14741004321126], [115.37439872747045, 39.148934919079274], [115.35740475738939, 39.13902401007739], [115.3483090229288, 39.13486976363205], [115.33719284490564, 39.12383877323329], [115.33457998357036, 39.11831706968411], [115.3261295862897, 39.10638650293404], [115.31890742259041, 39.09170422720389], [115.32354842588065, 39.05509788741346], [115.32534259191756, 39.049837691337906], [115.33822745481918, 39.04259755812092], [115.33955864933053, 39.04713027417318], [115.3534186927736, 39.04698568598134], [115.35795394063024, 39.04902307525775], [115.36400263509046, 39.0460238502364], [115.36618138948963, 39.04878711510249], [115.36605194314836, 39.05414699259857], [115.3693847582101, 39.05852390721544], [115.37671876715807, 39.05210740640763], [115.38156613904559, 39.05060774783346], [115.38431200868071, 39.045331781056085], [115.38890458413151, 39.04214968282838], [115.3884436740577, 39.03615364267078], [115.3927552987323, 39.03364300363056], [115.39308879660379, 39.03630622755112], [115.39873649935578, 39.031578522696655], [115.39804315325276, 39.027472173119065], [115.38980463970651, 39.02883237625382], [115.3890608963462, 39.022904432983346], [115.39224390272531, 39.015082631714705], [115.39843117708581, 39.01076536304297], [115.40726508353673, 39.00758543584163], [115.42947258061267, 39.006879573019894]]]]}}