{"type": "Feature", "properties": {"unit_id": "baoding_130608", "name": "清苑区", "district_codes": [130608]}, "geometry": {"type": "MultiPolygon", "coordinates": [[[[115.46958758510792, 38.57120349127356], [115.47907030133557, 38.57430950969229], [115.49863592371676, 38.57640832632907], [115.51583115950471, 38.58102606168436], [115.52575436565311, 38.58264555890019], [115.55699903859916, 38.591625676275285], [115.56309881697295, 38.59483576119035], [115.56659675882047, 38.60604747159134], [115.56628698811016, 38.61586799234227], [115.56155191402769, 38.61601692350446], [115.5633007772464, 38.62440492442834], [115.57137918246593, 38.62692190682845], [115.57739661126531, 38.635174351306546], [115.5818701920134, 38.63604162724739], [115.58328302953824, 38.64221344151521], [115.59060813617927, 38.64382431657747], [115.59027342998095, 38.647954755951815], [115.59795475837875, 38.649614304914486], [115.59648941283267, 38.65751143491222], [115.60301146141552, 38.66538986649108], [115.60914721135066, 38.66623428416697], [115.61533277298234, 38.66916734264478], [115.63174991598679, 38.670791759308536], [115.63205778973469, 38.668320295768595], [115.63954484355105, 38.66661734164745], [115.64385110021846, 38.67122286024761], [115.64685002240843, 38.67774741604541], [115.62941411348625, 38.68653057974394], [115.61776787033004, 38.687700202237345], [115.61540670587138, 38.69486916745101], [115.61974234506887, 38.69555630908544], [115.62115330039046, 38.70228921979971], [115.62469214481946, 38.70763837776431], [115.62315319963953, 38.71226803390673], [115.62322914549254, 38.72057137814645], [115.62138119015798, 38.72692543363959], [115.62751152641503, 38.728283277143774], [115.64410080156934, 38.729364413401164], [115.64397185620308, 38.73925417951469], [115.64637984924349, 38.74560032778531], [115.64212532916824, 38.74507246588948], [115.64102279591903, 38.74824972182699], [115.63558726686864, 38.74889547655439], [115.63550981712062, 38.75367535898638], [115.64573651006857, 38.76663349970231], [115.64563373043752, 38.774758736243065], [115.6540401440236, 38.77341587862478], [115.66098517742651, 38.77374796460406], [115.66019139430558, 38.768746871433635], [115.65117017223055, 38.76928097056016], [115.650145375264, 38.7670578270443], [115.67812963020745, 38.76390001642289], [115.67551584199718, 38.76575112048856], [115.67605289708678, 38.77266675476696], [115.66785296204829, 38.773511061759855], [115.66664822111089, 38.7756863027471], [115.64650477836453, 38.77806867214887], [115.65070739291848, 38.78325294534825], [115.65091055421004, 38.79549646129907], [115.64709182091755, 38.79405473296009], [115.64929573905982, 38.80268959911485], [115.65447253522409, 38.80507725730269], [115.65496020547019, 38.799783086844954], [115.65744526409624, 38.799761569754416], [115.6741771499873, 38.811711710325945], [115.67953334884794, 38.8089259321039], [115.68327433696427, 38.81203927380906], [115.68704060230819, 38.822185994217605], [115.6824018452096, 38.82255640012597], [115.68027474537975, 38.826283435304795], [115.67717417669047, 38.82609942510362], [115.67678933955457, 38.83142532408481], [115.68762930244503, 38.831715858085516], [115.68875444867001, 38.84553435785317], [115.69083018783195, 38.84778740301358], [115.69867406849934, 38.84661957014998], [115.70798020220009, 38.84713890002196], [115.71598130676364, 38.850885218437746], [115.72709008000017, 38.84996014264392], [115.73178578672265, 38.85436706049048], [115.73602122005248, 38.85395065611338], [115.74038494431424, 38.85808334688609], [115.7476018061371, 38.85713407551167], [115.74752436317131, 38.86061415781262], [115.75538441411797, 38.86595444824133], [115.7571570565342, 38.8710020049061], [115.75535770245423, 38.8799405767783], [115.74626268893678, 38.88012938879457], [115.74218001043648, 38.8818703828277], [115.73406641747643, 38.882390881496], [115.72978095842791, 38.8781912301391], [115.72377613050806, 38.878799117398025], [115.72431435381233, 38.88153704722429], [115.70569394799931, 38.88564175719602], [115.69420781863045, 38.898092198970424], [115.69707816289174, 38.902132975269595], [115.68979836210066, 38.90429738384346], [115.69238668750049, 38.91059412374348], [115.68731149783197, 38.91013849289927], [115.68374851917974, 38.919129812339186], [115.68052056315328, 38.915246149661414], [115.67611216522717, 38.919694927433675], [115.66670758913304, 38.92220946949002], [115.64676902886141, 38.923312030281565], [115.634155902981, 38.92145543622358], [115.61419924677278, 38.92531416551958], [115.60298121939557, 38.92179153335807], [115.59432620924949, 38.923444008129266], [115.59337532787876, 38.91864167912485], [115.58918800490507, 38.91640384267398], [115.58304540422384, 38.91653765421385], [115.58319996102705, 38.91325067603147], [115.58718404621708, 38.911101113798125], [115.58828953189288, 38.90619544777449], [115.58407676640118, 38.888923281251984], [115.58433444681617, 38.885393448299446], [115.59003953370818, 38.883312246498654], [115.59122183346487, 38.87887012476949], [115.59620700664999, 38.87236062265228], [115.59548843226248, 38.86655582312799], [115.58515821997179, 38.86884326438738], [115.58374569536748, 38.861314640155335], [115.57749810454406, 38.8611380297183], [115.57585365415133, 38.85340077398011], [115.57276695900491, 38.85210529028495], [115.57354092089643, 38.83778791996679], [115.57176667702603, 38.831840146455484], [115.56330230317762, 38.83155304686852], [115.5645910051022, 38.81504267665483], [115.56672686547257, 38.81077090973966], [115.57089487635909, 38.80894816885605], [115.56909413407801, 38.8046361856171], [115.5659560371857, 38.804734959443394], [115.5619163411533, 38.797125855668305], [115.55038337678528, 38.79653546431796], [115.54695910982043, 38.79194168157568], [115.52699215566814, 38.789669144270995], [115.52572974914655, 38.787940584075514], [115.51114022119032, 38.78626084806967], [115.50531447362367, 38.78369083644199], [115.50062154971197, 38.78559184948404], [115.49969344703884, 38.78891740977863], [115.493247070906, 38.79520897020964], [115.48644125307153, 38.79653420613659], [115.48577030925824, 38.79939479658818], [115.48200724572392, 38.7965903494453], [115.47066783188745, 38.79604129648603], [115.46363460343015, 38.79126470532396], [115.46726685897548, 38.78991152069081], [115.45049997982193, 38.78535392564307], [115.45006208881527, 38.783007197514486], [115.44190161895646, 38.78432023014963], [115.44118033976885, 38.78952740521246], [115.43536515872172, 38.78969017558922], [115.43230251381479, 38.79756695308892], [115.42309558881497, 38.798211285486666], [115.4227865966158, 38.80312549724508], [115.41625829462983, 38.79972327171566], [115.41147889864799, 38.80018661850054], [115.40575014018484, 38.796340027060644], [115.4062647338874, 38.792564011784094], [115.3880138074118, 38.782117421868044], [115.38865409668601, 38.78401410054673], [115.37680310905945, 38.78469638082937], [115.37467472048228, 38.786819589543015], [115.36967481349274, 38.782220775213965], [115.36183145497017, 38.78330100628222], [115.35862809990635, 38.78006346937287], [115.34325487703687, 38.780469520760235], [115.337489967914, 38.78674013075715], [115.33241818491679, 38.78897465098724], [115.31927782888118, 38.78929260769726], [115.31323336988208, 38.78257820813663], [115.30552284846218, 38.778883768082295], [115.30578056047068, 38.76825749122577], [115.30216830886043, 38.76267429262926], [115.30193839465392, 38.75789593985856], [115.30752414168803, 38.75536758274182], [115.30726877177614, 38.7468270050305], [115.29830029807304, 38.748774105767424], [115.29978541625752, 38.76307500890645], [115.28981631403957, 38.76291805910515], [115.28502322147499, 38.75900820901068], [115.28369101890355, 38.75407516324384], [115.27802475898913, 38.75292504464895], [115.27823030735165, 38.7460060408783], [115.27651405304715, 38.734634945000444], [115.27492454197183, 38.73130495356018], [115.26869216227055, 38.72737482543008], [115.26466379645892, 38.72799913808561], [115.26314812892535, 38.7434979819697], [115.26335323749652, 38.749572076037076], [115.25591072761249, 38.74921210449267], [115.25285602757704, 38.747314555665874], [115.24189226420569, 38.746916887203255], [115.23318361413983, 38.745049865857496], [115.22788973061004, 38.74380374236794], [115.22776244452378, 38.73696974987047], [115.23082100813957, 38.728151960418245], [115.23144005392358, 38.71498111996031], [115.2298981463494, 38.71283896691957], [115.23038763214335, 38.703688176446406], [115.23848036216063, 38.70384863200984], [115.24089550737705, 38.70127658727938], [115.2530673371735, 38.70283206758877], [115.25296281545204, 38.71569464099785], [115.25460388925083, 38.72727732284991], [115.26189295984777, 38.727672721788], [115.2676672117666, 38.71879629165603], [115.26874599869699, 38.703447062281136], [115.2594065622789, 38.70283043617342], [115.2502696681953, 38.69692674395685], [115.25471092241854, 38.693523617011785], [115.25514891925982, 38.68388638869359], [115.25337973620942, 38.66555877397013], [115.2539962022857, 38.66006371751152], [115.25812889405255, 38.656192099067496], [115.26926582360727, 38.65074312218037], [115.27772946561859, 38.6512544922085], [115.28419114391484, 38.6471507006423], [115.28657603601324, 38.639612339337674], [115.28634637094669, 38.63183528111533], [115.28844848229139, 38.62519372449871], [115.29672831620518, 38.6105893863288], [115.30203396189613, 38.60328409665911], [115.30200901056904, 38.595068571567936], [115.293476700749, 38.58676234339267], [115.29270866912532, 38.58280256972113], [115.29883392678347, 38.5776376293484], [115.2981682260417, 38.57014767121557], [115.29914332023907, 38.56069852287455], [115.302373156346, 38.554185833507624], [115.30829131409862, 38.550039643943], [115.3192810025071, 38.5500364738541], [115.32322559792614, 38.55551567250955], [115.32893749583651, 38.55476090984129], [115.3348282465471, 38.560304290219705], [115.34194976425086, 38.562280439900725], [115.34453612524501, 38.56674058071308], [115.35586100496238, 38.56701498909601], [115.35683471761331, 38.56929783456861], [115.37326598403278, 38.56654076553092], [115.37472633731167, 38.57115893208049], [115.38608957934656, 38.570560894037605], [115.38688516825832, 38.56851789104175], [115.39535404102274, 38.56950053596495], [115.39486536225209, 38.576490847486205], [115.40349207197328, 38.57643760737871], [115.41538646341564, 38.574987649622756], [115.41448730626739, 38.57073127400011], [115.41744279785307, 38.570162196974394], [115.41664672313797, 38.56507398898817], [115.42039950175342, 38.56391796729281], [115.42050221160888, 38.567171221336764], [115.42716187041893, 38.565948880724235], [115.427907638565, 38.56062005544491], [115.4345440923551, 38.55915789158328], [115.44035987119521, 38.55989266447729], [115.44280384012193, 38.5643967096038], [115.45176252885389, 38.56527873883615], [115.45142819220274, 38.56051923844628], [115.4574545512707, 38.560394412283976], [115.45969361419168, 38.57493385630172], [115.46471759355573, 38.57567284076299], [115.46958758510792, 38.57120349127356]]]]}}