{"type": "Feature", "properties": {"unit_id": "beijing_110118", "name": "密云区", "district_codes": [110118]}, "geometry": {"type": "MultiPolygon", "coordinates": [[[[117.21745693186293, 40.37422088984884], [117.22021911604, 40.37724290483638], [117.22260400079372, 40.385527555771034], [117.22894476504567, 40.38824509071277], [117.23051291357574, 40.39276668156551], [117.23425821284634, 40.39310792770289], [117.23404772651439, 40.396319693777635], [117.2301778614841, 40.399530087528866], [117.23107633091078, 40.40647023315279], [117.22764338409608, 40.41582726793808], [117.23743306059548, 40.42153023977359], [117.24029769003435, 40.42556483160222], [117.25121059600728, 40.43405202251567], [117.25689384052042, 40.441051224046596], [117.24619224855334, 40.44471361034175], [117.24571079371204, 40.449132731813165], [117.23686463616241, 40.454096963814294], [117.23008639065974, 40.45522247925559], [117.22675871725556, 40.461863092352274], [117.23079607538513, 40.46744473521043], [117.22445622997017, 40.469116950737906], [117.21932733263456, 40.474496508421005], [117.22200592015146, 40.4799478141554], [117.21145341294365, 40.49321761169331], [117.20559072317587, 40.49330550192719], [117.20194595999922, 40.49668447220528], [117.20209177311925, 40.49971425743429], [117.20801733329431, 40.50600789578241], [117.20602856199999, 40.50652083338202], [117.20854023406375, 40.51188874907947], [117.2135021787565, 40.51294273311999], [117.22394842176435, 40.50979661996598], [117.23309053719446, 40.5153618791196], [117.24037032628884, 40.51061266939013], [117.24910898241582, 40.51357874498478], [117.25667555311188, 40.51178962205183], [117.25765619327437, 40.515913295956395], [117.25500303111279, 40.51770210219043], [117.24866842314455, 40.5266111960381], [117.24555235586335, 40.5349536304771], [117.24097252541739, 40.53886652594875], [117.24415091127291, 40.54065440459425], [117.24308426633742, 40.54680590595748], [117.25317973175798, 40.55149186597828], [117.26203831509393, 40.55846032159455], [117.26671664400268, 40.560115787254794], [117.2727732661904, 40.55895286936021], [117.27909802318142, 40.563663176150634], [117.29303893538825, 40.56538447722417], [117.30528204018233, 40.576583576260326], [117.31885875228149, 40.57668787833024], [117.3218415819674, 40.57447648186413], [117.32799293253152, 40.57498041723565], [117.3361251082678, 40.58008295320084], [117.34336097352273, 40.58068111342861], [117.34634440891655, 40.57731164694097], [117.35921556740365, 40.5744257052921], [117.36251287142454, 40.56881891180115], [117.36873221322047, 40.5662507795422], [117.37169616686614, 40.561820554276416], [117.38255410815786, 40.559684710111796], [117.38789977638308, 40.56634516707251], [117.39383325836822, 40.56777442082226], [117.39682164225779, 40.57268272424556], [117.40671054874848, 40.568320839624334], [117.41447163478114, 40.56753504857613], [117.42323928568456, 40.57455947201964], [117.42305065410217, 40.57772949088147], [117.41645801512146, 40.57986519822797], [117.41386132399184, 40.58929326854876], [117.41499155469633, 40.59159551497633], [117.40798234000142, 40.59913826140074], [117.40597365574112, 40.603530235818056], [117.41318832941649, 40.61591893223136], [117.42352565129796, 40.62441794808538], [117.4312524971357, 40.62410470370942], [117.43554613486617, 40.62639414099092], [117.44214579178423, 40.62680740296067], [117.44729934363245, 40.641271608930914], [117.44472087016125, 40.64499735936565], [117.44975144435995, 40.647595341776096], [117.44237305175731, 40.65000890935983], [117.45530752320643, 40.65151352052229], [117.45761462290169, 40.6470975877614], [117.46120104426883, 40.6479744040921], [117.46642602455105, 40.64292257854934], [117.46888002355763, 40.64289690378321], [117.47133648088999, 40.63381919152843], [117.4795424488564, 40.63200786823345], [117.48334096642793, 40.634544086939826], [117.49385762908062, 40.63475183704282], [117.4954094612619, 40.64306912267847], [117.49847507021396, 40.64470123179665], [117.4962696094774, 40.65162411841382], [117.50739519771909, 40.6547752950409], [117.50806719886428, 40.65910142741419], [117.49637174081064, 40.6682113944507], [117.4867573100132, 40.67377515785423], [117.47810931975647, 40.67556616959195], [117.47575872059605, 40.67750432315273], [117.46482680818954, 40.67278376456112], [117.4584927137212, 40.67196508192755], [117.44723236251811, 40.67602242533605], [117.43547625543788, 40.67499021665458], [117.43057344014697, 40.681972812361025], [117.42594660168474, 40.67999186954906], [117.41966583444325, 40.68366565888488], [117.41257241328691, 40.685316226455086], [117.40807548149019, 40.684302377209285], [117.40244966866534, 40.685634789384835], [117.3904541413087, 40.68213535822941], [117.38023927114449, 40.68254437445039], [117.37145062458063, 40.6771873625311], [117.36385381296833, 40.67809676573626], [117.35304794905765, 40.672328538933606], [117.33575753483397, 40.67187807434246], [117.33004467188735, 40.66541234327589], [117.3309833341727, 40.66290322233058], [117.32522920829905, 40.65997321679586], [117.31457287132402, 40.65677847591317], [117.283907020285, 40.65872365881205], [117.27211224315279, 40.66301094287648], [117.27213279480236, 40.66609685932548], [117.26691177133019, 40.66862404883015], [117.26127038722458, 40.67521569005408], [117.25491830612287, 40.67970071561799], [117.25029932870315, 40.678014434206624], [117.23516163805432, 40.675214555072145], [117.22785919497012, 40.67911506217413], [117.22672912524892, 40.68211808790577], [117.21222312527047, 40.68799964232357], [117.21084111536405, 40.690472132176], [117.20411906265426, 40.690478701747196], [117.20189843725377, 40.69293263874863], [117.19584464161719, 40.69406418451979], [117.19127798912326, 40.69277135847058], [117.18746488995153, 40.694740290795885], [117.17589997892212, 40.69552256121141], [117.17439147648966, 40.69253183356174], [117.17007521403951, 40.6920091155314], [117.16265730549163, 40.69752146246631], [117.15815288896572, 40.698043893603575], [117.15289499036137, 40.69474091957379], [117.14095570600338, 40.697355679191354], [117.13590921402167, 40.695581659746594], [117.12586044570686, 40.697031299511735], [117.122156322889, 40.69927598071654], [117.11115197592252, 40.698433392197266], [117.1040203492368, 40.70658986562888], [117.08851478071875, 40.70390930941024], [117.07943134244375, 40.70041366636935], [117.07454632647872, 40.70097996181931], [117.07020689962413, 40.698398836792], [117.05179145659812, 40.699939007038964], [117.0483521068192, 40.698211337315314], [117.03799659443713, 40.69879776105082], [117.0296443517426, 40.69571945149925], [117.02912388249932, 40.69292480650035], [117.02460523437755, 40.69060782802246], [117.02141968557528, 40.692834269553494], [117.01190478794707, 40.694516906942575], [117.00705413188864, 40.69260380943767], [116.99918519335398, 40.69339813530561], [116.99616675097307, 40.69589755731656], [116.98419565368887, 40.69978868744461], [116.98192648964775, 40.70175493051457], [116.9737230989586, 40.70144042327835], [116.97132779860186, 40.704178031634044], [116.96345446645982, 40.7050009909711], [116.95895419984083, 40.70824066472004], [116.96030739075489, 40.713890384133315], [116.95399365587986, 40.7197337807832], [116.9405467875102, 40.7255889864732], [116.93662616855353, 40.7285342296089], [116.93462206618209, 40.7384589486254], [116.92049341174898, 40.7435795471356], [116.9174655876577, 40.74927965276499], [116.92184937663198, 40.75649866454826], [116.91712900696743, 40.765568573418946], [116.91733781350591, 40.77238820753513], [116.89853351916003, 40.77595484011064], [116.89255506779948, 40.77540773178838], [116.88897837021071, 40.78039525612382], [116.88891421650746, 40.789330277787094], [116.89064959770562, 40.79508962903812], [116.88303465063119, 40.79699348720256], [116.88092130391965, 40.79971766031681], [116.87252971419102, 40.7961811910929], [116.86727520756648, 40.797409887884484], [116.86522433671458, 40.79341432743344], [116.85651280952666, 40.79147616515664], [116.86141481400486, 40.78319098624015], [116.85196900893052, 40.78166850204171], [116.85073444755483, 40.77816915743969], [116.84518306001159, 40.7775341120738], [116.84436611959846, 40.77361768774408], [116.82867436809899, 40.76880754581668], [116.83397676004519, 40.7592857015702], [116.82568104944677, 40.74989826613423], [116.8200865954378, 40.74792932730402], [116.81252337822066, 40.7489917889018], [116.80437433428337, 40.74767673681734], [116.79681286468524, 40.74453509819639], [116.78745217063086, 40.74680138235518], [116.77757124937877, 40.75614726203704], [116.77453785529461, 40.75003007192585], [116.77663080666107, 40.74633972863672], [116.78016924209915, 40.734560994114176], [116.78429417206706, 40.7275177666616], [116.78291390305961, 40.71100910409796], [116.78050789131267, 40.70885399503541], [116.78092703004982, 40.70304057458084], [116.7778088697539, 40.69905418360545], [116.76305857745261, 40.701355828247294], [116.75667918927883, 40.70496804996027], [116.7499694880869, 40.70422788743181], [116.74877847114372, 40.701433920544986], [116.74248819054212, 40.699089760246835], [116.74133965364092, 40.69562057414185], [116.73634693208633, 40.69448158243309], [116.72964319818274, 40.69022894283167], [116.7194345933413, 40.68768437216354], [116.719267484401, 40.68323363186704], [116.70879192502655, 40.67860412890634], [116.7071031092545, 40.66846643544712], [116.70818909082485, 40.6647043904917], [116.7037460122037, 40.661207331000895], [116.70652152108038, 40.65250689869989], [116.70504074946741, 40.64683481337772], [116.70608516938702, 40.63988774087309], [116.69540594526484, 40.63155917064057], [116.69586531150702, 40.62708820873119], [116.69903530650443, 40.62558685322991], [116.69859830327579, 40.61872084943556], [116.69523986086561, 40.62002868487105], [116.69188220669307, 40.61705936363671], [116.69651362239158, 40.61143780836168], [116.7004557586167, 40.609645392138745], [116.70189574612829, 40.60515481527701], [116.6995181455874, 40.60168372266809], [116.70513070240904, 40.598859594892254], [116.70239795708052, 40.59385976775368], [116.70550687730952, 40.590540949678804], [116.70285749086318, 40.58871007388109], [116.70824200495039, 40.57893367231583], [116.70845175845578, 40.569340813684], [116.70440448132906, 40.56735090113944], [116.70375844456044, 40.564180657173424], [116.69326649346797, 40.56225001806065], [116.6803153167832, 40.563207172041295], [116.67362181738127, 40.56072531720663], [116.67637557012856, 40.555487910846814], [116.66273747702117, 40.556254565883144], [116.65979735003461, 40.55118782888402], [116.6709743817444, 40.55319551465012], [116.67622998554137, 40.547630432043576], [116.68465494529758, 40.548178223363635], [116.69606340807697, 40.54414801427439], [116.69539686322592, 40.53860907156847], [116.70086277769637, 40.531272823466935], [116.70647453791645, 40.52863853061704], [116.71110771557674, 40.52347759530838], [116.70614232644698, 40.52074602401847], [116.7053080101873, 40.51515705722098], [116.69500364357424, 40.50926059849088], [116.69304462559909, 40.50315794663518], [116.69229505896293, 40.49199054861717], [116.68733193631762, 40.48951760813886], [116.68810347838317, 40.48419764945926], [116.69826218839286, 40.47776385607967], [116.68743679889414, 40.48044257080593], [116.68735473670971, 40.47484923004251], [116.68952395422701, 40.465462419121046], [116.69261141719232, 40.46677835821526], [116.70009995923438, 40.45865519473379], [116.71080304740795, 40.45578538821715], [116.71311863503288, 40.45910389901602], [116.71748100007629, 40.45724429342265], [116.71349543721304, 40.45444338113754], [116.71316204653178, 40.44734775969961], [116.71969575002717, 40.441791164697285], [116.71487446095283, 40.43970068443634], [116.7103250612468, 40.44043236698314], [116.71744207891129, 40.43377693006508], [116.71623290343173, 40.4225497186805], [116.71944841357823, 40.416769163569235], [116.72631617356282, 40.419312331253614], [116.72711021722726, 40.417020495882475], [116.73500378362735, 40.413335150008955], [116.72268461009038, 40.40853576312447], [116.71828076110135, 40.40791174125691], [116.71732111601004, 40.404039251358824], [116.71241657554602, 40.40078553521184], [116.70715833839385, 40.400308012194046], [116.70776467687756, 40.39454514848286], [116.70563775343236, 40.3856533050484], [116.71016575683089, 40.38285372525074], [116.7010491309022, 40.37576267056906], [116.70044504372053, 40.37256666947434], [116.70799760471344, 40.3673557873613], [116.71377790744707, 40.36778378966234], [116.71200464491258, 40.36008249252041], [116.72066642010654, 40.35992710263777], [116.71966497770856, 40.354355876351825], [116.72292112080068, 40.354352447392216], [116.72137800278826, 40.3452597003983], [116.71778802137423, 40.34277538844801], [116.71687043618442, 40.33789684772928], [116.72507360543034, 40.337759169412635], [116.72517894175304, 40.33376817961123], [116.73791714128109, 40.33786305681394], [116.7385241970542, 40.33243427755532], [116.74535596181173, 40.3344674830679], [116.75242038163103, 40.33260953364466], [116.75355089414904, 40.32558053450005], [116.75670715887432, 40.32543511314342], [116.76250115199491, 40.316548396939154], [116.76718742411177, 40.314708357670305], [116.75675123346376, 40.309160308293286], [116.75071108521288, 40.30131950772601], [116.74832815916172, 40.30241934161287], [116.73284915792588, 40.282844684813824], [116.73497963486454, 40.28174360042037], [116.73222266027172, 40.27750926778328], [116.73685995700714, 40.27782941705164], [116.74665976914989, 40.27425191159972], [116.75652655451637, 40.26779962504196], [116.76246524262623, 40.26885239633487], [116.76552025820766, 40.26524666374595], [116.76738142154935, 40.268273143095094], [116.77683812230897, 40.27200081632638], [116.77794718999465, 40.278195569419395], [116.78167218099497, 40.280205015728114], [116.78190137944165, 40.288193495672374], [116.78837059777764, 40.28617972944433], [116.79446325738033, 40.28796670407141], [116.80351239763203, 40.284795455913475], [116.80573253841857, 40.28117694640073], [116.8190560629099, 40.28415990691475], [116.81851132536573, 40.28980163614075], [116.82115036668226, 40.29714680817256], [116.82404175337582, 40.298024983313844], [116.8229299748193, 40.30322866482968], [116.832337205448, 40.30901684493453], [116.84295876627307, 40.31005506999221], [116.84853247027301, 40.302014797571886], [116.85117312887046, 40.29176966637916], [116.8534570248313, 40.289751884047625], [116.86533049099795, 40.289834556019855], [116.86575017579517, 40.28037522558708], [116.8703570674068, 40.27324956988493], [116.86826466326058, 40.26718126730774], [116.87391661752169, 40.26304671801472], [116.87529835620727, 40.258131153509716], [116.88013309685702, 40.25417151692464], [116.88061477971559, 40.25082356718346], [116.88628479633752, 40.24463092440959], [116.88837692244972, 40.23895218851509], [116.89577991571815, 40.235767715294344], [116.88798068413449, 40.23238211511375], [116.89473616517844, 40.2276918169874], [116.90063102753767, 40.22761180604567], [116.90263863168889, 40.221331829814375], [116.90794566740448, 40.219048314364485], [116.90953380537702, 40.22120046027894], [116.91604998123387, 40.21906053417776], [116.91945305000132, 40.224691152052415], [116.92506733038785, 40.22954113600279], [116.92919981457923, 40.22875954340964], [116.93082685102415, 40.23116906993786], [116.93960839887828, 40.23233778311442], [116.9408595457265, 40.23498920062376], [116.94751049152596, 40.23496088247566], [116.9502211279944, 40.231491979507666], [116.95384680856884, 40.23154920082144], [116.96795017391922, 40.24339290222907], [116.9697412796501, 40.24829025852863], [116.96317880380266, 40.252805373487305], [116.95569975322674, 40.25149646102707], [116.94827936081627, 40.25602647398792], [116.9449014617909, 40.259963273521805], [116.9543841415272, 40.26926089399002], [116.95590537399394, 40.27229883925511], [116.96440515933898, 40.275366735064054], [116.96521731029041, 40.28055655048093], [116.97758739155671, 40.28668375484313], [116.9848326576632, 40.28650083254524], [116.9846242134984, 40.2893797956134], [116.99209755405202, 40.28958445847434], [116.99782204436875, 40.29265441431951], [116.99573981345384, 40.29841638873423], [117.00500248725932, 40.305824465681695], [117.00127554769938, 40.313319915709556], [117.00071251792178, 40.317976437636936], [117.00393956366366, 40.319437254941406], [117.00637367001288, 40.32544230132182], [117.01449176929528, 40.33485444484506], [117.01975919567349, 40.33711744159538], [117.02636000038359, 40.33616108673745], [117.03283704845826, 40.338680001692964], [117.04181535059261, 40.34012832202432], [117.04633771429843, 40.336240127576616], [117.05442513199931, 40.33636946519607], [117.06040887012959, 40.34154529397404], [117.06574779816675, 40.34155295270019], [117.06616541652004, 40.344136611857344], [117.07866439879015, 40.34896868529585], [117.08801859163606, 40.356813028649796], [117.09432693940474, 40.35907129974039], [117.11086409940874, 40.35227423288419], [117.118771211634, 40.354944773928054], [117.12153247384492, 40.357402449506104], [117.13580854544095, 40.3613757711417], [117.14089532433219, 40.36852185897644], [117.14877013583629, 40.369970892415566], [117.1510534524564, 40.373430633061474], [117.16142335463088, 40.370058106600375], [117.16395871095371, 40.37293685328026], [117.17342871198754, 40.37363330755357], [117.17929557616803, 40.37638935598983], [117.19326929750923, 40.374508939098895], [117.19806663858844, 40.37173877868378], [117.20466457065838, 40.372491731536236], [117.21207677342711, 40.37639369950009], [117.21745693186293, 40.37422088984884]]]]}}