{"type": "Feature", "properties": {"unit_id": "beijing_110107", "name": "石景山区", "district_codes": [110107]}, "geometry": {"type": "MultiPolygon", "coordinates": [[[[116.16082737254418, 39.887424352227505], [116.17292822165437, 39.88137914649394], [116.18421090730165, 39.8802451049229], [116.19331095311121, 39.88201804909192], [116.19846836862475, 39.87862574489333], [116.20203366279208, 39.872871632586374], [116.20601572501332, 39.873431525661935], [116.2048206120425, 39.87682961485867], [116.21303628229992, 39.8754749033117], [116.21345453262808, 39.880096195354895], [116.2168897330638, 39.882752169584464], [116.22166604085628, 39.88261029151792], [116.22172849091415, 39.88784910190607], [116.22859761074791, 39.888327129260624], [116.22748779010705, 39.89089613854946], [116.24686999206641, 39.89516676658199], [116.25306169008836, 39.895442621483014], [116.24695395786318, 39.89573574847858], [116.24695164581875, 39.91434193100745], [116.24494214443196, 39.918617488263145], [116.23165185309465, 39.91723001942229], [116.22637513994057, 39.91571412577678], [116.22484557985013, 39.918297692107075], [116.20068614297236, 39.91540558198999], [116.20160717957299, 39.924643626915966], [116.20961398803021, 39.9258581752503], [116.20697307237012, 39.92764244907479], [116.21011652748854, 39.92998868202484], [116.20709780355425, 39.93198344986746], [116.21019905582848, 39.93514158480449], [116.20938141487602, 39.94250419232276], [116.20674004827298, 39.94770231740429], [116.19499951412911, 39.95984060112659], [116.18459841836474, 39.96408026291317], [116.18453588243726, 39.966972035648176], [116.17964909433407, 39.96897800033853], [116.17914471032586, 39.97667876002003], [116.18042353462097, 39.98261088660883], [116.17272630430506, 39.98698236432843], [116.17182552110998, 39.980904923205635], [116.16528266476278, 39.975677908277525], [116.1630179992154, 39.978029623503275], [116.16062627786907, 39.986228905063925], [116.15188191322235, 39.982785518378016], [116.14986898136527, 39.98778589076398], [116.14531879517149, 39.99208323882228], [116.13840169698304, 39.987816885447565], [116.1126116542561, 39.98471903883343], [116.10712733244182, 39.98011958902046], [116.11026876148304, 39.970535332008225], [116.11665637561961, 39.966168485555244], [116.11439511095011, 39.95979614470827], [116.108931160975, 39.956348260624324], [116.11372658329563, 39.94939511954512], [116.10819952006099, 39.94779928258036], [116.10562595082939, 39.94152360369397], [116.11356068607537, 39.93136772947108], [116.11846120261843, 39.93351718023037], [116.12151960414006, 39.9289510234318], [116.12103829473014, 39.9252277339486], [116.12399255265656, 39.92313365334258], [116.13300233877429, 39.920721169435446], [116.1405909125427, 39.908714279487505], [116.14654595088832, 39.90527572337994], [116.14725948013043, 39.89963313622259], [116.15487101614767, 39.89546628270601], [116.16082737254418, 39.887424352227505]]]]}}