{"type": "Feature", "properties": {"unit_id": "beijing_110102", "name": "西城区", "district_codes": [110102]}, "geometry": {"type": "MultiPolygon", "coordinates": [[[[116.31968561016436, 39.895494082302775], [116.31970727380453, 39.889816304769525], [116.31465866434206, 39.880227218830605], [116.3152232204267, 39.87391349045123], [116.32052322581687, 39.87556345433225], [116.32914078888707, 39.8738710555674], [116.33542029065877, 39.87483500300744], [116.33813345283184, 39.87232400410333], [116.34330792033555, 39.87224940290964], [116.34441411478649, 39.867349643734414], [116.37436942564806, 39.8697621596653], [116.39285973888146, 39.870804767046764], [116.39137208386448, 39.89727414417888], [116.38984683812144, 39.89803988281713], [116.38932306801784, 39.90659478960527], [116.38602141492407, 39.90648285692746], [116.38593563005776, 39.92102129723002], [116.3932300342626, 39.92217125354175], [116.39044880826621, 39.926904329109675], [116.38992461290476, 39.93865812930102], [116.38802276093283, 39.93922819638698], [116.38710128272912, 39.95595411426655], [116.38054118954271, 39.9556182000706], [116.38141778886609, 39.95953327443495], [116.38384053007412, 39.96700699537702], [116.38791516249024, 39.96799512481978], [116.38785176447736, 39.97145602632471], [116.37466910643627, 39.9713214504161], [116.37416834343504, 39.96678818586527], [116.36416658165662, 39.96652492938412], [116.36575637750106, 39.94721547045414], [116.35001860662749, 39.942738319517055], [116.34584362311517, 39.94950742061716], [116.34624165292215, 39.94248498462923], [116.33528729591677, 39.940652353860344], [116.3267535955847, 39.94278160243594], [116.32182904811438, 39.94106809163537], [116.32692090808794, 39.937254501475344], [116.32850826808877, 39.92135110120881], [116.3292206803911, 39.89713478228937], [116.33116135958005, 39.896073108773095], [116.31968561016436, 39.895494082302775]]]]}}