{"type": "Feature", "properties": {"unit_id": "beijing_110114", "name": "昌平区", "district_codes": [110114]}, "geometry": {"type": "MultiPolygon", "coordinates": [[[[116.38439571986737, 40.039876348695564], [116.38671477787138, 40.040328684122024], [116.38907676829491, 40.03536048448909], [116.39900571539334, 40.037564752947134], [116.40262310421838, 40.04188125238738], [116.39986225237874, 40.048358064375364], [116.40333259524421, 40.05421559178688], [116.40935730728656, 40.05459057870444], [116.42702352884491, 40.0608825541756], [116.43663923728042, 40.05993811738153], [116.44542093975662, 40.05738904145016], [116.44521110926522, 40.05991950543544], [116.45322009654039, 40.05863756203394], [116.45594589775041, 40.06596107920727], [116.45244362900578, 40.06902028626595], [116.45263145509843, 40.074439339890795], [116.45642708913174, 40.07543755898011], [116.45567138460113, 40.07947460566368], [116.4600762791132, 40.08100959633265], [116.46066208030618, 40.088845442297405], [116.46032644219765, 40.093613302173914], [116.4672070667831, 40.09619208335282], [116.47476095331078, 40.095661145539225], [116.48319784037142, 40.100387503498204], [116.48611443172044, 40.11028816920211], [116.4811172860424, 40.12338964175603], [116.47863832648432, 40.1387811866266], [116.47618245441049, 40.13932529302864], [116.47465017172935, 40.14611139697337], [116.48468236983412, 40.14771153494987], [116.48621307087595, 40.15570412855111], [116.47851028249528, 40.15916568009143], [116.47177355798776, 40.158661275294534], [116.47076564269575, 40.162255188806625], [116.47466812400367, 40.17062570609697], [116.4772071676412, 40.170437729574225], [116.47903210339923, 40.175464221388616], [116.48402785195957, 40.180029901146625], [116.48186543811805, 40.18339325204793], [116.48190568542749, 40.19050242250755], [116.47837924129557, 40.19518879134626], [116.46608167600273, 40.20375366154077], [116.46754745666546, 40.21986593028819], [116.4718284501414, 40.22387450240502], [116.47764093869887, 40.22387438486488], [116.4749526974352, 40.236927740994794], [116.4759593568741, 40.24406623090379], [116.48760839140887, 40.249892392270866], [116.49495523187403, 40.25033406582275], [116.49694883293456, 40.2584294684414], [116.49990794746685, 40.260103997113006], [116.49577191641683, 40.26170930271173], [116.48714521584566, 40.261198852834326], [116.4781393335756, 40.26631699870645], [116.47786529334378, 40.27458051620518], [116.47263926608778, 40.27869030201908], [116.46590350615372, 40.27876970278783], [116.46344820341953, 40.28164195775836], [116.4540934900553, 40.2857283734811], [116.4491022230227, 40.28345349092116], [116.4431693569075, 40.28531891422637], [116.44472020169324, 40.29164327340488], [116.44176336588876, 40.299075304154584], [116.43750898884774, 40.30104091351397], [116.44197212755621, 40.30457234277592], [116.4489517740915, 40.31494571575506], [116.44293437261452, 40.31971821215467], [116.43748532647402, 40.321260819213805], [116.43197355509717, 40.33178915804708], [116.42795253135225, 40.32768036134198], [116.42162802931082, 40.32777105256878], [116.41806898091046, 40.32981974812384], [116.41076566999622, 40.3283942694719], [116.40269069111348, 40.33175387117688], [116.40233444508443, 40.33343441204928], [116.39006271301895, 40.333404776038755], [116.38512978000588, 40.3369468930264], [116.37827754095588, 40.33761454942457], [116.36879662196259, 40.33594578781884], [116.36986138871998, 40.33292226835878], [116.35965295374855, 40.33028727817518], [116.36197033802152, 40.33338594380191], [116.36363842663118, 40.340977399807166], [116.35825233024829, 40.34768956100636], [116.36084036248714, 40.348929223662886], [116.36340702091984, 40.35493466861387], [116.3576671616184, 40.357608540551404], [116.34940211670481, 40.3554089667068], [116.34264184469235, 40.35503419662679], [116.3465632092752, 40.36298867171039], [116.35111259780105, 40.36267380359844], [116.35378378223375, 40.36539945015474], [116.34912881572875, 40.36996095904571], [116.33884222813695, 40.371772079355175], [116.33116299874847, 40.37839052887234], [116.31780863283522, 40.38593952167733], [116.31461577954308, 40.385509618576435], [116.30695776988652, 40.38812253981445], [116.29656301906803, 40.38615438888765], [116.289465184792, 40.38312976939773], [116.28764790062935, 40.391107526852714], [116.28376341039245, 40.3903696958835], [116.28462034676731, 40.38187650074647], [116.27674671517207, 40.37397385428199], [116.26477270787088, 40.38141084815278], [116.25517613052693, 40.37928337055192], [116.25224753104003, 40.38191498375078], [116.24729033515315, 40.3799616987676], [116.24601438798253, 40.37502117457411], [116.24170407215064, 40.37319486042217], [116.23743395148884, 40.37853855352975], [116.23586475268517, 40.37622855626281], [116.23054681875368, 40.37614438371642], [116.22573059382165, 40.37370241563999], [116.2208711619939, 40.37981785237307], [116.2160945288741, 40.38081329502408], [116.20530211795678, 40.38044419905909], [116.20297545704005, 40.374918545562785], [116.1867906003191, 40.371435729270004], [116.17412482855732, 40.36632603779534], [116.17091526696417, 40.36956600788225], [116.16445610415651, 40.36797146151556], [116.16252700006694, 40.365335724687824], [116.1530068049402, 40.36486580712616], [116.14191695182406, 40.36039103482002], [116.14233660050996, 40.35554614205925], [116.13919286340791, 40.34962918756948], [116.14439166228755, 40.347843615298856], [116.14938196728595, 40.34350699324996], [116.14630096152267, 40.33631194537085], [116.1383978870645, 40.33521713707494], [116.14122803792336, 40.33924418803156], [116.13845948190108, 40.34712385389379], [116.13206780388718, 40.34380414260841], [116.13447823991397, 40.341625899925354], [116.13122964350401, 40.33934435644924], [116.13131436946718, 40.3351106417414], [116.1375810794417, 40.33466712146895], [116.13175500614986, 40.32955271129786], [116.13204944026943, 40.32325176249237], [116.13563418573221, 40.315466499559186], [116.12639388726154, 40.310557342484046], [116.11602481245069, 40.31137269549701], [116.10986797967139, 40.32051665223637], [116.11026519060641, 40.32222939933229], [116.10400537972296, 40.32937019546563], [116.09659809811934, 40.3300804219072], [116.09226828472731, 40.328562604630186], [116.07997521792893, 40.32937715791332], [116.07696565944306, 40.334275515662824], [116.07134446554946, 40.337916613189115], [116.06706262307044, 40.33840705465043], [116.06205138667436, 40.33555536746324], [116.05545515846708, 40.335404870297765], [116.04702559670812, 40.32546862890577], [116.05063602332316, 40.320790232154145], [116.04479537460543, 40.314435427695614], [116.03618081272386, 40.315489722318524], [116.03380406696726, 40.31137481568724], [116.02487996746554, 40.31102689285254], [116.01991778313835, 40.31917088596892], [116.02023027879659, 40.322967998101696], [116.01061997322415, 40.33337045236522], [116.00140884712447, 40.33187870428095], [115.99290717837901, 40.32422955927262], [115.98725895483103, 40.327768556113654], [115.97660745442207, 40.323016731006824], [115.97356442197228, 40.31935616422789], [115.96718467288783, 40.31783867112721], [115.97033436529215, 40.3103462356953], [115.96945832481254, 40.30753627208946], [115.98180130165554, 40.30260400204738], [115.98419793887037, 40.29829702724897], [115.97663169274162, 40.296798176586115], [115.97258831606455, 40.288467318973204], [115.97513300942357, 40.284078272746775], [115.97273587464935, 40.280462688358575], [115.97571723384134, 40.27573145065361], [115.97031851929157, 40.26982749501189], [115.9609556656814, 40.2644815773941], [115.9628327789179, 40.26313422998302], [115.95955911510798, 40.25828917302193], [115.95396935539642, 40.255535571673434], [115.94426518449482, 40.25507042899265], [115.93670842598664, 40.252477822451546], [115.92983724533617, 40.25451011347191], [115.91100731082685, 40.24601559847461], [115.91065190048636, 40.24133959319707], [115.9059893142281, 40.233428385570335], [115.90071720323083, 40.23307187234097], [115.89209402718795, 40.23536858332697], [115.8924916717285, 40.233459069182146], [115.8860027814932, 40.227094797910105], [115.88537426677821, 40.22432684144565], [115.87710232804504, 40.215061509260565], [115.87907224559866, 40.21098398372183], [115.87716625371108, 40.20853756763468], [115.88032899620212, 40.205609895065216], [115.87130019636434, 40.1997875782616], [115.87031604887744, 40.19285638660708], [115.86767561874376, 40.191622294597494], [115.86428188205632, 40.18501068841968], [115.85702841668197, 40.185016082720274], [115.84943820026004, 40.187773380850324], [115.84201521480809, 40.18273904808036], [115.84813878255447, 40.17884631993067], [115.84077950404935, 40.168353596489915], [115.83832564869903, 40.16690729522842], [115.840674994695, 40.1620671364393], [115.84749223833325, 40.153071212991975], [115.8472832685495, 40.14824136325713], [115.85049121842177, 40.146383023472225], [115.8591503701916, 40.14756369846683], [115.86474815322282, 40.143213150163916], [115.86814270337197, 40.14281163543728], [115.8756031954834, 40.13802365114605], [115.89447145200779, 40.13767943185867], [115.89848996661772, 40.135087554643654], [115.90058301999207, 40.137145536459435], [115.91547452897726, 40.133445588757816], [115.92761783649674, 40.12377461131606], [115.94192500205011, 40.106340047064805], [115.93724926257174, 40.102278178268215], [115.9466847420731, 40.09994270103751], [115.95071283186043, 40.094955923712064], [115.95144262896572, 40.09959203835739], [115.95653340665383, 40.1012516631474], [115.95607551998306, 40.09332230230814], [115.95444869465582, 40.09136310882128], [115.96056133458632, 40.08344944993178], [115.96254416417172, 40.07437719139926], [115.97117601998711, 40.07790756344391], [115.97392831838657, 40.08052786768709], [115.98034878951064, 40.082309611659646], [115.99122872582738, 40.08088257834812], [115.99898141185228, 40.07858825011625], [116.00162818422588, 40.07939114957011], [116.01465557016954, 40.07331736622342], [116.02468010303761, 40.08089702090922], [116.02768314344286, 40.078357900419725], [116.03164367413854, 40.08321395128649], [116.03750321320237, 40.082177031635474], [116.04259259748706, 40.083965688081435], [116.04555447468356, 40.09031650766168], [116.04960149540945, 40.095076437109526], [116.0556525081962, 40.09819426119917], [116.05661225602637, 40.1014522466245], [116.06312579933686, 40.10353306017434], [116.06634054375537, 40.10787391735291], [116.06750917812282, 40.114049775246194], [116.07154040237704, 40.11365561245339], [116.0781008362789, 40.11885323836023], [116.08343098967154, 40.11792409834412], [116.08970235830746, 40.11985060418771], [116.09589390464392, 40.114579498439795], [116.09951315826525, 40.11660620401876], [116.10696387967621, 40.114191932789616], [116.12134939167159, 40.11499617623432], [116.12589548023425, 40.11368681809722], [116.12660699048367, 40.11996205628974], [116.1464341652323, 40.120411389645334], [116.16333438702773, 40.12322873864824], [116.16117383538759, 40.12711541920014], [116.16555722266172, 40.12660455216566], [116.16238934287557, 40.134103996368275], [116.16144487957257, 40.14050363999763], [116.16790386816803, 40.1422664266997], [116.17421632265228, 40.14597286867148], [116.17690014790732, 40.15202224771774], [116.1765004117052, 40.15678498465576], [116.18589587751515, 40.15437251026], [116.18811834035678, 40.15878299160141], [116.19602288593603, 40.159704448417344], [116.19707143468543, 40.152495962374644], [116.19952494492351, 40.14890229163047], [116.20015436796795, 40.14182101197893], [116.20610755260694, 40.13928623378909], [116.20933526182735, 40.141916482946485], [116.22770852945374, 40.13534012280045], [116.24098061109218, 40.13497458476784], [116.23897421984452, 40.11759645082346], [116.23577135218122, 40.11717304289795], [116.23730045205713, 40.11205020976884], [116.23443328765717, 40.10677918677934], [116.23989665673507, 40.10412290106441], [116.24667669769329, 40.10529137379069], [116.24981410709127, 40.10324867100075], [116.2535165213294, 40.105681161442114], [116.25196767299997, 40.11072395176492], [116.25728008119081, 40.109361011490925], [116.25784584563638, 40.10279335839666], [116.25222002299098, 40.10029675086789], [116.25918481156145, 40.09346759985009], [116.2672745967246, 40.09433934309737], [116.2670450883626, 40.091468703630134], [116.27383875431148, 40.078519323247896], [116.28428269432128, 40.08189899777965], [116.29685484039624, 40.05954085378676], [116.2999020057181, 40.06177588797857], [116.30334671937176, 40.05933633724562], [116.31217440549842, 40.0603747551202], [116.31981243125327, 40.053496939364095], [116.32565384024548, 40.05585466461018], [116.32461044388167, 40.06207130131866], [116.33266450253065, 40.057594120319806], [116.3341046852336, 40.053761590369895], [116.33719259424207, 40.05411271244694], [116.33650362942971, 40.058300774273164], [116.34078086883422, 40.05908770634286], [116.34048811383941, 40.0623170598419], [116.35108789003252, 40.06465090963006], [116.3568064673246, 40.06456043319224], [116.35693183865058, 40.067594047699224], [116.36630419274243, 40.06704518356598], [116.36711923496664, 40.06423725595272], [116.37568082963456, 40.06500589197404], [116.37660030272302, 40.06018521326101], [116.37302927662596, 40.057609276426234], [116.36603498578734, 40.05646617899487], [116.36676624465608, 40.0529593861456], [116.36117092285637, 40.05205939949304], [116.36336387855444, 40.0455805340219], [116.36987753717347, 40.044077825300164], [116.37065073678369, 40.04136700809777], [116.37894195336764, 40.04145492411204], [116.38439571986737, 40.039876348695564]]]]}}