{"type": "Feature", "properties": {"unit_id": "beijing_110115", "name": "大兴区", "district_codes": [110115]}, "geometry": {"type": "MultiPolygon", "coordinates": [[[[116.71950605231271, 39.62289702046441], [116.71539332422547, 39.628240726573516], [116.7174790347586, 39.63785427632148], [116.71000828906628, 39.63918657799282], [116.70443708246245, 39.63852481493811], [116.70011816364293, 39.64174797193785], [116.69692635221247, 39.64877189567965], [116.69617433555035, 39.65649273812056], [116.69888525826983, 39.66603451993498], [116.69779914871387, 39.67298813037636], [116.68760002979823, 39.67380484342486], [116.68676509103771, 39.6756510634718], [116.67963294204205, 39.67576136795073], [116.67487862936215, 39.673780765535504], [116.66931124895767, 39.67512922193002], [116.66270101047478, 39.67351008072734], [116.66015543095159, 39.67860501574233], [116.66370012821143, 39.682546715063005], [116.66069703961585, 39.686010818929276], [116.65233337159297, 39.6874948451801], [116.65225087991291, 39.68508036976378], [116.64549179456273, 39.686804661645944], [116.64567853978458, 39.69339434009451], [116.64127701187772, 39.69372835217629], [116.64044125682736, 39.69938980190172], [116.64208905335, 39.70251878455785], [116.64726248813567, 39.70275431831587], [116.6471581673649, 39.70754981207374], [116.63877093249577, 39.70859101722597], [116.6326979695218, 39.716117579867394], [116.63181990973678, 39.722885847103456], [116.62541188759211, 39.72193069964277], [116.6223423568751, 39.72671131504146], [116.6158684910222, 39.72704398314845], [116.61609847150402, 39.724793092401185], [116.61047981111629, 39.72455284252825], [116.60337610326724, 39.71834252834855], [116.59879824870123, 39.71770733760119], [116.59825489171492, 39.71372889734936], [116.5926099207413, 39.710939777075374], [116.5844306219949, 39.71049558757228], [116.58438838016218, 39.712322311996495], [116.57543129241733, 39.71148339929895], [116.57411210549316, 39.70919937728551], [116.56768366548752, 39.708082923312546], [116.56749473024564, 39.71346393085019], [116.53911510257952, 39.71394826690119], [116.52980146199252, 39.71076128210995], [116.52466002819125, 39.71213425255743], [116.5266746406097, 39.714161468351044], [116.52142839399745, 39.71543483045441], [116.52346310308366, 39.718670073181954], [116.52873017679514, 39.71695560698341], [116.53110052295035, 39.720402390082974], [116.53196050150514, 39.72692678214001], [116.52595942515678, 39.728883615662475], [116.52652416882553, 39.73848798332504], [116.53212681545723, 39.7369539826089], [116.53036380048263, 39.739541093790244], [116.5216559313739, 39.74215813417582], [116.52526492008056, 39.74642264167084], [116.51707984062153, 39.748518416527666], [116.51926111873503, 39.761237289671975], [116.51413915888762, 39.764612197687356], [116.51770662341445, 39.76876209400347], [116.52238827875752, 39.760317192736785], [116.5345577021738, 39.759958609951184], [116.53401136274815, 39.765139702040855], [116.53061223194041, 39.76728174287561], [116.5399470236992, 39.7676309733021], [116.53879320618225, 39.771196880333775], [116.53025589105417, 39.7687476643733], [116.52419041269945, 39.77769347943662], [116.53220580917562, 39.780158648002036], [116.52700105462306, 39.78540644215258], [116.52502871734701, 39.79059862625914], [116.53165817361581, 39.79555188603158], [116.52922380886076, 39.799015224829795], [116.53581146135905, 39.80204488702534], [116.53465582483753, 39.8107393260157], [116.52747961794901, 39.81852107584271], [116.53371067927503, 39.82044222816591], [116.52905323137702, 39.82368691103104], [116.51994565414714, 39.82574575182062], [116.51944150861003, 39.82859412827001], [116.51020573197204, 39.82864832698627], [116.50462301696955, 39.82643388867961], [116.50416203636522, 39.82024494353396], [116.49679334643012, 39.81778006258599], [116.4998169861998, 39.81664919718], [116.4921762396368, 39.81446053683826], [116.48932108866192, 39.817546861181775], [116.47956026945043, 39.81561277373332], [116.47918342943392, 39.81144302070923], [116.46814545863272, 39.8084653540918], [116.46233310311437, 39.81318942077613], [116.45662768105787, 39.814609956030395], [116.44656165018426, 39.821655510962024], [116.43771697207792, 39.81958838433007], [116.43972843794245, 39.82532318209203], [116.43046780913807, 39.826042800846025], [116.43078091882995, 39.829266973626936], [116.42384877413028, 39.828722347022264], [116.41899198955745, 39.83050912715437], [116.41384322795851, 39.82521429566968], [116.40955332511022, 39.82802935730246], [116.40819438972126, 39.82288333018554], [116.41221160638781, 39.82151779146051], [116.41353143426302, 39.81397894284953], [116.40392813298674, 39.815653186629866], [116.4037818364507, 39.80993760432086], [116.4090322333494, 39.81112740839986], [116.41154382646242, 39.80873345337448], [116.41623114930184, 39.809045799514], [116.41949787412034, 39.80396643055253], [116.4231822969714, 39.80219466862556], [116.42305834463103, 39.79271433420838], [116.41481006642883, 39.792740288567884], [116.41401632231666, 39.78604544775108], [116.3897981875112, 39.785345085155214], [116.39167986987088, 39.779674653389016], [116.39266432652794, 39.764471682933724], [116.3856837915673, 39.76388868011537], [116.38442891396123, 39.779076122584506], [116.37939405913428, 39.77746752614512], [116.37300188874208, 39.77801217556141], [116.37227110927573, 39.78426845866037], [116.36139260627006, 39.783599108092915], [116.35955478055874, 39.7927900887689], [116.36199728776785, 39.79345435412448], [116.36084870680737, 39.79845665052913], [116.35066241770593, 39.799124083702445], [116.34953510673164, 39.804322618397705], [116.33561646347312, 39.80626895247152], [116.33398985186784, 39.80083247580521], [116.32211806921572, 39.80012226698058], [116.32072060335067, 39.79709517170604], [116.31677740356037, 39.79710260314511], [116.31569363101096, 39.782345897436336], [116.31189587651322, 39.782173898982684], [116.30461430932503, 39.77079782691556], [116.30100354624922, 39.768832068868704], [116.29549191867729, 39.7736963221122], [116.28916419197631, 39.789721003385644], [116.28511272261123, 39.7920390963803], [116.29004028235497, 39.794329407970075], [116.28314898956452, 39.794664270461], [116.28120600404995, 39.797875261118364], [116.26821120537205, 39.79572039354725], [116.25616969549613, 39.7915725143989], [116.25328298303509, 39.79641169006445], [116.24550214745719, 39.7918500693647], [116.24558649227566, 39.78131000887089], [116.24776283172329, 39.7783125090487], [116.24646724338879, 39.77054013423761], [116.24841408524135, 39.762034127872866], [116.246468857507, 39.75747045688063], [116.24588376476999, 39.74788742336521], [116.23793224823092, 39.740452022305135], [116.2420145423557, 39.73143754896007], [116.24245540533813, 39.72682424136154], [116.23975593904972, 39.722876898702225], [116.2390240449681, 39.717218362431716], [116.23060906160013, 39.7116535350985], [116.22591962688568, 39.70481584873491], [116.22832824852138, 39.702616126960784], [116.22491583989508, 39.691146985034486], [116.21519806659148, 39.67723702397152], [116.21961865452805, 39.672379817364494], [116.21530362006543, 39.66627199449922], [116.21712734286118, 39.66351659749547], [116.21094698683976, 39.65035539019054], [116.20943990280514, 39.64183299857891], [116.21283670837938, 39.626801455591064], [116.21346606821992, 39.617724161185635], [116.21204257430583, 39.606895746280856], [116.21711463329774, 39.59602439738921], [116.21657004152983, 39.5927405512581], [116.22006846650274, 39.59079986751161], [116.21906371283033, 39.582892729245906], [116.21514723160375, 39.5777255660363], [116.21979893578406, 39.56696358144663], [116.22336107688493, 39.564287846637676], [116.23045963566699, 39.56721790905516], [116.22867991072305, 39.562755789664415], [116.23464692161689, 39.56292366742151], [116.23701294286894, 39.557188416001075], [116.24019477753473, 39.555997033424426], [116.23651113378583, 39.55179566175466], [116.24053215873435, 39.538623049854486], [116.239612627397, 39.528977575147096], [116.24226955022324, 39.52910938403965], [116.2404918990978, 39.52413834877296], [116.23754059575653, 39.52307452004854], [116.24072270662, 39.51893902370391], [116.23984467262228, 39.513739346896394], [116.24787995812532, 39.50890056759966], [116.25108048493884, 39.50433802903256], [116.25196026799705, 39.499366583681315], [116.26333568449752, 39.494341716968655], [116.26964833004925, 39.49404379989152], [116.27328400489446, 39.490147159639214], [116.27721198785541, 39.49277758047847], [116.29926344086475, 39.487987957660636], [116.30093385000917, 39.48383067206432], [116.30667419052683, 39.4793555056236], [116.30874151303244, 39.4749014335706], [116.31389594840205, 39.472225056380815], [116.31400032457591, 39.46733361811237], [116.31902958599537, 39.46493510146203], [116.31955181577165, 39.46174327971995], [116.32842049395127, 39.45578653992583], [116.34404887510287, 39.451649621949635], [116.34500847100686, 39.4542659004785], [116.35604887001571, 39.45359217657392], [116.36164291457847, 39.45034371860227], [116.36740521050744, 39.45076044990524], [116.3823802260901, 39.44941866611701], [116.38572302628056, 39.45157629536578], [116.39360264639575, 39.448724085925875], [116.40276118476297, 39.448935275478114], [116.4194589255667, 39.44557092863212], [116.42823261302452, 39.44145386783241], [116.43108075501515, 39.44464908022399], [116.44421890414, 39.44723938743752], [116.44453313105215, 39.451364395833444], [116.44855793490372, 39.452025787488935], [116.44786565851223, 39.45623085732675], [116.44249787542265, 39.46383014789122], [116.44262276990635, 39.47498835965031], [116.43790730366307, 39.47756565508622], [116.43799005812247, 39.48088662391457], [116.43009151953953, 39.48159535310229], [116.42747406022163, 39.47686494221146], [116.42215624199919, 39.47489634119717], [116.4191613293295, 39.479932145415866], [116.42378860523979, 39.480002040563505], [116.42114963682188, 39.48646045714674], [116.41736111191385, 39.48382453041712], [116.40618684491605, 39.48074400436555], [116.4053922601752, 39.48377084243024], [116.40963837939049, 39.48689570345857], [116.41231580812075, 39.49523889032812], [116.41671009863978, 39.49527422554935], [116.41254472422516, 39.5050517658965], [116.40237693001225, 39.506669028177576], [116.40105937087986, 39.5107727623352], [116.39662662743604, 39.51304675616963], [116.39645710342921, 39.52553893092573], [116.39934243996007, 39.526845952539404], [116.4050522275057, 39.52333093346931], [116.41528334200886, 39.52375926962435], [116.41785887029621, 39.521390609993766], [116.41693783009177, 39.51499698577658], [116.41844605933757, 39.508391103054045], [116.42552224362193, 39.509198998215815], [116.42684248489104, 39.50610938541346], [116.43767296353978, 39.508559886444516], [116.4365820017383, 39.514870220005236], [116.43421448715318, 39.51494875397062], [116.43371068206895, 39.5220278535361], [116.43134314282867, 39.525180736605705], [116.43482123459323, 39.52598620715371], [116.4475843763089, 39.52517400644506], [116.44771042184637, 39.52734859222079], [116.4584470622902, 39.526357777771516], [116.45848869069921, 39.53034667382961], [116.4627252854389, 39.53308692661371], [116.47212501235398, 39.53423868772583], [116.47195547835858, 39.541953986265426], [116.46905937565653, 39.544496607454406], [116.46486254613677, 39.553327409029556], [116.46729663050546, 39.55182998573942], [116.48345509855987, 39.55225012989183], [116.48374957404856, 39.54904787293649], [116.50249492537998, 39.54988819902016], [116.50209428665484, 39.55908746664397], [116.50463485037126, 39.55934099645311], [116.50562095352748, 39.56434359798036], [116.51347104359068, 39.56534753472969], [116.51447807038953, 39.57077504672163], [116.52136162679777, 39.57182447230706], [116.52024918142482, 39.57615122804852], [116.51447743026715, 39.57601969644801], [116.51378432194, 39.58072349048602], [116.51726744751203, 39.58511148766721], [116.51535704712407, 39.589092003753116], [116.51915529133215, 39.59268005004283], [116.51854678819215, 39.595405669044986], [116.52473720457681, 39.59766148282471], [116.52498931668978, 39.595603657997025], [116.53596234175937, 39.592398114880865], [116.53503854176329, 39.60033394797857], [116.5382891336186, 39.60253042528419], [116.53835317868945, 39.59544223040563], [116.54361727168978, 39.59507856903082], [116.55133246662679, 39.60045261826885], [116.55648809329647, 39.60067426363977], [116.56082551217708, 39.603328011355195], [116.56032173639731, 39.61010466559702], [116.56386213818199, 39.61073004087609], [116.56019589433203, 39.615101359311524], [116.56015337531107, 39.61874250195052], [116.57362039360794, 39.618646769443714], [116.57343171381596, 39.62246675380965], [116.58624129398162, 39.62028930617142], [116.58781020853162, 39.61757961657442], [116.59437796077209, 39.618642240247134], [116.59642612876232, 39.623525386481674], [116.60213312860009, 39.62368789622195], [116.60202877924742, 39.61869097918247], [116.60600042400758, 39.617874029207144], [116.60742193948599, 39.61279457185971], [116.61088977710597, 39.61308678356605], [116.6110993801249, 39.60629317906007], [116.61442079585305, 39.605883141281275], [116.61475602277004, 39.60065609923705], [116.62256640251572, 39.59854283229339], [116.62962308809311, 39.59891080973226], [116.62981014759805, 39.6037934506807], [116.63974370780038, 39.60105230440294], [116.64072482395619, 39.59807849388439], [116.65184327368361, 39.59969266504608], [116.6509672986529, 39.60171973323063], [116.65653630874236, 39.60414321271372], [116.6641683825641, 39.603835047432185], [116.66410674074476, 39.6023005160269], [116.68297914046981, 39.59738067363907], [116.68815153340549, 39.600229461622305], [116.69046699944116, 39.5942636890349], [116.6931787726821, 39.59432388479121], [116.69474322175039, 39.58982925057366], [116.6991453326402, 39.58683258406875], [116.72105406405136, 39.59188232788303], [116.7189453114177, 39.596834459025985], [116.71232912869439, 39.599912849326046], [116.71228697849065, 39.601856455536755], [116.69661799020653, 39.609278535108785], [116.69478143387585, 39.61992833461792], [116.69937066045877, 39.62031255478612], [116.70331341132864, 39.61695899869662], [116.71015628048968, 39.620394223300444], [116.71585335028642, 39.62058276787057], [116.71950605231271, 39.62289702046441]]]]}}