{"type": "Feature", "properties": {"unit_id": "beijing_110111", "name": "房山区", "district_codes": [110111]}, "geometry": {"type": "MultiPolygon", "coordinates": [[[[116.0483812820071, 39.84461420988039], [116.03957776203552, 39.846001162667996], [116.0355739414147, 39.843569218846795], [116.02687829318677, 39.8446181385314], [116.02410619093753, 39.842183978166865], [116.01485148218795, 39.83941081656448], [116.01220421762416, 39.84028161010186], [116.01053587170186, 39.84798612512243], [116.00176179484099, 39.848256626774145], [115.98521419684127, 39.8390600547873], [115.97823079651111, 39.847968771055584], [115.98210697950695, 39.858683000323204], [115.98072984789901, 39.86355272475248], [115.98679556013492, 39.86618780896983], [115.99114992007028, 39.87398538635568], [115.9841053736146, 39.87517728676285], [115.9702427257494, 39.86937568495732], [115.97053513543092, 39.86712901802874], [115.9627363937628, 39.86661223933633], [115.96181832892847, 39.87095928044216], [115.95533135657553, 39.866792798099105], [115.94817460039309, 39.8657171126538], [115.94387456506287, 39.870217147149674], [115.92150545742093, 39.87516172928679], [115.91592317885193, 39.88313762359576], [115.92986035967809, 39.897195666153905], [115.93900732930423, 39.90079317776137], [115.93973700989417, 39.90991656701688], [115.93520519429465, 39.91646047094426], [115.92992089850485, 39.91671174385769], [115.9219185256094, 39.91322460730752], [115.89799496380263, 39.91300561030556], [115.88415661615963, 39.91625138618169], [115.87286557148254, 39.91492404703924], [115.86712413521052, 39.91143728051428], [115.86232512485667, 39.90451906437014], [115.85488333152446, 39.900295002893714], [115.83919897999911, 39.89595812907246], [115.83269675015065, 39.899540947224104], [115.82902618206383, 39.89847612769326], [115.8208028941769, 39.90945528668162], [115.81266532890383, 39.91280732053847], [115.80492831216834, 39.91263095240216], [115.80067156182339, 39.91849476923022], [115.79115346842988, 39.92098454433443], [115.78664789169694, 39.919677699407366], [115.76802530406316, 39.91939986873584], [115.7631470050771, 39.92403095329798], [115.7552357346321, 39.919784567200026], [115.74337378171595, 39.91645128667102], [115.74264205304881, 39.91399659927756], [115.7250208275993, 39.90667287695549], [115.71539061333064, 39.90564238062787], [115.71336440130794, 39.90343303654618], [115.70296551611436, 39.90395288144195], [115.68559929810029, 39.89856597142236], [115.68311580491371, 39.89505774569314], [115.67639624041982, 39.891930614779305], [115.6719944073803, 39.8854483556427], [115.66492052153049, 39.88487591797507], [115.66141414683536, 39.882800642172946], [115.64876758541469, 39.881440518190736], [115.64277731783851, 39.87435676612278], [115.63862220104886, 39.87491614326983], [115.63394591808267, 39.870513054692985], [115.62492343517113, 39.87094713735423], [115.61704735710808, 39.86592687776789], [115.61591862355714, 39.862249961009695], [115.61031843477092, 39.85652494638905], [115.60703821646872, 39.84274031908907], [115.60153910227679, 39.83987711783616], [115.59848648449439, 39.833430868685156], [115.59327723455574, 39.82813885838446], [115.59060060582814, 39.82048573036213], [115.5851174741599, 39.81751959955972], [115.5812658760508, 39.81274549281631], [115.57129627534194, 39.81151514951594], [115.56318712586076, 39.81223722225505], [115.5602739348792, 39.80874690379236], [115.560485071488, 39.803568646498476], [115.55618766936814, 39.802665373299206], [115.54874434952416, 39.79453963437227], [115.53326061760266, 39.793656763176735], [115.53009268877898, 39.79102578412236], [115.5075462356066, 39.78752421758614], [115.50242315982592, 39.78289833662929], [115.49100029092459, 39.78986961373775], [115.48602397679885, 39.79482356766645], [115.47684949925566, 39.7974192035052], [115.46944153258842, 39.79054178027643], [115.4512962704704, 39.78082179286251], [115.44626389708426, 39.78063284234213], [115.43687286912484, 39.78429851102657], [115.42755069233552, 39.78091453275841], [115.42464037467929, 39.77439407216552], [115.41867370596773, 39.77199319953674], [115.4204960805006, 39.76840993460663], [115.42438951757104, 39.77071117649055], [115.42889238064627, 39.76858122861704], [115.42788859986702, 39.76250167596511], [115.43264500208967, 39.75132771889631], [115.45125897352023, 39.743600500770334], [115.46027844730752, 39.739154057673346], [115.46413874612034, 39.741103187329436], [115.47593329074843, 39.74121615320871], [115.48575822594361, 39.73764148185652], [115.48250431860137, 39.73192575853408], [115.48487886702495, 39.71349097173664], [115.48706333413213, 39.70627332934135], [115.48389473561492, 39.70017998407218], [115.48628802540843, 39.700496886629736], [115.49294410527651, 39.694987325666276], [115.49346983131753, 39.6900786307745], [115.49006897952802, 39.684456411770554], [115.4880739814445, 39.68526640773926], [115.48242758551633, 39.68038878164636], [115.48337268941565, 39.676785082150005], [115.48037076531325, 39.67212726802593], [115.4849901498307, 39.66747331717544], [115.47621647853981, 39.66178540494543], [115.47157872120027, 39.652960392225964], [115.4721251733467, 39.649077571235345], [115.48833071574671, 39.64802956331272], [115.49045068974088, 39.651349196323764], [115.50042475853073, 39.650955027247726], [115.50523311586097, 39.64323186733741], [115.50962211749814, 39.640094517858145], [115.51623645008155, 39.638841108180145], [115.51420027290345, 39.63228850565095], [115.51548270431982, 39.62118952241696], [115.51720467582636, 39.619267898542], [115.50811355908614, 39.61236678791528], [115.50586860066393, 39.603982981925405], [115.50971274826111, 39.59006165377248], [115.51261003419799, 39.59194873060009], [115.51208444049468, 39.59603022345241], [115.51802554280127, 39.59782803595862], [115.52440639853977, 39.60178204627472], [115.52772296824307, 39.60752375744417], [115.52709230343697, 39.61034743253216], [115.53296881694243, 39.615212810685875], [115.5398508191387, 39.61769522005255], [115.54576700994224, 39.61302266250037], [115.5484104290088, 39.608373316219], [115.55849688610432, 39.60460429409402], [115.56120201583352, 39.59861412977512], [115.56782443521539, 39.5955534921932], [115.56581302718327, 39.59056894124867], [115.58007897976263, 39.588428050832846], [115.58642094782762, 39.595668349017636], [115.59269933950283, 39.596781290333965], [115.59376550723621, 39.59988476694084], [115.59926741897745, 39.599052185649384], [115.60648214183887, 39.600144240243175], [115.61241860588619, 39.603081545462175], [115.61992192686037, 39.598403827737535], [115.6265233868691, 39.59669843875264], [115.62865306206506, 39.60287050994917], [115.63554462442595, 39.602322594613995], [115.63752911511487, 39.59792575855243], [115.64420970522045, 39.599973964260265], [115.65120188458927, 39.59904736730849], [115.65921624810494, 39.60427567588154], [115.66149001875758, 39.60858246090991], [115.66138554275571, 39.614200417547025], [115.66716623914222, 39.60746094986436], [115.67918743125104, 39.602588044049824], [115.68315280552073, 39.597941641339034], [115.68313260208558, 39.59184911670881], [115.68808028752052, 39.586678233102596], [115.68728778083432, 39.57923051903541], [115.69175421697041, 39.57814375814326], [115.6924439827697, 39.56948275947713], [115.6882492316773, 39.568314562118395], [115.6859332883578, 39.56469075248262], [115.69257065372831, 39.562146471323956], [115.70398972105873, 39.561898680014785], [115.71092280192548, 39.55927334068448], [115.71403545247104, 39.553614785482424], [115.71541517222764, 39.54236821654984], [115.7207623204124, 39.54277093845636], [115.72057397741645, 39.547004938024074], [115.73292450993681, 39.54421497081541], [115.73259141084294, 39.53816793121123], [115.73528775079063, 39.53514214017184], [115.73773529608928, 39.525625686632296], [115.74631076434778, 39.51430840595063], [115.75325667150568, 39.51277167762071], [115.75913772582618, 39.513704630167645], [115.7625496654166, 39.507737841505275], [115.76464364528321, 39.50983119239448], [115.76123049341105, 39.51471906742749], [115.77035959797813, 39.51158522361415], [115.77174142006538, 39.51269791212175], [115.77884226126164, 39.50922137977475], [115.78653193476156, 39.509621947321385], [115.81537911394278, 39.50842469879424], [115.8226361204185, 39.505984839727354], [115.8234327036288, 39.511824459053614], [115.81607049149505, 39.51307047763034], [115.81367924038224, 39.51744778701345], [115.81837746665427, 39.517702245079526], [115.8180410626029, 39.52133150572544], [115.8137205689335, 39.52384089256217], [115.81313321347878, 39.52967707869682], [115.81667719202089, 39.5294545472478], [115.81824920427069, 39.53313532973496], [115.82233877768161, 39.53438552735299], [115.8226319043944, 39.540238366920526], [115.83613898131567, 39.540524516512555], [115.84001785439011, 39.54224813914482], [115.84154832849592, 39.54924592909958], [115.84536496052466, 39.549416681235435], [115.84949565484658, 39.553967554823195], [115.85605854303923, 39.547538078580885], [115.86008331056992, 39.54883585271529], [115.86039848995733, 39.54535529894854], [115.86637224687173, 39.545101695242565], [115.86735705905153, 39.547832202170966], [115.87703817749525, 39.54712438194689], [115.8776659131577, 39.55011614802275], [115.88177170111287, 39.549677884599284], [115.88283872367167, 39.55463135060292], [115.88715263877818, 39.555239133703736], [115.88750840838486, 39.56089381036407], [115.88411510978119, 39.5668880037519], [115.89010354271996, 39.5689340692733], [115.90197053604683, 39.56589765407019], [115.90686550628232, 39.5718614759674], [115.90588211483336, 39.57320134120821], [115.90970863749617, 39.581974064984884], [115.90284687017515, 39.583037240175116], [115.9037677317546, 39.58730012250639], [115.90090119373939, 39.58903180356975], [115.90428840807415, 39.599845086902135], [115.90659027246565, 39.59816208150656], [115.91786032105982, 39.59629515342793], [115.91827955146317, 39.59284865866261], [115.92431880076529, 39.59238543132113], [115.92408940016853, 39.58893949145084], [115.92826882159937, 39.587072343760966], [115.92906374238223, 39.580814924525505], [115.93219611996064, 39.580695897021194], [115.93202983825437, 39.576465187649006], [115.9372716039034, 39.57637552262369], [115.93716808951524, 39.57366337730812], [115.94322210373089, 39.5722804707611], [115.94449656630626, 39.565350933677784], [115.94904646452487, 39.56506413070977], [115.95161350289963, 39.55989516624562], [115.95745413624219, 39.56445693592615], [115.96162650843347, 39.56354821002157], [115.96293921268091, 39.56993428659526], [115.96859038464049, 39.56975682559702], [115.97215660119517, 39.571756738153105], [115.9710905817748, 39.58984411578348], [115.9724449402039, 39.59459430377046], [115.98495350737743, 39.59266412751793], [115.98468329729883, 39.58534669246299], [115.99089496291259, 39.582061008956174], [115.98914460954414, 39.57593979645664], [116.00152446927304, 39.57603230891365], [116.00448363520029, 39.58183986370355], [116.00758806518125, 39.581846470936064], [116.00792131073428, 39.58687722756806], [116.01452839448366, 39.58476701046916], [116.02007310514009, 39.586171498864935], [116.01861528099018, 39.574380654864115], [116.02668295897735, 39.57336110302863], [116.02678792616847, 39.571056408633794], [116.03304245595, 39.57068077082167], [116.09253337589662, 39.573792201388564], [116.09573293806447, 39.574788334803806], [116.09508425775194, 39.57869343222335], [116.0995194440698, 39.57521308632659], [116.10000140640109, 39.56962555295506], [116.10751507307421, 39.56931634118677], [116.11036156828125, 39.57265073994757], [116.11519835489123, 39.573568392773794], [116.11526199090468, 39.56920656497893], [116.12405876310112, 39.568119384262864], [116.1241210883513, 39.56640389796569], [116.13218840923645, 39.56755684078811], [116.13254387780607, 39.56971373079945], [116.14340127841112, 39.57177168534152], [116.14558035673893, 39.58210051540037], [116.15935568317593, 39.582271175512574], [116.1707843492818, 39.584628759767035], [116.17093125083852, 39.588745030289026], [116.17831288094888, 39.589657612465466], [116.1846666102257, 39.58815065076223], [116.18447834645741, 39.58614079940849], [116.19076898717817, 39.587752587715876], [116.19030813490593, 39.58486049269272], [116.19565386453652, 39.5851475259915], [116.20018238335844, 39.58200162408948], [116.20204948720196, 39.57651490066152], [116.21514723160375, 39.5777255660363], [116.21906371283033, 39.582892729245906], [116.22006846650274, 39.59079986751161], [116.21657004152983, 39.5927405512581], [116.21711463329774, 39.59602439738921], [116.21204257430583, 39.606895746280856], [116.21346606821992, 39.617724161185635], [116.21283670837938, 39.626801455591064], [116.20943990280514, 39.64183299857891], [116.21094698683976, 39.65035539019054], [116.21712734286118, 39.66351659749547], [116.21530362006543, 39.66627199449922], [116.21961865452805, 39.672379817364494], [116.21519806659148, 39.67723702397152], [116.22491583989508, 39.691146985034486], [116.22832824852138, 39.702616126960784], [116.22591962688568, 39.70481584873491], [116.23060906160013, 39.7116535350985], [116.2390240449681, 39.717218362431716], [116.23975593904972, 39.722876898702225], [116.24245540533813, 39.72682424136154], [116.2420145423557, 39.73143754896007], [116.23793224823092, 39.740452022305135], [116.24588376476999, 39.74788742336521], [116.246468857507, 39.75747045688063], [116.24841408524135, 39.762034127872866], [116.24646724338879, 39.77054013423761], [116.24776283172329, 39.7783125090487], [116.24558649227566, 39.78131000887089], [116.24550214745719, 39.7918500693647], [116.24491480752442, 39.80022228241757], [116.24759233985536, 39.806021142733094], [116.245624707424, 39.81207947246283], [116.23827904587091, 39.81735402024702], [116.23698006774787, 39.823930980895845], [116.2335894298691, 39.82565607368125], [116.22226004345389, 39.82597214410541], [116.22117153380013, 39.82382220970746], [116.2080544300109, 39.82346439142898], [116.20839086831542, 39.817733263071254], [116.21069598636768, 39.81566752752298], [116.20132889665433, 39.80956350861767], [116.20197898866023, 39.8051028537489], [116.19575363693662, 39.79839844503936], [116.19575506067093, 39.78701141047517], [116.19428860200355, 39.776891877772286], [116.18833398033856, 39.77722355676904], [116.18829160650176, 39.779309288641635], [116.18187498166309, 39.780503594817624], [116.17721920032142, 39.778914124280966], [116.17684170134625, 39.78241610123832], [116.16352508758521, 39.78296218407096], [116.15650157354956, 39.76787784143639], [116.14974988027848, 39.76558435667662], [116.14266384202347, 39.767300739783124], [116.14180404356483, 39.76513163848879], [116.12753215484005, 39.765259558768065], [116.12219014695243, 39.76103343671264], [116.11517465844813, 39.760244756439704], [116.111194213078, 39.77197514628835], [116.11519346556089, 39.77766406170243], [116.11806281284306, 39.77536941562652], [116.12118337099886, 39.77766887299202], [116.12629431120091, 39.77725102879099], [116.125225788284, 39.78174647299325], [116.11877378286563, 39.783972204298244], [116.11445975373684, 39.78346403601274], [116.11349590362416, 39.78826899126131], [116.10005779736306, 39.78722235180877], [116.10070658517125, 39.78393069648948], [116.09505811654586, 39.78437080469766], [116.08830314436628, 39.78017021583351], [116.08527144675712, 39.78269656454115], [116.0856058611311, 39.78654102852161], [116.07929179931863, 39.7939419132324], [116.08081687572813, 39.801905006924294], [116.07851623443943, 39.81021329724144], [116.0798747456163, 39.81501676915187], [116.08328102498355, 39.814965201091304], [116.08190029376257, 39.82553343261112], [116.08342625745624, 39.828333165114074], [116.07943400369452, 39.83077804289644], [116.07805438622658, 39.82719749959884], [116.07230802203544, 39.83021527793188], [116.06988500569805, 39.83563988137963], [116.06267939337856, 39.839426924556975], [116.05520539182851, 39.84054678097903], [116.0483812820071, 39.84461420988039]]]]}}