{"type": "Feature", "properties": {"unit_id": "beijing_110116", "name": "怀柔区", "district_codes": [110116]}, "geometry": {"type": "MultiPolygon", "coordinates": [[[[116.28376341039245, 40.3903696958835], [116.28764790062935, 40.391107526852714], [116.289465184792, 40.38312976939773], [116.29656301906803, 40.38615438888765], [116.30695776988652, 40.38812253981445], [116.31461577954308, 40.385509618576435], [116.31780863283522, 40.38593952167733], [116.33116299874847, 40.37839052887234], [116.33884222813695, 40.371772079355175], [116.34912881572875, 40.36996095904571], [116.35378378223375, 40.36539945015474], [116.35111259780105, 40.36267380359844], [116.3465632092752, 40.36298867171039], [116.34264184469235, 40.35503419662679], [116.34940211670481, 40.3554089667068], [116.3576671616184, 40.357608540551404], [116.36340702091984, 40.35493466861387], [116.36084036248714, 40.348929223662886], [116.35825233024829, 40.34768956100636], [116.36363842663118, 40.340977399807166], [116.36197033802152, 40.33338594380191], [116.35965295374855, 40.33028727817518], [116.36986138871998, 40.33292226835878], [116.36879662196259, 40.33594578781884], [116.37827754095588, 40.33761454942457], [116.38512978000588, 40.3369468930264], [116.39006271301895, 40.333404776038755], [116.40233444508443, 40.33343441204928], [116.40269069111348, 40.33175387117688], [116.41076566999622, 40.3283942694719], [116.41806898091046, 40.32981974812384], [116.42162802931082, 40.32777105256878], [116.42795253135225, 40.32768036134198], [116.43197355509717, 40.33178915804708], [116.43748532647402, 40.321260819213805], [116.44293437261452, 40.31971821215467], [116.4489517740915, 40.31494571575506], [116.44197212755621, 40.30457234277592], [116.43750898884774, 40.30104091351397], [116.44176336588876, 40.299075304154584], [116.44472020169324, 40.29164327340488], [116.4431693569075, 40.28531891422637], [116.4491022230227, 40.28345349092116], [116.4540934900553, 40.2857283734811], [116.46344820341953, 40.28164195775836], [116.46590350615372, 40.27876970278783], [116.47263926608778, 40.27869030201908], [116.47786529334378, 40.27458051620518], [116.4781393335756, 40.26631699870645], [116.48714521584566, 40.261198852834326], [116.49577191641683, 40.26170930271173], [116.49990794746685, 40.260103997113006], [116.50316280251926, 40.25681438481841], [116.51798226178629, 40.256324062051405], [116.52020578528466, 40.260131641040076], [116.52977475995775, 40.2602068085284], [116.5341592092642, 40.26600895914739], [116.53098978451257, 40.276011744529384], [116.53497680911099, 40.27379040148771], [116.54032481205532, 40.275081105243444], [116.54628170612416, 40.27270102962628], [116.56032460167202, 40.276916810823565], [116.55950756885436, 40.2722734506592], [116.564662119388, 40.27200653148022], [116.5643481045717, 40.267767952468134], [116.57670302232093, 40.26728185698262], [116.57940377008794, 40.26514863386994], [116.5825637229144, 40.26838629869874], [116.58501178457291, 40.263065872513444], [116.59381870423512, 40.26431476345979], [116.5949274231094, 40.257909185394716], [116.59879596142927, 40.25507783233681], [116.59795980370511, 40.25025678504855], [116.60740758174438, 40.25069156236865], [116.61620248237678, 40.249392501846984], [116.61795588217576, 40.25159067076677], [116.61780910843275, 40.25950226511715], [116.6293959890499, 40.26036404890348], [116.63117092008447, 40.25736840257414], [116.63561563397326, 40.25836520524048], [116.6372014707626, 40.256050381935154], [116.64262664520375, 40.259034539262615], [116.66096052635982, 40.26094406132492], [116.66354739911367, 40.25200892464123], [116.66736439467796, 40.245626852669055], [116.66284020750341, 40.23739893403196], [116.66430055823284, 40.233722811457476], [116.67034691300378, 40.23744960996036], [116.67216225162866, 40.23322186193182], [116.67802152095283, 40.23311366221324], [116.68471478152634, 40.239703902425006], [116.69124154049595, 40.24202161936935], [116.6905318491518, 40.246877995896], [116.69854132075417, 40.25034255938679], [116.69862341147586, 40.255891364560625], [116.70477736246193, 40.25500778686564], [116.73230583318193, 40.28313598489952], [116.73284915792588, 40.282844684813824], [116.74832815916172, 40.30241934161287], [116.75071108521288, 40.30131950772601], [116.75675123346376, 40.309160308293286], [116.76718742411177, 40.314708357670305], [116.76250115199491, 40.316548396939154], [116.75670715887432, 40.32543511314342], [116.75355089414904, 40.32558053450005], [116.75242038163103, 40.33260953364466], [116.74535596181173, 40.3344674830679], [116.7385241970542, 40.33243427755532], [116.73791714128109, 40.33786305681394], [116.72517894175304, 40.33376817961123], [116.72507360543034, 40.337759169412635], [116.71687043618442, 40.33789684772928], [116.71778802137423, 40.34277538844801], [116.72137800278826, 40.3452597003983], [116.72292112080068, 40.354352447392216], [116.71966497770856, 40.354355876351825], [116.72066642010654, 40.35992710263777], [116.71200464491258, 40.36008249252041], [116.71377790744707, 40.36778378966234], [116.70799760471344, 40.3673557873613], [116.70044504372053, 40.37256666947434], [116.7010491309022, 40.37576267056906], [116.71016575683089, 40.38285372525074], [116.70563775343236, 40.3856533050484], [116.70776467687756, 40.39454514848286], [116.70715833839385, 40.400308012194046], [116.71241657554602, 40.40078553521184], [116.71732111601004, 40.404039251358824], [116.71828076110135, 40.40791174125691], [116.72268461009038, 40.40853576312447], [116.73500378362735, 40.413335150008955], [116.72711021722726, 40.417020495882475], [116.72631617356282, 40.419312331253614], [116.71944841357823, 40.416769163569235], [116.71623290343173, 40.4225497186805], [116.71744207891129, 40.43377693006508], [116.7103250612468, 40.44043236698314], [116.71487446095283, 40.43970068443634], [116.71969575002717, 40.441791164697285], [116.71316204653178, 40.44734775969961], [116.71349543721304, 40.45444338113754], [116.71748100007629, 40.45724429342265], [116.71311863503288, 40.45910389901602], [116.71080304740795, 40.45578538821715], [116.70009995923438, 40.45865519473379], [116.69261141719232, 40.46677835821526], [116.68952395422701, 40.465462419121046], [116.68735473670971, 40.47484923004251], [116.68743679889414, 40.48044257080593], [116.69826218839286, 40.47776385607967], [116.68810347838317, 40.48419764945926], [116.68733193631762, 40.48951760813886], [116.69229505896293, 40.49199054861717], [116.69304462559909, 40.50315794663518], [116.69500364357424, 40.50926059849088], [116.7053080101873, 40.51515705722098], [116.70614232644698, 40.52074602401847], [116.71110771557674, 40.52347759530838], [116.70647453791645, 40.52863853061704], [116.70086277769637, 40.531272823466935], [116.69539686322592, 40.53860907156847], [116.69606340807697, 40.54414801427439], [116.68465494529758, 40.548178223363635], [116.67622998554137, 40.547630432043576], [116.6709743817444, 40.55319551465012], [116.65979735003461, 40.55118782888402], [116.66273747702117, 40.556254565883144], [116.67637557012856, 40.555487910846814], [116.67362181738127, 40.56072531720663], [116.6803153167832, 40.563207172041295], [116.69326649346797, 40.56225001806065], [116.70375844456044, 40.564180657173424], [116.70440448132906, 40.56735090113944], [116.70845175845578, 40.569340813684], [116.70824200495039, 40.57893367231583], [116.70285749086318, 40.58871007388109], [116.70550687730952, 40.590540949678804], [116.70239795708052, 40.59385976775368], [116.70513070240904, 40.598859594892254], [116.6995181455874, 40.60168372266809], [116.70189574612829, 40.60515481527701], [116.7004557586167, 40.609645392138745], [116.69651362239158, 40.61143780836168], [116.69188220669307, 40.61705936363671], [116.69523986086561, 40.62002868487105], [116.69859830327579, 40.61872084943556], [116.69903530650443, 40.62558685322991], [116.69586531150702, 40.62708820873119], [116.69540594526484, 40.63155917064057], [116.70608516938702, 40.63988774087309], [116.70504074946741, 40.64683481337772], [116.70652152108038, 40.65250689869989], [116.7037460122037, 40.661207331000895], [116.70818909082485, 40.6647043904917], [116.7071031092545, 40.66846643544712], [116.70879192502655, 40.67860412890634], [116.719267484401, 40.68323363186704], [116.7194345933413, 40.68768437216354], [116.72964319818274, 40.69022894283167], [116.73634693208633, 40.69448158243309], [116.74133965364092, 40.69562057414185], [116.74248819054212, 40.699089760246835], [116.74877847114372, 40.701433920544986], [116.7499694880869, 40.70422788743181], [116.75667918927883, 40.70496804996027], [116.76305857745261, 40.701355828247294], [116.7778088697539, 40.69905418360545], [116.78092703004982, 40.70304057458084], [116.78050789131267, 40.70885399503541], [116.78291390305961, 40.71100910409796], [116.78429417206706, 40.7275177666616], [116.78016924209915, 40.734560994114176], [116.77663080666107, 40.74633972863672], [116.77453785529461, 40.75003007192585], [116.77757124937877, 40.75614726203704], [116.78745217063086, 40.74680138235518], [116.79681286468524, 40.74453509819639], [116.80437433428337, 40.74767673681734], [116.81252337822066, 40.7489917889018], [116.8200865954378, 40.74792932730402], [116.82568104944677, 40.74989826613423], [116.83397676004519, 40.7592857015702], [116.82867436809899, 40.76880754581668], [116.84436611959846, 40.77361768774408], [116.84518306001159, 40.7775341120738], [116.85073444755483, 40.77816915743969], [116.85196900893052, 40.78166850204171], [116.86141481400486, 40.78319098624015], [116.85651280952666, 40.79147616515664], [116.86522433671458, 40.79341432743344], [116.86727520756648, 40.797409887884484], [116.87252971419102, 40.7961811910929], [116.88092130391965, 40.79971766031681], [116.87416226398891, 40.8029996137761], [116.87612756507697, 40.81279888312132], [116.87068527998785, 40.817073512547395], [116.87012036328568, 40.819814647264714], [116.86432078899661, 40.820207875217044], [116.85537791501588, 40.82394663984895], [116.85456100306007, 40.829042239800614], [116.84934393500329, 40.83401961275073], [116.84249374630043, 40.835706279591406], [116.84209574528728, 40.83786981220305], [116.83363097731991, 40.837565539733745], [116.83166088260332, 40.84007782688848], [116.82568925001307, 40.8411088114904], [116.82187611721375, 40.83962690294122], [116.81732928962879, 40.841189249055546], [116.8145844531621, 40.84676172896438], [116.80746166824282, 40.84690908211376], [116.79977500298394, 40.839315634115174], [116.79631859343674, 40.840865078499945], [116.7962343218494, 40.84966378261564], [116.79080939516909, 40.853341031481825], [116.79103901881653, 40.85848512486793], [116.77058702319307, 40.876790220200476], [116.7661522969387, 40.87693118786407], [116.76318107849632, 40.88136694525991], [116.75592457194244, 40.87917033027781], [116.75232945565749, 40.88038684322464], [116.75329008385293, 40.88825137604083], [116.74405098487296, 40.89006154877838], [116.73356315115761, 40.89506202515789], [116.72424986372033, 40.89617453663202], [116.71997003756441, 40.89959007442855], [116.71750708868849, 40.90471656839114], [116.71072376839437, 40.9085839395157], [116.70719774161734, 40.90884469963278], [116.71095176357211, 40.92009393675279], [116.71614704042703, 40.92581741752867], [116.70773801596764, 40.92781292500653], [116.70604726183643, 40.93324081058167], [116.70108246981901, 40.93243215778002], [116.69665948487297, 40.93492032158965], [116.6962420445617, 40.93903354310439], [116.69006814916212, 40.942933014565625], [116.68320649764725, 40.94953799701917], [116.68116085084414, 40.96096513200932], [116.67185958505459, 40.969396717898064], [116.67185894028417, 40.97440345963732], [116.67519467627147, 40.979147022785774], [116.67921981826534, 40.98104172823952], [116.6764662872318, 40.984661896100825], [116.67698594590144, 40.998875811528336], [116.68484657373557, 41.00562324770883], [116.68476206890877, 41.01134654282538], [116.68772366040346, 41.01204450094594], [116.69272792541321, 41.019596136386276], [116.68961987745882, 41.023741144989614], [116.68897164552038, 41.031604656411126], [116.68523853703346, 41.035845902493534], [116.68613458250907, 41.03915145623826], [116.68252730222312, 41.042992922850004], [116.67679315224447, 41.04014419550746], [116.67091205374803, 41.04109766850743], [116.66722123660054, 41.04474766463065], [116.65917206517469, 41.045066596526134], [116.6509957256006, 41.04969847216719], [116.6479081235024, 41.05465662258471], [116.64144071548151, 41.05779752889575], [116.6351820536836, 41.05673670141006], [116.6319675082384, 41.05891423432383], [116.62489178102159, 41.05922547104828], [116.61814814688564, 41.05287434359681], [116.61052444330664, 41.05182558707741], [116.6117997286481, 41.047095828743814], [116.60755976456797, 41.039237657548384], [116.60818682688087, 41.03455533305776], [116.61165465842639, 41.03316267476556], [116.61529018214657, 41.027439079847284], [116.61694109845743, 41.01915982010601], [116.61596001536095, 41.01422078057715], [116.61324551002151, 41.012705006570634], [116.6089642697032, 41.002060518630536], [116.61113777424771, 40.99721447669734], [116.60859017984136, 40.98181791756274], [116.59184709425891, 40.97326319767613], [116.58377214386384, 40.97521108270645], [116.56899172104258, 40.98479303680358], [116.56323061362131, 40.99010951743139], [116.55526828913754, 40.991919676914065], [116.55264887259356, 40.98708487155422], [116.54182947077925, 40.986438497967704], [116.53597660682968, 40.98867961027415], [116.52959917008656, 40.987079657740175], [116.5273750303571, 40.98409927030039], [116.51864574586078, 40.979454007936766], [116.51348158880023, 40.97993469470119], [116.51018699564756, 40.9735594478384], [116.49836748482203, 40.97424462712728], [116.49055804245747, 40.97673224732704], [116.48753556684093, 40.976210793882366], [116.47939048734743, 40.98072950443677], [116.47269485797513, 40.97735291716564], [116.46793152034996, 40.97684479869063], [116.45784047058332, 40.98270520054208], [116.44920057735533, 40.97867309150172], [116.4453864364299, 40.96686179676109], [116.44697994993706, 40.9627852631783], [116.44111136712634, 40.95203982389963], [116.44851287999728, 40.94775000912744], [116.44905784831239, 40.94365456178457], [116.45602158026578, 40.93347589583475], [116.4552456533319, 40.93092932869796], [116.46093098148556, 40.92958152634245], [116.46214863855411, 40.92335870878139], [116.46735232493725, 40.918025181324374], [116.47134129770917, 40.90005670045192], [116.46779593345615, 40.894314225221386], [116.4580617824676, 40.89461121993487], [116.45237674873415, 40.89885813727623], [116.44440998944562, 40.899594870609285], [116.44216691100257, 40.89816609237201], [116.43026540134694, 40.897619883494066], [116.42454729180413, 40.90158422535097], [116.41255248074181, 40.90055152489968], [116.40734321525187, 40.897970979939394], [116.39839053823184, 40.90394385772269], [116.39216149595467, 40.9042335719927], [116.38994500610754, 40.90947026051632], [116.38637123735808, 40.911329863549525], [116.3785145898763, 40.921053159369116], [116.37765684195335, 40.92673620682218], [116.37337473384768, 40.93142983304904], [116.37358310863611, 40.93397444277471], [116.36399899125614, 40.941860082577904], [116.35846715715066, 40.94121289955839], [116.35260371866055, 40.93430927989536], [116.34381761373584, 40.93429275185959], [116.33361579434683, 40.92768544285428], [116.33255275164939, 40.924006580560906], [116.32785833726253, 40.91911670810967], [116.32917462797617, 40.90878887255087], [116.32817373150874, 40.90293071125535], [116.33595625974985, 40.89817681268392], [116.33839832502443, 40.89298354478683], [116.3475597663029, 40.88606454399235], [116.35419624330989, 40.883154577917765], [116.35964425601162, 40.87845278725647], [116.36027055954929, 40.874911766736375], [116.36853905872547, 40.86979033766485], [116.3753893068807, 40.86172284746112], [116.38334765077089, 40.860065748188596], [116.38541775391076, 40.8530939068411], [116.39294151574786, 40.848747211179536], [116.39978039588844, 40.836196580764465], [116.40009398213375, 40.83162823748932], [116.40862907614235, 40.82758916653703], [116.41612073830214, 40.821051685795794], [116.43048519387821, 40.81902960872174], [116.43356535364363, 40.81334117964451], [116.43367132946247, 40.807441011667784], [116.44467475947394, 40.800258359542994], [116.4458491368258, 40.79639556731413], [116.45094330145298, 40.79664638230311], [116.45513933382583, 40.7869029400866], [116.45438496661305, 40.78080601979555], [116.45958743200586, 40.77290887556375], [116.45918944728247, 40.77112631256115], [116.46527391370338, 40.76963319439568], [116.47408694033714, 40.77000898365163], [116.47899843818617, 40.763620451966965], [116.48523280696571, 40.76176069980522], [116.4893267714621, 40.75821037077624], [116.49411296143425, 40.7592997363132], [116.49677976772924, 40.75513484424752], [116.49568986619462, 40.74508512218646], [116.50035023028508, 40.74195239615918], [116.50761434349869, 40.739999533625735], [116.50339496715971, 40.734015376200695], [116.504655964937, 40.724995745801365], [116.50075178608519, 40.71857772366153], [116.49800218147469, 40.71866542875361], [116.4969948468719, 40.714423470645755], [116.49995589887185, 40.7094219137092], [116.49579941550927, 40.70532939139174], [116.49493968971447, 40.70081401992082], [116.49655654435479, 40.69590330117211], [116.49051040780377, 40.695403660776535], [116.4826393522584, 40.69046514394274], [116.4771839889148, 40.67790137866057], [116.48096242673896, 40.67285044420393], [116.48667178515852, 40.67251314280791], [116.49544764450344, 40.669742976657226], [116.49983428775438, 40.67163581988198], [116.50741343252581, 40.67093593000411], [116.5112136615239, 40.6643416021675], [116.51404746710672, 40.66272697719218], [116.51232645166439, 40.65953906948817], [116.52101663074099, 40.65704072390238], [116.52349389189864, 40.653238142496356], [116.53406807520352, 40.65535580884138], [116.53813805743117, 40.65245577036625], [116.53906128933527, 40.64880937075484], [116.54438889688753, 40.646313265616136], [116.54520773843102, 40.641540158747624], [116.54795401880472, 40.64159501208191], [116.55797421472964, 40.63564899997402], [116.5680093958349, 40.635036624123245], [116.5681992592944, 40.6304377905574], [116.56308857560477, 40.62423949039391], [116.55531454067756, 40.6272985677578], [116.54573437991719, 40.623933482008276], [116.5390441443551, 40.62578405827351], [116.53331760844097, 40.6243068515456], [116.53296121526073, 40.61837063432472], [116.52964687471379, 40.61438948146443], [116.5269198534773, 40.60514883067122], [116.52996398281691, 40.59814214144318], [116.52492833990142, 40.59457373172888], [116.52557917012604, 40.59000519912804], [116.51911637266888, 40.581684016430906], [116.51174963077602, 40.57841157632736], [116.50708991004709, 40.571444755693555], [116.50350020634599, 40.57140207441999], [116.49905142602715, 40.56121543947932], [116.49388680184929, 40.55954092803339], [116.49015127426252, 40.55371802218218], [116.4784178073548, 40.5514463701118], [116.47346560366773, 40.539967834363054], [116.46440175746449, 40.53396939365549], [116.46089934120715, 40.52861362215937], [116.45471260078128, 40.522897369975425], [116.45964192335211, 40.51735033249238], [116.4641310129801, 40.51752207917519], [116.47011250179946, 40.512768723838356], [116.48243128581895, 40.51446287197527], [116.48593607456381, 40.516711887853766], [116.49164671560519, 40.51672867528461], [116.49435499407241, 40.509551264634695], [116.50031722650144, 40.50687839356919], [116.505881425652, 40.499821417600806], [116.51312431894826, 40.49531395442728], [116.51306169422232, 40.490511016646764], [116.50548471817824, 40.48562086998129], [116.50225183498631, 40.48185592747614], [116.48602515969405, 40.47966370807133], [116.48119711018187, 40.48035947675494], [116.47737677980456, 40.48360424112193], [116.46199561262111, 40.48350007664022], [116.4593521559237, 40.48557284455059], [116.45165571886331, 40.486990159180934], [116.4496854091587, 40.47945855229862], [116.4369195342062, 40.48032256403488], [116.42684349644237, 40.476699070333474], [116.41465862629705, 40.4788002200304], [116.41034849512029, 40.48150709007096], [116.40735638548988, 40.48002292731366], [116.40018225887638, 40.480490336133414], [116.3873905448377, 40.47106433221505], [116.37978505809865, 40.47431084580079], [116.38103691347506, 40.48054792339969], [116.37053072133824, 40.484250390953875], [116.37230539628933, 40.49003458824999], [116.37124023223406, 40.495338384432486], [116.36334743316965, 40.498829230514595], [116.35963121792564, 40.4981580802709], [116.35078143388257, 40.50047741490353], [116.34239396802501, 40.49762373132288], [116.3360920741639, 40.49902085338514], [116.33043835929415, 40.49721150080051], [116.32436612810069, 40.49933414466156], [116.31704285604184, 40.49875131167962], [116.30704847933384, 40.49042138103376], [116.3040645374135, 40.490329570973245], [116.2976365315772, 40.48445779871149], [116.29103866955914, 40.48541821390592], [116.28556803290967, 40.48397519597348], [116.28865982127803, 40.47400864238205], [116.29550958146193, 40.46675997701015], [116.30070735287241, 40.464736639656174], [116.29482101281528, 40.457086166706546], [116.28770212335644, 40.45150059368805], [116.28824568183144, 40.44864505276206], [116.28367326203787, 40.43958655651373], [116.28455173505682, 40.434536494075466], [116.28833218847075, 40.427982189592115], [116.29052591612043, 40.419379465917345], [116.28582743156042, 40.41530326202016], [116.28332163647897, 40.41670982907071], [116.28240339662702, 40.41212861000859], [116.28549493477172, 40.40713767214485], [116.281756314102, 40.403414513621364], [116.28363619560297, 40.401233075259405], [116.2798986422111, 40.39473264526691], [116.28376341039245, 40.3903696958835]]]]}}