{"type": "Feature", "properties": {"unit_id": "beijing_110112", "name": "通州区", "district_codes": [110112]}, "geometry": {"type": "MultiPolygon", "coordinates": [[[[116.71950605231271, 39.62289702046441], [116.72418198061644, 39.62174942351332], [116.72449592927886, 39.61796093403372], [116.73184643550714, 39.61418269890676], [116.73796596307642, 39.61563279623311], [116.74264616913433, 39.61874930777889], [116.75656697420963, 39.61262612105065], [116.76815521904759, 39.60425310577328], [116.76884626273481, 39.597982013583746], [116.77215254582056, 39.59220180747995], [116.77901627540413, 39.592322996409614], [116.77943529203013, 39.595034780169364], [116.7846682883987, 39.59487663695543], [116.7833481238628, 39.60142455922186], [116.78680285640087, 39.60098781383569], [116.78397577663166, 39.60936248486127], [116.79605645906437, 39.611143235460084], [116.80370086368272, 39.6133757567963], [116.81354623257529, 39.617866767149856], [116.81800861148051, 39.61606225578675], [116.81905696356118, 39.61276590484328], [116.82942713347023, 39.615904559986696], [116.82814916145712, 39.62039219762242], [116.83248626657858, 39.6211351587158], [116.82037405219336, 39.632002266257516], [116.8229516440406, 39.63404764216724], [116.8209184442027, 39.63709725224473], [116.82858648823942, 39.640734861558464], [116.82760133995885, 39.64301857125771], [116.83480891713809, 39.643146018484195], [116.83317445266589, 39.6464243483851], [116.84547113213047, 39.65176772653454], [116.84400276961433, 39.66646949601837], [116.8545602005197, 39.66619344269741], [116.85805796974037, 39.66933137454793], [116.86727055086321, 39.670340200725036], [116.87733814057302, 39.67431591270496], [116.88524722555928, 39.67305062573553], [116.90076215872345, 39.67640065953322], [116.89929836291873, 39.680625873937004], [116.90312307508964, 39.6818337320218], [116.8969971610562, 39.68954912683818], [116.88401115299187, 39.68662356065894], [116.88191887739632, 39.689917456229445], [116.88746143796133, 39.69215596615134], [116.88794219447482, 39.694847836855644], [116.88047318650318, 39.70596588734995], [116.88120467292194, 39.713272486090425], [116.87689355702176, 39.71742702887851], [116.88168453700267, 39.7244753977601], [116.89385754510796, 39.7251352921383], [116.8963865948628, 39.72838057717579], [116.90562426479792, 39.73048351896656], [116.9107643337714, 39.73031902238024], [116.9104501266831, 39.73483559609651], [116.90702355776908, 39.73465671195392], [116.9048087477914, 39.73995550907507], [116.90854838155711, 39.74072056889237], [116.90727307285812, 39.74492744340516], [116.90125427189962, 39.75493506045032], [116.89565163137084, 39.75416839793721], [116.89590153621911, 39.76257857419337], [116.90238128374523, 39.76567492815853], [116.90470121838071, 39.761242175755896], [116.91497848326321, 39.768066690553745], [116.91057107470566, 39.77489623305036], [116.91579193931524, 39.77958608298055], [116.92783657406306, 39.78074805704581], [116.93332419402401, 39.78030100249061], [116.93981184230917, 39.7762993410074], [116.94375237606282, 39.77746530010854], [116.94202060449176, 39.7842947949626], [116.94779600761525, 39.784984871753316], [116.94483551465383, 39.79044811852982], [116.9323420905594, 39.79206432265885], [116.92885700381207, 39.80008316316687], [116.93690965197362, 39.80060991531671], [116.92384689202737, 39.81031691072231], [116.92223949816847, 39.81310324646758], [116.92292742013784, 39.819861103222536], [116.91996080052238, 39.834353751605036], [116.91150228517253, 39.84586838604261], [116.90446053835605, 39.84956517595708], [116.89689484802349, 39.84720504166369], [116.89697867090429, 39.84030348433234], [116.90166243547361, 39.83307539851929], [116.89744082846748, 39.82964026594656], [116.89158568331003, 39.83154338092163], [116.87974489476942, 39.84353284899865], [116.87237835413774, 39.84416039002409], [116.8727130190958, 39.84119795053606], [116.86557466039919, 39.84099418542507], [116.86010949747988, 39.842826378328155], [116.85956437906023, 39.84583638440595], [116.85233845379021, 39.84737194147307], [116.84657763183193, 39.85795756033231], [116.84127735954561, 39.857508177253195], [116.83341995579228, 39.8646543325959], [116.83090533456192, 39.86360869315359], [116.82126551573087, 39.875925019685376], [116.81766252028707, 39.87798426919539], [116.81097844625837, 39.87748427005626], [116.80708235409075, 39.880129383128455], [116.80626391915013, 39.8885385829511], [116.80226336733342, 39.88845095943145], [116.8022008575222, 39.88373308640756], [116.7982006885093, 39.88369377174316], [116.79809640205337, 39.87674695787908], [116.78867328550245, 39.880052376870495], [116.78101047255494, 39.885623951486124], [116.77862382659103, 39.890208242695515], [116.77816209709684, 39.901008282968874], [116.77608949518417, 39.90920393634193], [116.77627538625273, 39.92705735221856], [116.77723712488675, 39.93482994294452], [116.77648211284767, 39.94633776409599], [116.77449346658207, 39.948497882118446], [116.75673419704614, 39.95477774118923], [116.75123511374021, 39.96025381866753], [116.75351220858487, 39.96870363452513], [116.76034836557166, 39.97512301039348], [116.76066162407038, 39.981052886058215], [116.76927824767147, 39.99153506966868], [116.76965312482484, 40.001718895563705], [116.76436033820815, 40.01040428397612], [116.76565627545385, 40.01324685220967], [116.75869140592164, 40.0148187571452], [116.74719436184705, 40.01468774555327], [116.74566785289706, 40.01873079930977], [116.74094540198567, 40.020746006962845], [116.74096595322543, 40.024154836989304], [116.73106403545701, 40.026385130941236], [116.72626145586658, 40.02388813043903], [116.72597028240546, 40.02099852872452], [116.71876759458068, 40.02305176281801], [116.71816212102897, 40.020065595858846], [116.71367492874857, 40.021305003522386], [116.71133824869418, 40.0184012160331], [116.71029400282295, 40.02255944288768], [116.70259549315696, 40.025395653638995], [116.69792294772844, 40.01895750559261], [116.69124896228836, 40.01492618042259], [116.67961214906137, 40.01541861824006], [116.68240818097601, 40.00802467735517], [116.68032217107708, 40.00711864855944], [116.67781949486499, 40.013311123135566], [116.67252250724344, 40.013921236419556], [116.66270044998019, 40.01282004051595], [116.65880062542212, 40.01792609986569], [116.65423266856914, 40.0205483188117], [116.64974879203226, 40.01747137133382], [116.64580531665263, 40.020822886114615], [116.64532502620939, 40.02467149473389], [116.63032291496202, 40.01863775599126], [116.62767240507085, 40.022601800378126], [116.62124244917041, 40.0204497862594], [116.61842230273372, 40.02261124840157], [116.61428776356477, 40.0214625297511], [116.61357707544296, 40.025683816575196], [116.6083331677555, 40.02713173471072], [116.60824880527187, 40.03070359800137], [116.6042578541813, 40.03016913246799], [116.59696229530155, 40.02745927068669], [116.59504077194137, 40.017814608597526], [116.58974963759407, 40.01646548875512], [116.59552232273742, 40.012829883481594], [116.6140803132413, 40.010745169224215], [116.62230848320715, 40.0065973749146], [116.61994962573655, 40.00206882846553], [116.62690270402632, 39.9987647727926], [116.63174524570512, 40.001292712720705], [116.63683730174606, 39.99568194933169], [116.63790283100975, 39.98853369491104], [116.63448014774, 39.98910755834275], [116.633291015082, 39.98581131791654], [116.62782270508158, 39.98513627159748], [116.62819856482281, 39.98063500950968], [116.63398011556419, 39.98153755783664], [116.635985469128, 39.96850428589276], [116.63723877231895, 39.95191114176633], [116.63943073380763, 39.944902168036045], [116.6264075896608, 39.94948734201279], [116.62467511187543, 39.94510043584681], [116.6276195940986, 39.939847325695446], [116.62386237063157, 39.93767259908048], [116.62348688777598, 39.930260291924505], [116.61835080331684, 39.928932214981046], [116.62476194315632, 39.92061733882081], [116.61515580839965, 39.92205704079419], [116.61720432083754, 39.91277084815112], [116.61444753442, 39.90662521160635], [116.61756000364119, 39.903223974302264], [116.61522166876179, 39.897809046823596], [116.609519220673, 39.89446177031135], [116.60981263805618, 39.88875288621142], [116.62177956342364, 39.889426797260754], [116.6231804233214, 39.88054282251733], [116.61852348717323, 39.88010824780813], [116.61913010648426, 39.87620291467034], [116.61420151565189, 39.86790824889167], [116.62115713097397, 39.85963493060547], [116.60766532501135, 39.84914702058585], [116.59840655553606, 39.84903526133451], [116.59888788094877, 39.84509647308048], [116.60258723023196, 39.84550291753123], [116.59612821090393, 39.83969181613104], [116.59646424458839, 39.83064042015242], [116.59320153417667, 39.83062404567241], [116.59345326707127, 39.82455050473351], [116.58569342786305, 39.82532973440528], [116.58581878529434, 39.822837973137794], [116.57795026501789, 39.82387442503365], [116.58123556941541, 39.82718282166851], [116.57169002353568, 39.82648991242501], [116.57135520859569, 39.82963231203725], [116.56358395571742, 39.832437779972764], [116.5527717114673, 39.83360817487381], [116.53779960877532, 39.83396645128568], [116.53681422894347, 39.82909537210097], [116.5272893797352, 39.831594661021406], [116.53226226689657, 39.827082064173], [116.52905323137702, 39.82368691103104], [116.53371067927503, 39.82044222816591], [116.52747961794901, 39.81852107584271], [116.53465582483753, 39.8107393260157], [116.53581146135905, 39.80204488702534], [116.52922380886076, 39.799015224829795], [116.53165817361581, 39.79555188603158], [116.52502871734701, 39.79059862625914], [116.52700105462306, 39.78540644215258], [116.53220580917562, 39.780158648002036], [116.52419041269945, 39.77769347943662], [116.53025589105417, 39.7687476643733], [116.53879320618225, 39.771196880333775], [116.5399470236992, 39.7676309733021], [116.53061223194041, 39.76728174287561], [116.53401136274815, 39.765139702040855], [116.5345577021738, 39.759958609951184], [116.52238827875752, 39.760317192736785], [116.51770662341445, 39.76876209400347], [116.51413915888762, 39.764612197687356], [116.51926111873503, 39.761237289671975], [116.51707984062153, 39.748518416527666], [116.52526492008056, 39.74642264167084], [116.5216559313739, 39.74215813417582], [116.53036380048263, 39.739541093790244], [116.53212681545723, 39.7369539826089], [116.52652416882553, 39.73848798332504], [116.52595942515678, 39.728883615662475], [116.53196050150514, 39.72692678214001], [116.53110052295035, 39.720402390082974], [116.52873017679514, 39.71695560698341], [116.52346310308366, 39.718670073181954], [116.52142839399745, 39.71543483045441], [116.5266746406097, 39.714161468351044], [116.52466002819125, 39.71213425255743], [116.52980146199252, 39.71076128210995], [116.53911510257952, 39.71394826690119], [116.56749473024564, 39.71346393085019], [116.56768366548752, 39.708082923312546], [116.57411210549316, 39.70919937728551], [116.57543129241733, 39.71148339929895], [116.58438838016218, 39.712322311996495], [116.5844306219949, 39.71049558757228], [116.5926099207413, 39.710939777075374], [116.59825489171492, 39.71372889734936], [116.59879824870123, 39.71770733760119], [116.60337610326724, 39.71834252834855], [116.61047981111629, 39.72455284252825], [116.61609847150402, 39.724793092401185], [116.6158684910222, 39.72704398314845], [116.6223423568751, 39.72671131504146], [116.62541188759211, 39.72193069964277], [116.63181990973678, 39.722885847103456], [116.6326979695218, 39.716117579867394], [116.63877093249577, 39.70859101722597], [116.6471581673649, 39.70754981207374], [116.64726248813567, 39.70275431831587], [116.64208905335, 39.70251878455785], [116.64044125682736, 39.69938980190172], [116.64127701187772, 39.69372835217629], [116.64567853978458, 39.69339434009451], [116.64549179456273, 39.686804661645944], [116.65225087991291, 39.68508036976378], [116.65233337159297, 39.6874948451801], [116.66069703961585, 39.686010818929276], [116.66370012821143, 39.682546715063005], [116.66015543095159, 39.67860501574233], [116.66270101047478, 39.67351008072734], [116.66931124895767, 39.67512922193002], [116.67487862936215, 39.673780765535504], [116.67963294204205, 39.67576136795073], [116.68676509103771, 39.6756510634718], [116.68760002979823, 39.67380484342486], [116.69779914871387, 39.67298813037636], [116.69888525826983, 39.66603451993498], [116.69617433555035, 39.65649273812056], [116.69692635221247, 39.64877189567965], [116.70011816364293, 39.64174797193785], [116.70443708246245, 39.63852481493811], [116.71000828906628, 39.63918657799282], [116.7174790347586, 39.63785427632148], [116.71539332422547, 39.628240726573516], [116.71950605231271, 39.62289702046441]]]]}}