{"type": "Feature", "properties": {"unit_id": "beijing_110117", "name": "平谷区", "district_codes": [110117]}, "geometry": {"type": "MultiPolygon", "coordinates": [[[[116.95587062023073, 40.05024166877236], [116.95883035281041, 40.04671299504583], [116.963204781569, 40.04744930869872], [116.96599735624886, 40.03583684222517], [116.97947212605953, 40.03765093833667], [116.9856562039694, 40.03570101974911], [116.9939425163687, 40.03103343774913], [116.99446345115997, 40.02869397742522], [117.00510084611503, 40.0299926094471], [117.01176285127086, 40.029193598996336], [117.01457305072289, 40.031166158526055], [117.01850800347532, 40.028816757812], [117.01759154716126, 40.03245523931321], [117.02217261874834, 40.0326530492382], [117.02069336198741, 40.03752801791152], [117.0267939478142, 40.04103270222549], [117.03225068873638, 40.048045669741235], [117.0450003384388, 40.0497994570838], [117.04693837838836, 40.05151607485801], [117.04558221815972, 40.05800968759235], [117.05471216352254, 40.058720803822546], [117.05790229991467, 40.06139279372537], [117.06413706483023, 40.06277844710656], [117.0631571571005, 40.06617074762275], [117.07452779490369, 40.067404694911644], [117.07446541464094, 40.06367299114009], [117.07853535685001, 40.06717377758142], [117.07907754829553, 40.073711885943354], [117.0973749742383, 40.074157503315064], [117.10122144117958, 40.07037788286433], [117.11295222740127, 40.07099812723427], [117.12234640514352, 40.06404490670906], [117.1326869402912, 40.062645616507716], [117.14973314765543, 40.06795986100988], [117.15362789713483, 40.07418113765562], [117.15195177747766, 40.07606011364426], [117.16573814089428, 40.072807154739905], [117.16911088129504, 40.070298608318126], [117.1771361648648, 40.070752597376476], [117.17996398438908, 40.07487858062619], [117.17506114384867, 40.07876220028388], [117.17891498491134, 40.08254912415024], [117.18274933262235, 40.081534257454656], [117.18539052351419, 40.07165970677375], [117.19213694048268, 40.06879977900025], [117.19113150454659, 40.066445192611965], [117.19881899338884, 40.06898986086104], [117.20175065597891, 40.07554803903979], [117.19718452979104, 40.07541080859905], [117.19785422071364, 40.07836470060446], [117.20757169198514, 40.084964967572795], [117.20461801955747, 40.08950239852748], [117.2048265487426, 40.095325278225964], [117.21808071250717, 40.09339659858551], [117.21799611042786, 40.09735320879993], [117.22220260856835, 40.09899548004747], [117.22262150852143, 40.10227163339719], [117.22960929781651, 40.10712617692686], [117.2318268142269, 40.11050043245186], [117.23895919039907, 40.11196404027402], [117.2428696118966, 40.115224015584594], [117.24914126611999, 40.11203009008574], [117.25399048768165, 40.11290561804333], [117.26042647308492, 40.110925883791715], [117.26349792123291, 40.10594583964035], [117.26794668606998, 40.10454924066105], [117.27024407545275, 40.108050282637535], [117.2692409087565, 40.112379680246235], [117.27899041156276, 40.12005623275744], [117.29063630910217, 40.117577038710515], [117.29061503622647, 40.11999285759778], [117.29651878485387, 40.12463673554891], [117.30112797777846, 40.13568434188639], [117.30725970466929, 40.13865562354025], [117.31205696608201, 40.137205190715896], [117.31674870264116, 40.13938431379181], [117.32438183745745, 40.13441033328913], [117.32406999835051, 40.132352127683326], [117.34248296533299, 40.135153907143916], [117.34479826832334, 40.1385533483649], [117.34974116655893, 40.139516479062344], [117.35026227241322, 40.14364815835823], [117.34392096158858, 40.14344944790661], [117.34865493514204, 40.147200588478086], [117.34510900492556, 40.14918369477335], [117.3539942882811, 40.15556856784648], [117.35071850913687, 40.16288127565786], [117.3445017830299, 40.17027940022738], [117.34712953354372, 40.17228343560484], [117.35278207784361, 40.171949687160556], [117.35737146531555, 40.17527877008895], [117.3621909429636, 40.171578852304556], [117.36536264503461, 40.175121883456164], [117.37035073138921, 40.174904355719576], [117.37454769364145, 40.17102790872137], [117.37392016976982, 40.17548305977769], [117.38649133361594, 40.173462933194145], [117.38492479305368, 40.17616969603305], [117.39451384326014, 40.182173733023696], [117.39804581350768, 40.18179982270395], [117.40099304471603, 40.18605887228541], [117.39100233906738, 40.19147096266389], [117.3816655505129, 40.18681290585046], [117.37740589982708, 40.1863959316208], [117.37769642848345, 40.19384462614102], [117.37477425266303, 40.19347573955995], [117.37287369239421, 40.199889977992285], [117.386446501578, 40.20193413840918], [117.37898972414128, 40.20645754585061], [117.37176547629082, 40.2088609578111], [117.37090892935284, 40.217182703094075], [117.3870283583887, 40.220210949305105], [117.38333091519483, 40.22652558326004], [117.38013541124059, 40.22567044882915], [117.36731698511123, 40.231349954760304], [117.3536289522008, 40.23114364024196], [117.34906193085172, 40.22815794673594], [117.34499465317725, 40.228068196887136], [117.34163604170365, 40.23318846535041], [117.33886162499533, 40.23356556509064], [117.33685912064027, 40.24153092593171], [117.33329269887847, 40.244822104259825], [117.33560579405068, 40.2551237588011], [117.33103778032068, 40.26189514504784], [117.33141335897844, 40.26453089490836], [117.32742802632796, 40.284285344221324], [117.324674327795, 40.28830072378551], [117.31681325984354, 40.283092799078226], [117.31026523639434, 40.28376767221939], [117.31030654091177, 40.280663282083786], [117.29781337778275, 40.27686727758996], [117.28984289557525, 40.27679809378137], [117.28589821007795, 40.28493754516647], [117.2881718134392, 40.289591531255965], [117.28683586119034, 40.29544593801675], [117.27927989623632, 40.300919611186465], [117.2678999147299, 40.30726611989672], [117.26825366632421, 40.31311741250379], [117.265412558641, 40.31856586302975], [117.26484751176997, 40.323996772732265], [117.26852297138997, 40.33065161735521], [117.2606896415796, 40.33440504184309], [117.25339651583145, 40.33490801074977], [117.25469230286515, 40.33749306216791], [117.25065838651544, 40.34017480914232], [117.24793929509246, 40.349899992770894], [117.24775057914967, 40.355812222332894], [117.24375749043871, 40.35708728778856], [117.24133101269855, 40.36280491195158], [117.2358508409418, 40.368680852394924], [117.23062108184797, 40.36932350782496], [117.21973895449432, 40.36773144922567], [117.21745693186293, 40.37422088984884], [117.21207677342711, 40.37639369950009], [117.20466457065838, 40.372491731536236], [117.19806663858844, 40.37173877868378], [117.19326929750923, 40.374508939098895], [117.17929557616803, 40.37638935598983], [117.17342871198754, 40.37363330755357], [117.16395871095371, 40.37293685328026], [117.16142335463088, 40.370058106600375], [117.1510534524564, 40.373430633061474], [117.14877013583629, 40.369970892415566], [117.14089532433219, 40.36852185897644], [117.13580854544095, 40.3613757711417], [117.12153247384492, 40.357402449506104], [117.118771211634, 40.354944773928054], [117.11086409940874, 40.35227423288419], [117.09432693940474, 40.35907129974039], [117.08801859163606, 40.356813028649796], [117.07866439879015, 40.34896868529585], [117.06616541652004, 40.344136611857344], [117.06574779816675, 40.34155295270019], [117.06040887012959, 40.34154529397404], [117.05442513199931, 40.33636946519607], [117.04633771429843, 40.336240127576616], [117.04181535059261, 40.34012832202432], [117.03283704845826, 40.338680001692964], [117.02636000038359, 40.33616108673745], [117.01975919567349, 40.33711744159538], [117.01449176929528, 40.33485444484506], [117.00637367001288, 40.32544230132182], [117.00393956366366, 40.319437254941406], [117.00071251792178, 40.317976437636936], [117.00127554769938, 40.313319915709556], [117.00500248725932, 40.305824465681695], [116.99573981345384, 40.29841638873423], [116.99782204436875, 40.29265441431951], [116.99209755405202, 40.28958445847434], [116.9846242134984, 40.2893797956134], [116.9848326576632, 40.28650083254524], [116.97758739155671, 40.28668375484313], [116.96521731029041, 40.28055655048093], [116.96440515933898, 40.275366735064054], [116.95590537399394, 40.27229883925511], [116.9543841415272, 40.26926089399002], [116.9449014617909, 40.259963273521805], [116.94827936081627, 40.25602647398792], [116.95569975322674, 40.25149646102707], [116.96317880380266, 40.252805373487305], [116.9697412796501, 40.24829025852863], [116.96795017391922, 40.24339290222907], [116.95384680856884, 40.23154920082144], [116.9502211279944, 40.231491979507666], [116.94751049152596, 40.23496088247566], [116.9408595457265, 40.23498920062376], [116.93960839887828, 40.23233778311442], [116.93082685102415, 40.23116906993786], [116.92919981457923, 40.22875954340964], [116.93495893606662, 40.22282770770679], [116.9320188072503, 40.20946098122878], [116.9236923683803, 40.21050660159723], [116.92490360858172, 40.2060050465247], [116.9335444284257, 40.19125948654735], [116.93988471247282, 40.1920435318949], [116.94393084566866, 40.185250308634224], [116.93978187087531, 40.18512763573657], [116.93932376175604, 40.18020504069404], [116.94532905926275, 40.173683168438274], [116.95595961016222, 40.17442184287033], [116.95516787838116, 40.17081207636243], [116.96264835953923, 40.16235335548913], [116.96594144269227, 40.155151840167456], [116.97162804604203, 40.15021033539097], [116.96392238544497, 40.13917865050272], [116.96173611190774, 40.12871309321923], [116.95969504283573, 40.12669222945561], [116.96548731049553, 40.123079195585184], [116.96309232811777, 40.11763772867687], [116.96519674943954, 40.112865822887315], [116.96994607728264, 40.110032639945544], [116.96721804947651, 40.102564441985244], [116.96188616945676, 40.100080148957154], [116.96934358290335, 40.093898504120645], [116.97380131517377, 40.092702507556645], [116.97571773902942, 40.08865847272596], [116.97505162374289, 40.08032291166754], [116.98011230777074, 40.07717778315753], [116.97669800295643, 40.06951400379062], [116.97467851073382, 40.070022622860044], [116.97247155388813, 40.06373409308519], [116.96736919059136, 40.065158641652324], [116.96455661691132, 40.06266703060835], [116.95622382687269, 40.062411158154376], [116.95587062023073, 40.05024166877236]]]]}}