{"type": "Feature", "properties": {"unit_id": "beijing_110109", "name": "门头沟区", "district_codes": [110109]}, "geometry": {"type": "MultiPolygon", "coordinates": [[[[116.14531879517149, 39.99208323882228], [116.14827380826982, 39.995920888697654], [116.15542339246045, 39.99864503508259], [116.16590943196798, 39.99931410202349], [116.16913783473866, 40.005085878740154], [116.15854610973734, 40.01299098701846], [116.15770748699454, 40.01545736610407], [116.15106003338282, 40.01968352297564], [116.14300841160977, 40.020790341769526], [116.13380639834557, 40.02735279796503], [116.12324557662451, 40.02971047305613], [116.11727627994053, 40.02826029877767], [116.1081887245496, 40.03159973811089], [116.09914806331622, 40.03080176368698], [116.09205573333959, 40.03240958340792], [116.08873099063162, 40.030381875516575], [116.07790352120563, 40.02951224622602], [116.07184370014173, 40.031369545235485], [116.06879329019434, 40.03853201171262], [116.06173383477032, 40.0505527518162], [116.06480181404561, 40.06065840881019], [116.0586630547703, 40.06608701138284], [116.05770207185859, 40.07165435890999], [116.04828879287835, 40.07688046579608], [116.04503367223072, 40.083002180182504], [116.04259259748706, 40.083965688081435], [116.03750321320237, 40.082177031635474], [116.03164367413854, 40.08321395128649], [116.02768314344286, 40.078357900419725], [116.02468010303761, 40.08089702090922], [116.01465557016954, 40.07331736622342], [116.00162818422588, 40.07939114957011], [115.99898141185228, 40.07858825011625], [115.99122872582738, 40.08088257834812], [115.98034878951064, 40.082309611659646], [115.97392831838657, 40.08052786768709], [115.97117601998711, 40.07790756344391], [115.96254416417172, 40.07437719139926], [115.96056133458632, 40.08344944993178], [115.95444869465582, 40.09136310882128], [115.95607551998306, 40.09332230230814], [115.95653340665383, 40.1012516631474], [115.95144262896572, 40.09959203835739], [115.95071283186043, 40.094955923712064], [115.9466847420731, 40.09994270103751], [115.93724926257174, 40.102278178268215], [115.94192500205011, 40.106340047064805], [115.92761783649674, 40.12377461131606], [115.91547452897726, 40.133445588757816], [115.90058301999207, 40.137145536459435], [115.89848996661772, 40.135087554643654], [115.89447145200779, 40.13767943185867], [115.8756031954834, 40.13802365114605], [115.86814270337197, 40.14281163543728], [115.86474815322282, 40.143213150163916], [115.8591503701916, 40.14756369846683], [115.85049121842177, 40.146383023472225], [115.8472832685495, 40.14824136325713], [115.84029993970854, 40.1459931952878], [115.82811413238335, 40.14911427296138], [115.82964522178752, 40.144303638244494], [115.8229119622995, 40.1488455711209], [115.81611703292323, 40.15145776901017], [115.80036927392625, 40.15207869890757], [115.79588174712903, 40.15557143404032], [115.78359922910371, 40.167738736022685], [115.78068647288848, 40.16921031558312], [115.78076956726163, 40.17750339376496], [115.76675715660457, 40.17498090413924], [115.76194314974225, 40.16433569947366], [115.75593741370291, 40.16140114809983], [115.74804935106823, 40.16203266184833], [115.74326077106495, 40.15177768794605], [115.74857379894584, 40.144241528587756], [115.74296971154651, 40.13649532108704], [115.73483661656225, 40.131004419454335], [115.72785554579453, 40.12817266302659], [115.71857876147567, 40.12761489712089], [115.70963935627593, 40.13219682341814], [115.70245628148986, 40.13311539558841], [115.69352136153617, 40.13123339317439], [115.69853157162196, 40.128486145854204], [115.7047951859501, 40.127762285528476], [115.70581884689659, 40.12571893207064], [115.6959434017477, 40.127031613767706], [115.69099690504856, 40.12556435531601], [115.68688436293915, 40.130775309728264], [115.68079104645312, 40.1293927892045], [115.67500998842215, 40.131543599541615], [115.67248559700272, 40.129813602493336], [115.65159642123064, 40.127015867115055], [115.64867363267365, 40.1301986438884], [115.63846616022586, 40.1255784414894], [115.63577311174095, 40.11976286603575], [115.63761067232693, 40.11645250003743], [115.62984314154404, 40.11474519816954], [115.62537332008344, 40.1168092762462], [115.61895982575797, 40.11525876825378], [115.61530227651754, 40.11767752574411], [115.61014024373385, 40.11610796300589], [115.60089738117382, 40.119029915598894], [115.59303198042707, 40.11898075388704], [115.58876367488892, 40.115250831538894], [115.58834626001648, 40.10795426344786], [115.58631537639926, 40.109153252555814], [115.58462147224583, 40.095368407004074], [115.57794264150601, 40.09385569052291], [115.5724339307417, 40.09532610254589], [115.57008722280345, 40.09978303026511], [115.56164334392909, 40.09548953766492], [115.55728270814187, 40.0968611819752], [115.54757386324536, 40.090581856482096], [115.54931610213603, 40.08155110316493], [115.54600271199732, 40.07817034306887], [115.53807278520499, 40.07481037570388], [115.53167238871029, 40.07665922877581], [115.52107221310204, 40.07492764208981], [115.50864428542026, 40.065757189635235], [115.50337416110764, 40.064281577970085], [115.50410947060705, 40.061719927401434], [115.49459927970439, 40.05125706856387], [115.48191888568134, 40.04487422813171], [115.48259079056089, 40.04249027798009], [115.4721175119914, 40.03488053982415], [115.46194006961818, 40.0305857699241], [115.45415795998741, 40.030843889552095], [115.44801318850222, 40.02836333190444], [115.4455620471925, 40.01944507544546], [115.43562798863837, 40.00952398054842], [115.43627775170717, 40.0059850932202], [115.44267146304703, 40.00063568252268], [115.44382536557968, 39.99190008905614], [115.43736965087915, 39.99328627803213], [115.43026672748317, 39.99005956581112], [115.4219537258426, 39.982952105194265], [115.42107533999612, 39.978094552503926], [115.41684832508754, 39.968439827903374], [115.42036540535038, 39.9639255277764], [115.41718447903385, 39.95431859061165], [115.41959253622574, 39.94897350206747], [115.4292253191327, 39.94955188940966], [115.43192768265003, 39.95119619772666], [115.43806677394025, 39.95000305852141], [115.44051945502622, 39.9474551151759], [115.44580213437129, 39.94684647667874], [115.4502894572411, 39.94293839478867], [115.45798746280849, 39.93882624743554], [115.46593847044356, 39.937463501271374], [115.47427132716446, 39.93457552992251], [115.48088468214192, 39.92257944220254], [115.48863267140268, 39.9167151286592], [115.49753464425585, 39.91461167822557], [115.51387209891865, 39.90138980662012], [115.5167699757583, 39.89777036422688], [115.5027256824683, 39.88297463078367], [115.50373410258084, 39.88029377644039], [115.51039003727986, 39.87923961622434], [115.52006873759844, 39.87451688123204], [115.52296578268262, 39.87481799099146], [115.52111950808602, 39.86872714082812], [115.51568259224622, 39.867035709214434], [115.51612451689445, 39.857630493979855], [115.50968034074933, 39.84651128396709], [115.50470464499072, 39.843908647200635], [115.50823271371685, 39.83717956730544], [115.52028466268605, 39.83410578874761], [115.52427351415356, 39.8287922685255], [115.52876504577843, 39.829602374990316], [115.54024434689086, 39.824909525873345], [115.54188103636135, 39.82162455860885], [115.55736005322171, 39.815370487891656], [115.56318712586076, 39.81223722225505], [115.57129627534194, 39.81151514951594], [115.5812658760508, 39.81274549281631], [115.5851174741599, 39.81751959955972], [115.59060060582814, 39.82048573036213], [115.59327723455574, 39.82813885838446], [115.59848648449439, 39.833430868685156], [115.60153910227679, 39.83987711783616], [115.60703821646872, 39.84274031908907], [115.61031843477092, 39.85652494638905], [115.61591862355714, 39.862249961009695], [115.61704735710808, 39.86592687776789], [115.62492343517113, 39.87094713735423], [115.63394591808267, 39.870513054692985], [115.63862220104886, 39.87491614326983], [115.64277731783851, 39.87435676612278], [115.64876758541469, 39.881440518190736], [115.66141414683536, 39.882800642172946], [115.66492052153049, 39.88487591797507], [115.6719944073803, 39.8854483556427], [115.67639624041982, 39.891930614779305], [115.68311580491371, 39.89505774569314], [115.68559929810029, 39.89856597142236], [115.70296551611436, 39.90395288144195], [115.71336440130794, 39.90343303654618], [115.71539061333064, 39.90564238062787], [115.7250208275993, 39.90667287695549], [115.74264205304881, 39.91399659927756], [115.74337378171595, 39.91645128667102], [115.7552357346321, 39.919784567200026], [115.7631470050771, 39.92403095329798], [115.76802530406316, 39.91939986873584], [115.78664789169694, 39.919677699407366], [115.79115346842988, 39.92098454433443], [115.80067156182339, 39.91849476923022], [115.80492831216834, 39.91263095240216], [115.81266532890383, 39.91280732053847], [115.8208028941769, 39.90945528668162], [115.82902618206383, 39.89847612769326], [115.83269675015065, 39.899540947224104], [115.83919897999911, 39.89595812907246], [115.85488333152446, 39.900295002893714], [115.86232512485667, 39.90451906437014], [115.86712413521052, 39.91143728051428], [115.87286557148254, 39.91492404703924], [115.88415661615963, 39.91625138618169], [115.89799496380263, 39.91300561030556], [115.9219185256094, 39.91322460730752], [115.92992089850485, 39.91671174385769], [115.93520519429465, 39.91646047094426], [115.93973700989417, 39.90991656701688], [115.93900732930423, 39.90079317776137], [115.92986035967809, 39.897195666153905], [115.91592317885193, 39.88313762359576], [115.92150545742093, 39.87516172928679], [115.94387456506287, 39.870217147149674], [115.94817460039309, 39.8657171126538], [115.95533135657553, 39.866792798099105], [115.96181832892847, 39.87095928044216], [115.9627363937628, 39.86661223933633], [115.97053513543092, 39.86712901802874], [115.9702427257494, 39.86937568495732], [115.9841053736146, 39.87517728676285], [115.99114992007028, 39.87398538635568], [115.98679556013492, 39.86618780896983], [115.98072984789901, 39.86355272475248], [115.98210697950695, 39.858683000323204], [115.97823079651111, 39.847968771055584], [115.98521419684127, 39.8390600547873], [116.00176179484099, 39.848256626774145], [116.01053587170186, 39.84798612512243], [116.01220421762416, 39.84028161010186], [116.01485148218795, 39.83941081656448], [116.02410619093753, 39.842183978166865], [116.02687829318677, 39.8446181385314], [116.0355739414147, 39.843569218846795], [116.03957776203552, 39.846001162667996], [116.0483812820071, 39.84461420988039], [116.05027941901983, 39.84960693621457], [116.06468171794232, 39.852348070006364], [116.06388803519584, 39.85905489033062], [116.06104782901102, 39.864397106578934], [116.06415860617696, 39.86707704385325], [116.07201138132683, 39.86893834316098], [116.08085081925243, 39.864763856882746], [116.089504859226, 39.867638572194856], [116.09782945488676, 39.867441813700836], [116.09910556749692, 39.87115161942965], [116.10592714609427, 39.87185277193349], [116.11342159365844, 39.87608609688461], [116.11959923549804, 39.87656264731398], [116.12538055853648, 39.87988701927296], [116.14134887280427, 39.88392654719418], [116.14472425605794, 39.882695838272326], [116.14990180933266, 39.887682076405994], [116.15713643062325, 39.88554676729325], [116.16082737254418, 39.887424352227505], [116.15487101614767, 39.89546628270601], [116.14725948013043, 39.89963313622259], [116.14654595088832, 39.90527572337994], [116.1405909125427, 39.908714279487505], [116.13300233877429, 39.920721169435446], [116.12399255265656, 39.92313365334258], [116.12103829473014, 39.9252277339486], [116.12151960414006, 39.9289510234318], [116.11846120261843, 39.93351718023037], [116.11356068607537, 39.93136772947108], [116.10562595082939, 39.94152360369397], [116.10819952006099, 39.94779928258036], [116.11372658329563, 39.94939511954512], [116.108931160975, 39.956348260624324], [116.11439511095011, 39.95979614470827], [116.11665637561961, 39.966168485555244], [116.11026876148304, 39.970535332008225], [116.10712733244182, 39.98011958902046], [116.1126116542561, 39.98471903883343], [116.13840169698304, 39.987816885447565], [116.14531879517149, 39.99208323882228]]]]}}