{"type": "Feature", "properties": {"unit_id": "beijing_110108", "name": "海淀区", "district_codes": [110108]}, "geometry": {"type": "MultiPolygon", "coordinates": [[[[116.31968561016436, 39.895494082302775], [116.33116135958005, 39.896073108773095], [116.3292206803911, 39.89713478228937], [116.32850826808877, 39.92135110120881], [116.32692090808794, 39.937254501475344], [116.32182904811438, 39.94106809163537], [116.3267535955847, 39.94278160243594], [116.33528729591677, 39.940652353860344], [116.34624165292215, 39.94248498462923], [116.34584362311517, 39.94950742061716], [116.35001860662749, 39.942738319517055], [116.36575637750106, 39.94721547045414], [116.36416658165662, 39.96652492938412], [116.37416834343504, 39.96678818586527], [116.37466910643627, 39.9713214504161], [116.37496105561135, 39.976584919987374], [116.3703235779644, 39.991584718040166], [116.3446865170335, 40.0253523217252], [116.3724696110904, 40.02979040986935], [116.38884741713653, 40.03144881218427], [116.38399866951819, 40.03518489109604], [116.38439571986737, 40.039876348695564], [116.37894195336764, 40.04145492411204], [116.37065073678369, 40.04136700809777], [116.36987753717347, 40.044077825300164], [116.36336387855444, 40.0455805340219], [116.36117092285637, 40.05205939949304], [116.36676624465608, 40.0529593861456], [116.36603498578734, 40.05646617899487], [116.37302927662596, 40.057609276426234], [116.37660030272302, 40.06018521326101], [116.37568082963456, 40.06500589197404], [116.36711923496664, 40.06423725595272], [116.36630419274243, 40.06704518356598], [116.35693183865058, 40.067594047699224], [116.3568064673246, 40.06456043319224], [116.35108789003252, 40.06465090963006], [116.34048811383941, 40.0623170598419], [116.34078086883422, 40.05908770634286], [116.33650362942971, 40.058300774273164], [116.33719259424207, 40.05411271244694], [116.3341046852336, 40.053761590369895], [116.33266450253065, 40.057594120319806], [116.32461044388167, 40.06207130131866], [116.32565384024548, 40.05585466461018], [116.31981243125327, 40.053496939364095], [116.31217440549842, 40.0603747551202], [116.30334671937176, 40.05933633724562], [116.2999020057181, 40.06177588797857], [116.29685484039624, 40.05954085378676], [116.28428269432128, 40.08189899777965], [116.27383875431148, 40.078519323247896], [116.2670450883626, 40.091468703630134], [116.2672745967246, 40.09433934309737], [116.25918481156145, 40.09346759985009], [116.25222002299098, 40.10029675086789], [116.25784584563638, 40.10279335839666], [116.25728008119081, 40.109361011490925], [116.25196767299997, 40.11072395176492], [116.2535165213294, 40.105681161442114], [116.24981410709127, 40.10324867100075], [116.24667669769329, 40.10529137379069], [116.23989665673507, 40.10412290106441], [116.23443328765717, 40.10677918677934], [116.23730045205713, 40.11205020976884], [116.23577135218122, 40.11717304289795], [116.23897421984452, 40.11759645082346], [116.24098061109218, 40.13497458476784], [116.22770852945374, 40.13534012280045], [116.20933526182735, 40.141916482946485], [116.20610755260694, 40.13928623378909], [116.20015436796795, 40.14182101197893], [116.19952494492351, 40.14890229163047], [116.19707143468543, 40.152495962374644], [116.19602288593603, 40.159704448417344], [116.18811834035678, 40.15878299160141], [116.18589587751515, 40.15437251026], [116.1765004117052, 40.15678498465576], [116.17690014790732, 40.15202224771774], [116.17421632265228, 40.14597286867148], [116.16790386816803, 40.1422664266997], [116.16144487957257, 40.14050363999763], [116.16238934287557, 40.134103996368275], [116.16555722266172, 40.12660455216566], [116.16117383538759, 40.12711541920014], [116.16333438702773, 40.12322873864824], [116.1464341652323, 40.120411389645334], [116.12660699048367, 40.11996205628974], [116.12589548023425, 40.11368681809722], [116.12134939167159, 40.11499617623432], [116.10696387967621, 40.114191932789616], [116.09951315826525, 40.11660620401876], [116.09589390464392, 40.114579498439795], [116.08970235830746, 40.11985060418771], [116.08343098967154, 40.11792409834412], [116.0781008362789, 40.11885323836023], [116.07154040237704, 40.11365561245339], [116.06750917812282, 40.114049775246194], [116.06634054375537, 40.10787391735291], [116.06312579933686, 40.10353306017434], [116.05661225602637, 40.1014522466245], [116.0556525081962, 40.09819426119917], [116.04960149540945, 40.095076437109526], [116.04555447468356, 40.09031650766168], [116.04259259748706, 40.083965688081435], [116.04503367223072, 40.083002180182504], [116.04828879287835, 40.07688046579608], [116.05770207185859, 40.07165435890999], [116.0586630547703, 40.06608701138284], [116.06480181404561, 40.06065840881019], [116.06173383477032, 40.0505527518162], [116.06879329019434, 40.03853201171262], [116.07184370014173, 40.031369545235485], [116.07790352120563, 40.02951224622602], [116.08873099063162, 40.030381875516575], [116.09205573333959, 40.03240958340792], [116.09914806331622, 40.03080176368698], [116.1081887245496, 40.03159973811089], [116.11727627994053, 40.02826029877767], [116.12324557662451, 40.02971047305613], [116.13380639834557, 40.02735279796503], [116.14300841160977, 40.020790341769526], [116.15106003338282, 40.01968352297564], [116.15770748699454, 40.01545736610407], [116.15854610973734, 40.01299098701846], [116.16913783473866, 40.005085878740154], [116.16590943196798, 39.99931410202349], [116.15542339246045, 39.99864503508259], [116.14827380826982, 39.995920888697654], [116.14531879517149, 39.99208323882228], [116.14986898136527, 39.98778589076398], [116.15188191322235, 39.982785518378016], [116.16062627786907, 39.986228905063925], [116.1630179992154, 39.978029623503275], [116.16528266476278, 39.975677908277525], [116.17182552110998, 39.980904923205635], [116.17272630430506, 39.98698236432843], [116.18042353462097, 39.98261088660883], [116.17914471032586, 39.97667876002003], [116.17964909433407, 39.96897800033853], [116.18453588243726, 39.966972035648176], [116.18459841836474, 39.96408026291317], [116.19499951412911, 39.95984060112659], [116.20674004827298, 39.94770231740429], [116.20938141487602, 39.94250419232276], [116.21019905582848, 39.93514158480449], [116.20709780355425, 39.93198344986746], [116.21011652748854, 39.92998868202484], [116.20697307237012, 39.92764244907479], [116.20961398803021, 39.9258581752503], [116.20160717957299, 39.924643626915966], [116.20068614297236, 39.91540558198999], [116.22484557985013, 39.918297692107075], [116.22637513994057, 39.91571412577678], [116.23165185309465, 39.91723001942229], [116.24494214443196, 39.918617488263145], [116.24695164581875, 39.91434193100745], [116.24695395786318, 39.89573574847858], [116.25306169008836, 39.895442621483014], [116.26017134865357, 39.895034701404924], [116.28892144306016, 39.895252673933584], [116.2889635829452, 39.88559006987797], [116.29673020348702, 39.8906705183311], [116.3079380377317, 39.895498650147466], [116.31968561016436, 39.895494082302775]]]]}}