{"type": "Feature", "properties": {"unit_id": "beijing_urban", "name": "全部市辖区联合区域", "district_codes": [110101, 110102, 110105, 110106, 110107, 110108, 110109, 110111, 110112, 110113, 110114, 110115, 110116, 110117, 110118, 110119]}, "geometry": {"type": "Polygon", "coordinates": [[[116.20204948720196, 39.57651490066152], [116.20018238335844, 39.58200162408948], [116.19565386453652, 39.5851475259915], [116.19030813490593, 39.58486049269272], [116.19076898717817, 39.587752587715876], [116.18447834645741, 39.58614079940849], [116.1846666102257, 39.58815065076223], [116.17831288094888, 39.589657612465466], [116.17093125083852, 39.588745030289026], [116.1707843492818, 39.584628759767035], [116.15935568317593, 39.582271175512574], [116.14558035673893, 39.58210051540037], [116.14340127841112, 39.57177168534152], [116.13254387780607, 39.56971373079945], [116.13218840923645, 39.56755684078811], [116.1241210883513, 39.56640389796569], [116.12405876310112, 39.568119384262864], [116.11526199090468, 39.56920656497893], [116.11519835489123, 39.573568392773794], [116.11036156828125, 39.57265073994757], [116.10751507307421, 39.56931634118677], [116.10000140640109, 39.56962555295506], [116.0995194440698, 39.57521308632659], [116.09508425775194, 39.57869343222335], [116.09573293806447, 39.574788334803806], [116.09253337589662, 39.573792201388564], [116.03304245595, 39.57068077082167], [116.02678792616847, 39.571056408633794], [116.02668295897735, 39.57336110302863], [116.01861528099018, 39.574380654864115], [116.02007310514009, 39.586171498864935], [116.01452839448366, 39.58476701046916], [116.00792131073428, 39.58687722756806], [116.00758806518125, 39.581846470936064], [116.00448363520029, 39.58183986370355], [116.00152446927304, 39.57603230891365], [115.98914460954414, 39.57593979645664], [115.99089496291259, 39.582061008956174], [115.98468329729883, 39.58534669246299], [115.98495350737743, 39.59266412751793], [115.9724449402039, 39.59459430377046], [115.9710905817748, 39.58984411578348], [115.97215660119517, 39.571756738153105], [115.96859038464049, 39.56975682559702], [115.96293921268091, 39.56993428659526], [115.96162650843347, 39.56354821002157], [115.95745413624219, 39.56445693592615], [115.95161350289963, 39.55989516624562], [115.94904646452487, 39.56506413070977], [115.94449656630626, 39.565350933677784], [115.94322210373089, 39.5722804707611], [115.93716808951524, 39.57366337730812], [115.9372716039034, 39.57637552262369], [115.93202983825437, 39.576465187649006], [115.93219611996064, 39.580695897021194], [115.92906374238223, 39.580814924525505], [115.92826882159937, 39.587072343760966], [115.92408940016853, 39.58893949145084], [115.92431880076529, 39.59238543132113], [115.91827955146317, 39.59284865866261], [115.91786032105982, 39.59629515342793], [115.90659027246565, 39.59816208150656], [115.90428840807415, 39.599845086902135], [115.90090119373939, 39.58903180356975], [115.9037677317546, 39.58730012250639], [115.90284687017515, 39.583037240175116], [115.90970863749617, 39.581974064984884], [115.90588211483336, 39.57320134120821], [115.90686550628232, 39.5718614759674], [115.90197053604683, 39.56589765407019], [115.89010354271996, 39.5689340692733], [115.88411510978119, 39.5668880037519], [115.88750840838486, 39.56089381036407], [115.88715263877818, 39.555239133703736], [115.88283872367167, 39.55463135060292], [115.88177170111287, 39.549677884599284], [115.8776659131577, 39.55011614802275], [115.87703817749525, 39.54712438194689], [115.86735705905153, 39.547832202170966], [115.86637224687173, 39.545101695242565], [115.86039848995733, 39.54535529894854], [115.86008331056992, 39.54883585271529], [115.85605854303923, 39.547538078580885], [115.84949565484658, 39.553967554823195], [115.84536496052466, 39.549416681235435], [115.84154832849592, 39.54924592909958], [115.84001785439011, 39.54224813914482], [115.83613898131567, 39.540524516512555], [115.8226319043944, 39.540238366920526], [115.82233877768161, 39.53438552735299], [115.81824920427069, 39.53313532973496], [115.81667719202089, 39.5294545472478], [115.81313321347878, 39.52967707869682], [115.8137205689335, 39.52384089256217], [115.8180410626029, 39.52133150572544], [115.81837746665427, 39.517702245079526], [115.81367924038224, 39.51744778701345], [115.81607049149505, 39.51307047763034], [115.8234327036288, 39.511824459053614], [115.8226361204185, 39.505984839727354], [115.81537911394278, 39.50842469879424], [115.78653193476156, 39.509621947321385], [115.77884226126164, 39.50922137977475], [115.77174142006538, 39.51269791212175], [115.77035959797813, 39.51158522361415], [115.76123049341105, 39.51471906742749], [115.76464364528321, 39.50983119239448], [115.7625496654166, 39.507737841505275], [115.75913772582618, 39.513704630167645], [115.75325667150568, 39.51277167762071], [115.74631076434778, 39.51430840595063], [115.73773529608928, 39.525625686632296], [115.73528775079063, 39.53514214017184], [115.73259141084294, 39.53816793121123], [115.73292450993681, 39.54421497081541], [115.72057397741645, 39.547004938024074], [115.7207623204124, 39.54277093845636], [115.71541517222764, 39.54236821654984], [115.71403545247104, 39.553614785482424], [115.71092280192548, 39.55927334068448], [115.70398972105873, 39.561898680014785], [115.69257065372831, 39.562146471323956], [115.6859332883578, 39.56469075248262], [115.6882492316773, 39.568314562118395], [115.6924439827697, 39.56948275947713], [115.69175421697041, 39.57814375814326], [115.68728778083432, 39.57923051903541], [115.68808028752052, 39.586678233102596], [115.68313260208558, 39.59184911670881], [115.68315280552073, 39.597941641339034], [115.67918743125104, 39.602588044049824], [115.66716623914222, 39.60746094986436], [115.66138554275571, 39.614200417547025], [115.66149001875758, 39.60858246090991], [115.65921624810494, 39.60427567588154], [115.65120188458927, 39.59904736730849], [115.64420970522045, 39.599973964260265], [115.63752911511487, 39.59792575855243], [115.63554462442595, 39.602322594613995], [115.62865306206506, 39.60287050994917], [115.6265233868691, 39.59669843875264], [115.61992192686037, 39.598403827737535], [115.61241860588619, 39.603081545462175], [115.60648214183887, 39.600144240243175], [115.59926741897745, 39.599052185649384], [115.59376550723621, 39.59988476694084], [115.59269933950283, 39.596781290333965], [115.58642094782762, 39.595668349017636], [115.58007897976263, 39.588428050832846], [115.56581302718327, 39.59056894124867], [115.56782443521539, 39.5955534921932], [115.56120201583352, 39.59861412977512], [115.55849688610432, 39.60460429409402], [115.5484104290088, 39.608373316219], [115.54576700994224, 39.61302266250037], [115.5398508191387, 39.61769522005255], [115.53296881694243, 39.615212810685875], [115.52709230343697, 39.61034743253216], [115.52772296824307, 39.60752375744417], [115.52440639853977, 39.60178204627472], [115.51802554280127, 39.59782803595862], [115.51208444049468, 39.59603022345241], [115.51261003419799, 39.59194873060009], [115.50971274826111, 39.59006165377248], [115.50586860066393, 39.603982981925405], [115.50811355908614, 39.61236678791528], [115.51720467582636, 39.619267898542], [115.51548270431982, 39.62118952241696], [115.51420027290345, 39.63228850565095], [115.51623645008155, 39.638841108180145], [115.50962211749814, 39.640094517858145], [115.50523311586097, 39.64323186733741], [115.50042475853073, 39.650955027247726], [115.49045068974088, 39.651349196323764], [115.48833071574671, 39.64802956331272], [115.4721251733467, 39.649077571235345], [115.47157872120027, 39.652960392225964], [115.47621647853981, 39.66178540494543], [115.4849901498307, 39.66747331717544], [115.48037076531325, 39.67212726802593], [115.48337268941565, 39.676785082150005], [115.48242758551633, 39.68038878164636], [115.4880739814445, 39.68526640773926], [115.49006897952802, 39.684456411770554], [115.49346983131753, 39.6900786307745], [115.49294410527651, 39.694987325666276], [115.48628802540843, 39.700496886629736], [115.48389473561492, 39.70017998407218], [115.48706333413213, 39.70627332934135], [115.48487886702495, 39.71349097173664], [115.48250431860137, 39.73192575853408], [115.48575822594361, 39.73764148185652], [115.47593329074843, 39.74121615320871], [115.46413874612034, 39.741103187329436], [115.46027844730752, 39.739154057673346], [115.45125897352023, 39.743600500770334], [115.43264500208967, 39.75132771889631], [115.42788859986702, 39.76250167596511], [115.42889238064627, 39.76858122861704], [115.42438951757104, 39.77071117649055], [115.4204960805006, 39.76840993460663], [115.41867370596773, 39.77199319953674], [115.42464037467929, 39.77439407216552], [115.42755069233552, 39.78091453275841], [115.43687286912484, 39.78429851102657], [115.44626389708426, 39.78063284234213], [115.4512962704704, 39.78082179286251], [115.46944153258842, 39.79054178027643], [115.47684949925566, 39.7974192035052], [115.48602397679885, 39.79482356766645], [115.49100029092459, 39.78986961373775], [115.50242315982592, 39.78289833662929], [115.5075462356066, 39.78752421758614], [115.53009268877898, 39.79102578412236], [115.53326061760266, 39.793656763176735], [115.54874434952416, 39.79453963437227], [115.55618766936814, 39.802665373299206], [115.560485071488, 39.803568646498476], [115.5602739348792, 39.80874690379236], [115.56318712586076, 39.81223722225505], [115.55736005322171, 39.815370487891656], [115.54188103636135, 39.82162455860885], [115.54024434689086, 39.824909525873345], [115.52876504577843, 39.829602374990316], [115.52427351415356, 39.8287922685255], [115.52028466268605, 39.83410578874761], [115.50823271371685, 39.83717956730544], [115.50470464499072, 39.843908647200635], [115.50968034074933, 39.84651128396709], [115.51612451689445, 39.857630493979855], [115.51568259224622, 39.867035709214434], [115.52111950808602, 39.86872714082812], [115.52296578268262, 39.87481799099146], [115.52006873759844, 39.87451688123204], [115.51039003727986, 39.87923961622434], [115.50373410258084, 39.88029377644039], [115.5027256824683, 39.88297463078367], [115.5167699757583, 39.89777036422688], [115.51387209891865, 39.90138980662012], [115.49753464425585, 39.91461167822557], [115.48863267140268, 39.9167151286592], [115.48088468214192, 39.92257944220254], [115.47427132716446, 39.93457552992251], [115.46593847044356, 39.937463501271374], [115.45798746280849, 39.93882624743554], [115.4502894572411, 39.94293839478867], [115.44580213437129, 39.94684647667874], [115.44051945502622, 39.9474551151759], [115.43806677394025, 39.95000305852141], [115.43192768265003, 39.95119619772666], [115.4292253191327, 39.94955188940966], [115.41959253622574, 39.94897350206747], [115.41718447903385, 39.95431859061165], [115.42036540535038, 39.9639255277764], [115.41684832508754, 39.968439827903374], [115.42107533999612, 39.978094552503926], [115.4219537258426, 39.982952105194265], [115.43026672748317, 39.99005956581112], [115.43736965087915, 39.99328627803213], [115.44382536557968, 39.99190008905614], [115.44267146304703, 40.00063568252268], [115.43627775170717, 40.0059850932202], [115.43562798863837, 40.00952398054842], [115.4455620471925, 40.01944507544546], [115.44801318850222, 40.02836333190444], [115.45415795998741, 40.030843889552095], [115.46194006961818, 40.0305857699241], [115.4721175119914, 40.03488053982415], [115.48259079056089, 40.04249027798009], [115.48191888568134, 40.04487422813171], [115.49459927970439, 40.05125706856387], [115.50410947060705, 40.061719927401434], [115.50337416110764, 40.064281577970085], [115.50864428542026, 40.065757189635235], [115.52107221310204, 40.07492764208981], [115.53167238871029, 40.07665922877581], [115.53807278520499, 40.07481037570388], [115.54600271199732, 40.07817034306887], [115.54931610213603, 40.08155110316493], [115.54757386324536, 40.090581856482096], [115.55728270814187, 40.0968611819752], [115.56164334392909, 40.09548953766492], [115.57008722280345, 40.09978303026511], [115.5724339307417, 40.09532610254589], [115.57794264150601, 40.09385569052291], [115.58462147224583, 40.095368407004074], [115.58631537639926, 40.109153252555814], [115.58834626001648, 40.10795426344786], [115.58876367488892, 40.115250831538894], [115.59303198042707, 40.11898075388704], [115.60089738117382, 40.119029915598894], [115.61014024373385, 40.11610796300589], [115.61530227651754, 40.11767752574411], [115.61895982575797, 40.11525876825378], [115.62537332008344, 40.1168092762462], [115.62984314154404, 40.11474519816954], [115.63761067232693, 40.11645250003743], [115.63577311174095, 40.11976286603575], [115.63846616022586, 40.1255784414894], [115.64867363267365, 40.1301986438884], [115.65159642123064, 40.127015867115055], [115.67248559700272, 40.129813602493336], [115.67500998842215, 40.131543599541615], [115.68079104645312, 40.1293927892045], [115.68688436293915, 40.130775309728264], [115.69099690504856, 40.12556435531601], [115.6959434017477, 40.127031613767706], [115.70581884689659, 40.12571893207064], [115.7047951859501, 40.127762285528476], [115.69853157162196, 40.128486145854204], [115.69352136153617, 40.13123339317439], [115.70245628148986, 40.13311539558841], [115.70963935627593, 40.13219682341814], [115.71857876147567, 40.12761489712089], [115.72785554579453, 40.12817266302659], [115.73483661656225, 40.131004419454335], [115.74296971154651, 40.13649532108704], [115.74857379894584, 40.144241528587756], [115.74326077106495, 40.15177768794605], [115.74804935106823, 40.16203266184833], [115.75593741370291, 40.16140114809983], [115.76194314974225, 40.16433569947366], [115.76675715660457, 40.17498090413924], [115.78076956726163, 40.17750339376496], [115.78068647288848, 40.16921031558312], [115.78359922910371, 40.167738736022685], [115.79588174712903, 40.15557143404032], [115.80036927392625, 40.15207869890757], [115.81611703292323, 40.15145776901017], [115.8229119622995, 40.1488455711209], [115.82964522178752, 40.144303638244494], [115.82811413238335, 40.14911427296138], [115.84029993970854, 40.1459931952878], [115.8472832685495, 40.14824136325713], [115.84749223833325, 40.153071212991975], [115.840674994695, 40.1620671364393], [115.83832564869903, 40.16690729522842], [115.84077950404935, 40.168353596489915], [115.84813878255447, 40.17884631993067], [115.84201521480809, 40.18273904808036], [115.84943820026004, 40.187773380850324], [115.85702841668197, 40.185016082720274], [115.86428188205632, 40.18501068841968], [115.86767561874376, 40.191622294597494], [115.87031604887744, 40.19285638660708], [115.87130019636434, 40.1997875782616], [115.88032899620212, 40.205609895065216], [115.87716625371108, 40.20853756763468], [115.87907224559866, 40.21098398372183], [115.87710232804504, 40.215061509260565], [115.88537426677821, 40.22432684144565], [115.8860027814932, 40.227094797910105], [115.8924916717285, 40.233459069182146], [115.89209402718795, 40.23536858332697], [115.90071720323083, 40.23307187234097], [115.9059893142281, 40.233428385570335], [115.91065190048636, 40.24133959319707], [115.91100731082685, 40.24601559847461], [115.92983724533617, 40.25451011347191], [115.93670842598664, 40.252477822451546], [115.94426518449482, 40.25507042899265], [115.95396935539642, 40.255535571673434], [115.95955911510798, 40.25828917302193], [115.9628327789179, 40.26313422998302], [115.9609556656814, 40.2644815773941], [115.95557392875588, 40.26810048585166], [115.95419652985012, 40.27379738823925], [115.94918860322004, 40.27587761760802], [115.94568120701491, 40.280914466681914], [115.94407341862318, 40.28812889141991], [115.9401075592569, 40.287941958891025], [115.93987705280072, 40.29510570877162], [115.93375730311391, 40.303311296202864], [115.93780757286585, 40.3098515602203], [115.93118750606824, 40.31196270193744], [115.92972475136905, 40.315633659172384], [115.9232482863932, 40.31997276356963], [115.92080312925759, 40.31853637713779], [115.91668435709215, 40.32482590505715], [115.92121962446092, 40.32852338478954], [115.91689240637801, 40.33182288385699], [115.91542818009529, 40.33759225010832], [115.91810388465697, 40.33998075855405], [115.91459143170665, 40.34539554212583], [115.91231091197236, 40.35281158825619], [115.90354717852001, 40.35654496306235], [115.8869912047793, 40.35447319651104], [115.88491810137647, 40.356814155476926], [115.87924243495671, 40.35593691925231], [115.8771474960746, 40.35845520374998], [115.87203486004253, 40.35827185578056], [115.87019075758347, 40.36104785394174], [115.86671163077438, 40.35849128043752], [115.85839009912813, 40.35822159975349], [115.85834766830865, 40.36080574958473], [115.85373587259944, 40.36100845132115], [115.8558530105861, 40.36369200492617], [115.85578876122928, 40.37230020096849], [115.84987570978899, 40.375987356309906], [115.84075350950802, 40.37393700952144], [115.8345026547202, 40.37993258247904], [115.83131429778724, 40.38008758754393], [115.8304120868556, 40.3845094367906], [115.79018797726593, 40.425580220198356], [115.79062722318275, 40.43127561013785], [115.78364848972645, 40.4312188429185], [115.78040068181706, 40.435796436864266], [115.76412655086204, 40.44288074129729], [115.7672457324005, 40.44683488478445], [115.7661778044918, 40.451543303434484], [115.76917173685307, 40.450754526600605], [115.7670983449165, 40.45610794366455], [115.77323304176942, 40.46278752545335], [115.76655303334965, 40.461009536404426], [115.76406078542782, 40.463636043918974], [115.76525311134466, 40.47155322349596], [115.77038310458292, 40.47621543137387], [115.76990075781467, 40.481405752178624], [115.7759106897163, 40.490775357150085], [115.7682240476385, 40.492606461687245], [115.76177504460067, 40.49703492209706], [115.73771658773002, 40.496939755703856], [115.73675523809452, 40.493651782901836], [115.72973004296188, 40.502681051072535], [115.73677377519434, 40.51253771856582], [115.7374630115972, 40.51714509339001], [115.74237553175588, 40.524762293826335], [115.74929825074105, 40.52969053190298], [115.74664075636495, 40.53495708281589], [115.74873287348849, 40.5387088954602], [115.75325208436792, 40.537581549630424], [115.75756279545863, 40.53924146300443], [115.7638617692764, 40.54666792824685], [115.7675891210926, 40.54724971728097], [115.77001689502862, 40.55082543480067], [115.77841537126066, 40.557047276033146], [115.78591640861065, 40.55997003105275], [115.79281202728025, 40.55638909528482], [115.79866100816537, 40.55734723094204], [115.80880886643641, 40.55612458071594], [115.81358995817975, 40.55806494638831], [115.81533039642503, 40.562027903167085], [115.81444925097061, 40.566952579980175], [115.82117824311668, 40.585747203257185], [115.84003371192068, 40.59180072767166], [115.84877869813691, 40.58891986395809], [115.8601428210735, 40.59215613414057], [115.86169325878677, 40.59457196903687], [115.87935865237688, 40.5940301372588], [115.88210286106025, 40.595834383459525], [115.88869776521159, 40.60568489180308], [115.89181715875293, 40.606908634566146], [115.90177777691345, 40.616095043444055], [115.9143485769619, 40.61543279760233], [115.92227038099644, 40.61155023047474], [115.92899829973736, 40.61210564320198], [115.938626515869, 40.60987222545447], [115.94227953021645, 40.60758138246169], [115.94904201961081, 40.60829303744775], [115.96130970968419, 40.604629688482305], [115.9597873739904, 40.599742303151295], [115.96587650677989, 40.601094355300546], [115.96900589016542, 40.58950203842351], [115.97601293294838, 40.57771870943503], [115.98906079619275, 40.57853428326713], [115.98993529118137, 40.58258733688493], [115.99889732918817, 40.582737138572995], [116.0189848072373, 40.605106802985404], [116.02221519933919, 40.60588507566464], [116.02373862686242, 40.59592273135032], [116.02605201290893, 40.59842579798959], [116.0382290304845, 40.60054964489123], [116.04454908243471, 40.60462128616082], [116.0519140133363, 40.60549005483988], [116.05633762629829, 40.60879556882084], [116.06341438885039, 40.608719636658606], [116.06708983730634, 40.610580096557065], [116.07028380820675, 40.61832910815897], [116.07941403720879, 40.62225903155357], [116.08208916253726, 40.625056165138744], [116.09245875776509, 40.62900650691318], [116.0979817766844, 40.62541996397586], [116.11194213705197, 40.62638820184687], [116.1156686763553, 40.62841729870763], [116.11401401946905, 40.63171209905128], [116.10632952963465, 40.639362444745906], [116.10511476848721, 40.64469962905489], [116.10680992238053, 40.64725651217592], [116.11882810304425, 40.652504244265856], [116.13055841090363, 40.666066335810896], [116.13648928393737, 40.6653985365801], [116.14508435962374, 40.66177980809521], [116.15636534160258, 40.66089850201748], [116.16129173234687, 40.67109656276245], [116.16210921378477, 40.67738079606422], [116.16519159487892, 40.68013460558182], [116.16739291068767, 40.687497633444146], [116.16504329978177, 40.69443343825433], [116.16992866068006, 40.69900434413295], [116.17162656366548, 40.706347333066304], [116.17485621040129, 40.71089913608731], [116.17865185274273, 40.71214231983109], [116.18603203470578, 40.72325180674333], [116.1915255953447, 40.725380938306124], [116.19949217063694, 40.731527657790316], [116.19850583784617, 40.73842900163082], [116.2043536427327, 40.74020371338773], [116.20705797971637, 40.738634787419436], [116.2141823278692, 40.74317083075203], [116.21430799029623, 40.74768162104318], [116.2171357749465, 40.75229149700168], [116.2275038316858, 40.75839997214579], [116.22381705662592, 40.76091588256695], [116.22559659159772, 40.76998356768004], [116.22946951397824, 40.77362887143518], [116.22886168044965, 40.78161725798712], [116.23907709699756, 40.78686903653438], [116.24179773865961, 40.79031826512185], [116.25169366867705, 40.7863893121995], [116.25487366698262, 40.781432687908364], [116.26344682389264, 40.77565398971792], [116.26374053688501, 40.769203782919654], [116.26802587467196, 40.764836477830514], [116.26731575034495, 40.76138758216243], [116.2712232449465, 40.76013265681813], [116.27525544700003, 40.76242339697117], [116.28476036789087, 40.762301096967974], [116.29169288879558, 40.75529513495416], [116.29858305076213, 40.7541295902806], [116.30175549997655, 40.75059309414461], [116.30492783235084, 40.753573506364525], [116.30175399738857, 40.76219633932805], [116.30697069734286, 40.76865352981331], [116.31135317685886, 40.77061921954021], [116.32391375472623, 40.77218450279451], [116.3268979813745, 40.77110361108057], [116.33668223293442, 40.77148661302301], [116.34682383708359, 40.76859512914692], [116.35489963062929, 40.77100443112226], [116.36137050760054, 40.76922964010921], [116.36464753026004, 40.770796689923365], [116.37350088273193, 40.770657490978294], [116.3862841843768, 40.776710122041955], [116.39686070981178, 40.776946001789675], [116.40148097555993, 40.77872594382817], [116.40794461266742, 40.77622348358895], [116.41014272844572, 40.767688661445355], [116.41851427675563, 40.765767518736695], [116.42550751069693, 40.76657598296991], [116.43139285184849, 40.765202822920386], [116.43809728560086, 40.76755557679867], [116.44765591345696, 40.764234878955236], [116.45918944728247, 40.77112631256115], [116.45958743200586, 40.77290887556375], [116.45438496661305, 40.78080601979555], [116.45513933382583, 40.7869029400866], [116.45094330145298, 40.79664638230311], [116.4458491368258, 40.79639556731413], [116.44467475947394, 40.800258359542994], [116.43367132946247, 40.807441011667784], [116.43356535364363, 40.81334117964451], [116.43048519387821, 40.81902960872174], [116.41612073830214, 40.821051685795794], [116.40862907614235, 40.82758916653703], [116.40009398213375, 40.83162823748932], [116.39978039588844, 40.836196580764465], [116.39294151574786, 40.848747211179536], [116.38541775391076, 40.8530939068411], [116.38334765077089, 40.860065748188596], [116.3753893068807, 40.86172284746112], [116.36853905872547, 40.86979033766485], [116.36027055954929, 40.874911766736375], [116.35964425601162, 40.87845278725647], [116.35419624330989, 40.883154577917765], [116.3475597663029, 40.88606454399235], [116.33839832502443, 40.89298354478683], [116.33595625974985, 40.89817681268392], [116.32817373150874, 40.90293071125535], [116.32917462797617, 40.90878887255087], [116.32785833726253, 40.91911670810967], [116.33255275164939, 40.924006580560906], [116.33361579434683, 40.92768544285428], [116.34381761373584, 40.93429275185959], [116.35260371866055, 40.93430927989536], [116.35846715715066, 40.94121289955839], [116.36399899125614, 40.941860082577904], [116.37358310863611, 40.93397444277471], [116.37337473384768, 40.93142983304904], [116.37765684195335, 40.92673620682218], [116.3785145898763, 40.921053159369116], [116.38637123735808, 40.911329863549525], [116.38994500610754, 40.90947026051632], [116.39216149595467, 40.9042335719927], [116.39839053823184, 40.90394385772269], [116.40734321525187, 40.897970979939394], [116.41255248074181, 40.90055152489968], [116.42454729180413, 40.90158422535097], [116.43026540134694, 40.897619883494066], [116.44216691100257, 40.89816609237201], [116.44440998944562, 40.899594870609285], [116.45237674873415, 40.89885813727623], [116.4580617824676, 40.89461121993487], [116.46779593345615, 40.894314225221386], [116.47134129770917, 40.90005670045192], [116.46735232493725, 40.918025181324374], [116.46214863855411, 40.92335870878139], [116.46093098148556, 40.92958152634245], [116.4552456533319, 40.93092932869796], [116.45602158026578, 40.93347589583475], [116.44905784831239, 40.94365456178457], [116.44851287999728, 40.94775000912744], [116.44111136712634, 40.95203982389963], [116.44697994993706, 40.9627852631783], [116.4453864364299, 40.96686179676109], [116.44920057735533, 40.97867309150172], [116.45784047058332, 40.98270520054208], [116.46793152034996, 40.97684479869063], [116.47269485797513, 40.97735291716564], [116.47939048734743, 40.98072950443677], [116.48753556684093, 40.976210793882366], [116.49055804245747, 40.97673224732704], [116.49836748482203, 40.97424462712728], [116.51018699564756, 40.9735594478384], [116.51348158880023, 40.97993469470119], [116.51864574586078, 40.979454007936766], [116.5273750303571, 40.98409927030039], [116.52959917008656, 40.987079657740175], [116.53597660682968, 40.98867961027415], [116.54182947077925, 40.986438497967704], [116.55264887259356, 40.98708487155422], [116.55526828913754, 40.991919676914065], [116.56323061362131, 40.99010951743139], [116.56899172104258, 40.98479303680358], [116.58377214386384, 40.97521108270645], [116.59184709425891, 40.97326319767613], [116.60859017984136, 40.98181791756274], [116.61113777424771, 40.99721447669734], [116.6089642697032, 41.002060518630536], [116.61324551002151, 41.012705006570634], [116.61596001536095, 41.01422078057715], [116.61694109845743, 41.01915982010601], [116.61529018214657, 41.027439079847284], [116.61165465842639, 41.03316267476556], [116.60818682688087, 41.03455533305776], [116.60755976456797, 41.039237657548384], [116.6117997286481, 41.047095828743814], [116.61052444330664, 41.05182558707741], [116.61814814688564, 41.05287434359681], [116.62489178102159, 41.05922547104828], [116.6319675082384, 41.05891423432383], [116.6351820536836, 41.05673670141006], [116.64144071548151, 41.05779752889575], [116.6479081235024, 41.05465662258471], [116.6509957256006, 41.04969847216719], [116.65917206517469, 41.045066596526134], [116.66722123660054, 41.04474766463065], [116.67091205374803, 41.04109766850743], [116.67679315224447, 41.04014419550746], [116.68252730222312, 41.042992922850004], [116.68613458250907, 41.03915145623826], [116.68523853703346, 41.035845902493534], [116.68897164552038, 41.031604656411126], [116.68961987745882, 41.023741144989614], [116.69272792541321, 41.019596136386276], [116.68772366040346, 41.01204450094594], [116.68476206890877, 41.01134654282538], [116.68484657373557, 41.00562324770883], [116.67698594590144, 40.998875811528336], [116.6764662872318, 40.984661896100825], [116.67921981826534, 40.98104172823952], [116.67519467627147, 40.979147022785774], [116.67185894028417, 40.97440345963732], [116.67185958505459, 40.969396717898064], [116.68116085084414, 40.96096513200932], [116.68320649764725, 40.94953799701917], [116.69006814916212, 40.942933014565625], [116.6962420445617, 40.93903354310439], [116.69665948487297, 40.93492032158965], [116.70108246981901, 40.93243215778002], [116.70604726183643, 40.93324081058167], [116.70773801596764, 40.92781292500653], [116.71614704042703, 40.92581741752867], [116.71095176357211, 40.92009393675279], [116.70719774161734, 40.90884469963278], [116.71072376839437, 40.9085839395157], [116.71750708868849, 40.90471656839114], [116.71997003756441, 40.89959007442855], [116.72424986372033, 40.89617453663202], [116.73356315115761, 40.89506202515789], [116.74405098487296, 40.89006154877838], [116.75329008385293, 40.88825137604083], [116.75232945565749, 40.88038684322464], [116.75592457194244, 40.87917033027781], [116.76318107849632, 40.88136694525991], [116.7661522969387, 40.87693118786407], [116.77058702319307, 40.876790220200476], [116.79103901881653, 40.85848512486793], [116.79080939516909, 40.853341031481825], [116.7962343218494, 40.84966378261564], [116.79631859343674, 40.840865078499945], [116.79977500298394, 40.839315634115174], [116.80746166824282, 40.84690908211376], [116.8145844531621, 40.84676172896438], [116.81732928962879, 40.841189249055546], [116.82187611721375, 40.83962690294122], [116.82568925001307, 40.8411088114904], [116.83166088260332, 40.84007782688848], [116.83363097731991, 40.837565539733745], [116.84209574528728, 40.83786981220305], [116.84249374630043, 40.835706279591406], [116.84934393500329, 40.83401961275073], [116.85456100306007, 40.829042239800614], [116.85537791501588, 40.82394663984895], [116.86432078899661, 40.820207875217044], [116.87012036328568, 40.819814647264714], [116.87068527998785, 40.817073512547395], [116.87612756507697, 40.81279888312132], [116.87416226398891, 40.8029996137761], [116.88092130391965, 40.79971766031681], [116.88303465063119, 40.79699348720256], [116.89064959770562, 40.79508962903812], [116.88891421650746, 40.789330277787094], [116.88897837021071, 40.78039525612382], [116.89255506779948, 40.77540773178838], [116.89853351916003, 40.77595484011064], [116.91733781350591, 40.77238820753513], [116.91712900696743, 40.765568573418946], [116.92184937663198, 40.75649866454826], [116.9174655876577, 40.74927965276499], [116.92049341174898, 40.7435795471356], [116.93462206618209, 40.7384589486254], [116.93662616855353, 40.7285342296089], [116.9405467875102, 40.7255889864732], [116.95399365587986, 40.7197337807832], [116.96030739075489, 40.713890384133315], [116.95895419984083, 40.70824066472004], [116.96345446645982, 40.7050009909711], [116.97132779860186, 40.704178031634044], [116.9737230989586, 40.70144042327835], [116.98192648964775, 40.70175493051457], [116.98419565368887, 40.69978868744461], [116.99616675097307, 40.69589755731656], [116.99918519335398, 40.69339813530561], [117.00705413188864, 40.69260380943767], [117.01190478794707, 40.694516906942575], [117.02141968557528, 40.692834269553494], [117.02460523437755, 40.69060782802246], [117.02912388249932, 40.69292480650035], [117.0296443517426, 40.69571945149925], [117.03799659443713, 40.69879776105082], [117.0483521068192, 40.698211337315314], [117.05179145659812, 40.699939007038964], [117.07020689962413, 40.698398836792], [117.07454632647872, 40.70097996181931], [117.07943134244375, 40.70041366636935], [117.08851478071875, 40.70390930941024], [117.1040203492368, 40.70658986562888], [117.11115197592252, 40.698433392197266], [117.122156322889, 40.69927598071654], [117.12586044570686, 40.697031299511735], [117.13590921402167, 40.695581659746594], [117.14095570600338, 40.697355679191354], [117.15289499036137, 40.69474091957379], [117.15815288896572, 40.698043893603575], [117.16265730549163, 40.69752146246631], [117.17007521403951, 40.6920091155314], [117.17439147648966, 40.69253183356174], [117.17589997892212, 40.69552256121141], [117.18746488995153, 40.694740290795885], [117.19127798912326, 40.69277135847058], [117.19584464161719, 40.69406418451979], [117.20189843725377, 40.69293263874863], [117.20411906265426, 40.690478701747196], [117.21084111536405, 40.690472132176], [117.21222312527047, 40.68799964232357], [117.22672912524892, 40.68211808790577], [117.22785919497012, 40.67911506217413], [117.23516163805432, 40.675214555072145], [117.25029932870315, 40.678014434206624], [117.25491830612287, 40.67970071561799], [117.26127038722458, 40.67521569005408], [117.26691177133019, 40.66862404883015], [117.27213279480236, 40.66609685932548], [117.27211224315279, 40.66301094287648], [117.283907020285, 40.65872365881205], [117.31457287132402, 40.65677847591317], [117.32522920829905, 40.65997321679586], [117.3309833341727, 40.66290322233058], [117.33004467188735, 40.66541234327589], [117.33575753483397, 40.67187807434246], [117.35304794905765, 40.672328538933606], [117.36385381296833, 40.67809676573626], [117.37145062458063, 40.6771873625311], [117.38023927114449, 40.68254437445039], [117.3904541413087, 40.68213535822941], [117.40244966866534, 40.685634789384835], [117.40807548149019, 40.684302377209285], [117.41257241328691, 40.685316226455086], [117.41966583444325, 40.68366565888488], [117.42594660168474, 40.67999186954906], [117.43057344014697, 40.681972812361025], [117.43547625543788, 40.67499021665458], [117.44723236251811, 40.67602242533605], [117.4584927137212, 40.67196508192755], [117.46482680818954, 40.67278376456112], [117.47575872059605, 40.67750432315273], [117.47810931975647, 40.67556616959195], [117.4867573100132, 40.67377515785423], [117.49637174081064, 40.6682113944507], [117.50806719886428, 40.65910142741419], [117.50739519771909, 40.6547752950409], [117.4962696094774, 40.65162411841382], [117.49847507021396, 40.64470123179665], [117.4954094612619, 40.64306912267847], [117.49385762908062, 40.63475183704282], [117.48334096642793, 40.634544086939826], [117.4795424488564, 40.63200786823345], [117.47133648088999, 40.63381919152843], [117.46888002355763, 40.64289690378321], [117.46642602455105, 40.64292257854934], [117.46120104426883, 40.6479744040921], [117.45761462290169, 40.6470975877614], [117.45530752320643, 40.65151352052229], [117.44237305175731, 40.65000890935983], [117.44975144435995, 40.647595341776096], [117.44472087016125, 40.64499735936565], [117.44729934363245, 40.641271608930914], [117.44214579178423, 40.62680740296067], [117.43554613486617, 40.62639414099092], [117.4312524971357, 40.62410470370942], [117.42352565129796, 40.62441794808538], [117.41318832941649, 40.61591893223136], [117.40597365574112, 40.603530235818056], [117.40798234000142, 40.59913826140074], [117.41499155469633, 40.59159551497633], [117.41386132399184, 40.58929326854876], [117.41645801512146, 40.57986519822797], [117.42305065410217, 40.57772949088147], [117.42323928568456, 40.57455947201964], [117.41447163478114, 40.56753504857613], [117.40671054874848, 40.568320839624334], [117.39682164225779, 40.57268272424556], [117.39383325836822, 40.56777442082226], [117.38789977638308, 40.56634516707251], [117.38255410815786, 40.559684710111796], [117.37169616686614, 40.561820554276416], [117.36873221322047, 40.5662507795422], [117.36251287142454, 40.56881891180115], [117.35921556740365, 40.5744257052921], [117.34634440891655, 40.57731164694097], [117.34336097352273, 40.58068111342861], [117.3361251082678, 40.58008295320084], [117.32799293253152, 40.57498041723565], [117.3218415819674, 40.57447648186413], [117.31885875228149, 40.57668787833024], [117.30528204018233, 40.576583576260326], [117.29303893538825, 40.56538447722417], [117.27909802318142, 40.563663176150634], [117.2727732661904, 40.55895286936021], [117.26671664400268, 40.560115787254794], [117.26203831509393, 40.55846032159455], [117.25317973175798, 40.55149186597828], [117.24308426633742, 40.54680590595748], [117.24415091127291, 40.54065440459425], [117.24097252541739, 40.53886652594875], [117.24555235586335, 40.5349536304771], [117.24866842314455, 40.5266111960381], [117.25500303111279, 40.51770210219043], [117.25765619327437, 40.515913295956395], [117.25667555311188, 40.51178962205183], [117.24910898241582, 40.51357874498478], [117.24037032628884, 40.51061266939013], [117.23309053719446, 40.5153618791196], [117.22394842176435, 40.50979661996598], [117.2135021787565, 40.51294273311999], [117.20854023406375, 40.51188874907947], [117.20602856199999, 40.50652083338202], [117.20801733329431, 40.50600789578241], [117.20209177311925, 40.49971425743429], [117.20194595999922, 40.49668447220528], [117.20559072317587, 40.49330550192719], [117.21145341294365, 40.49321761169331], [117.22200592015146, 40.4799478141554], [117.21932733263456, 40.474496508421005], [117.22445622997017, 40.469116950737906], [117.23079607538513, 40.46744473521043], [117.22675871725556, 40.461863092352274], [117.23008639065974, 40.45522247925559], [117.23686463616241, 40.454096963814294], [117.24571079371204, 40.449132731813165], [117.24619224855334, 40.44471361034175], [117.25689384052042, 40.441051224046596], [117.25121059600728, 40.43405202251567], [117.24029769003435, 40.42556483160222], [117.23743306059548, 40.42153023977359], [117.22764338409608, 40.41582726793808], [117.23107633091078, 40.40647023315279], [117.2301778614841, 40.399530087528866], [117.23404772651439, 40.396319693777635], [117.23425821284634, 40.39310792770289], [117.23051291357574, 40.39276668156551], [117.22894476504567, 40.38824509071277], [117.22260400079372, 40.385527555771034], [117.22021911604, 40.37724290483638], [117.21745693186293, 40.37422088984884], [117.21973895449432, 40.36773144922567], [117.23062108184797, 40.36932350782496], [117.2358508409418, 40.368680852394924], [117.24133101269855, 40.36280491195158], [117.24375749043871, 40.35708728778856], [117.24775057914967, 40.355812222332894], [117.24793929509246, 40.349899992770894], [117.25065838651544, 40.34017480914232], [117.25469230286515, 40.33749306216791], [117.25339651583145, 40.33490801074977], [117.2606896415796, 40.33440504184309], [117.26852297138997, 40.33065161735521], [117.26484751176997, 40.323996772732265], [117.265412558641, 40.31856586302975], [117.26825366632421, 40.31311741250379], [117.2678999147299, 40.30726611989672], [117.27927989623632, 40.300919611186465], [117.28683586119034, 40.29544593801675], [117.2881718134392, 40.289591531255965], [117.28589821007795, 40.28493754516647], [117.28984289557525, 40.27679809378137], [117.29781337778275, 40.27686727758996], [117.31030654091177, 40.280663282083786], [117.31026523639434, 40.28376767221939], [117.31681325984354, 40.283092799078226], [117.324674327795, 40.28830072378551], [117.32742802632796, 40.284285344221324], [117.33141335897844, 40.26453089490836], [117.33103778032068, 40.26189514504784], [117.33560579405068, 40.2551237588011], [117.33329269887847, 40.244822104259825], [117.33685912064027, 40.24153092593171], [117.33886162499533, 40.23356556509064], [117.34163604170365, 40.23318846535041], [117.34499465317725, 40.228068196887136], [117.34906193085172, 40.22815794673594], [117.3536289522008, 40.23114364024196], [117.36731698511123, 40.231349954760304], [117.38013541124059, 40.22567044882915], [117.38333091519483, 40.22652558326004], [117.3870283583887, 40.220210949305105], [117.37090892935284, 40.217182703094075], [117.37176547629082, 40.2088609578111], [117.37898972414128, 40.20645754585061], [117.386446501578, 40.20193413840918], [117.37287369239421, 40.199889977992285], [117.37477425266303, 40.19347573955995], [117.37769642848345, 40.19384462614102], [117.37740589982708, 40.1863959316208], [117.3816655505129, 40.18681290585046], [117.39100233906738, 40.19147096266389], [117.40099304471603, 40.18605887228541], [117.39804581350768, 40.18179982270395], [117.39451384326014, 40.182173733023696], [117.38492479305368, 40.17616969603305], [117.38649133361594, 40.173462933194145], [117.37392016976982, 40.17548305977769], [117.37454769364145, 40.17102790872137], [117.37035073138921, 40.174904355719576], [117.36536264503461, 40.175121883456164], [117.3621909429636, 40.171578852304556], [117.35737146531555, 40.17527877008895], [117.35278207784361, 40.171949687160556], [117.34712953354372, 40.17228343560484], [117.3445017830299, 40.17027940022738], [117.35071850913687, 40.16288127565786], [117.3539942882811, 40.15556856784648], [117.34510900492556, 40.14918369477335], [117.34865493514204, 40.147200588478086], [117.34392096158858, 40.14344944790661], [117.35026227241322, 40.14364815835823], [117.34974116655893, 40.139516479062344], [117.34479826832334, 40.1385533483649], [117.34248296533299, 40.135153907143916], [117.32406999835051, 40.132352127683326], [117.32438183745745, 40.13441033328913], [117.31674870264116, 40.13938431379181], [117.31205696608201, 40.137205190715896], [117.30725970466929, 40.13865562354025], [117.30112797777846, 40.13568434188639], [117.29651878485387, 40.12463673554891], [117.29061503622647, 40.11999285759778], [117.29063630910217, 40.117577038710515], [117.27899041156276, 40.12005623275744], [117.2692409087565, 40.112379680246235], [117.27024407545275, 40.108050282637535], [117.26794668606998, 40.10454924066105], [117.26349792123291, 40.10594583964035], [117.26042647308492, 40.110925883791715], [117.25399048768165, 40.11290561804333], [117.24914126611999, 40.11203009008574], [117.2428696118966, 40.115224015584594], [117.23895919039907, 40.11196404027402], [117.2318268142269, 40.11050043245186], [117.22960929781651, 40.10712617692686], [117.22262150852143, 40.10227163339719], [117.22220260856835, 40.09899548004747], [117.21799611042786, 40.09735320879993], [117.21808071250717, 40.09339659858551], [117.2048265487426, 40.095325278225964], [117.20461801955747, 40.08950239852748], [117.20757169198514, 40.084964967572795], [117.19785422071364, 40.07836470060446], [117.19718452979104, 40.07541080859905], [117.20175065597891, 40.07554803903979], [117.19881899338884, 40.06898986086104], [117.19113150454659, 40.066445192611965], [117.19213694048268, 40.06879977900025], [117.18539052351419, 40.07165970677375], [117.18274933262235, 40.081534257454656], [117.17891498491134, 40.08254912415024], [117.17506114384867, 40.07876220028388], [117.17996398438908, 40.07487858062619], [117.1771361648648, 40.070752597376476], [117.16911088129504, 40.070298608318126], [117.16573814089428, 40.072807154739905], [117.15195177747766, 40.07606011364426], [117.15362789713483, 40.07418113765562], [117.14973314765543, 40.06795986100988], [117.1326869402912, 40.062645616507716], [117.12234640514352, 40.06404490670906], [117.11295222740127, 40.07099812723427], [117.10122144117958, 40.07037788286433], [117.0973749742383, 40.074157503315064], [117.07907754829553, 40.073711885943354], [117.07853535685001, 40.06717377758142], [117.07446541464094, 40.06367299114009], [117.07452779490369, 40.067404694911644], [117.0631571571005, 40.06617074762275], [117.06413706483023, 40.06277844710656], [117.05790229991467, 40.06139279372537], [117.05471216352254, 40.058720803822546], [117.04558221815972, 40.05800968759235], [117.04693837838836, 40.05151607485801], [117.0450003384388, 40.0497994570838], [117.03225068873638, 40.048045669741235], [117.0267939478142, 40.04103270222549], [117.02069336198741, 40.03752801791152], [117.02217261874834, 40.0326530492382], [117.01759154716126, 40.03245523931321], [117.01850800347532, 40.028816757812], [117.01457305072289, 40.031166158526055], [117.01176285127086, 40.029193598996336], [117.00510084611503, 40.0299926094471], [116.99446345115997, 40.02869397742522], [116.9939425163687, 40.03103343774913], [116.9856562039694, 40.03570101974911], [116.97947212605953, 40.03765093833667], [116.96599735624886, 40.03583684222517], [116.963204781569, 40.04744930869872], [116.95883035281041, 40.04671299504583], [116.95587062023073, 40.05024166877236], [116.9392575069788, 40.040342038122105], [116.93900629455848, 40.04754806558935], [116.93164320404279, 40.045839166196615], [116.93283189164303, 40.04981332515475], [116.92571640922418, 40.05095905884806], [116.92212584354256, 40.053867489202524], [116.91820133967371, 40.046405176318835], [116.91202018355648, 40.04365007199184], [116.90830123182887, 40.05153906432561], [116.90048621336098, 40.05037111965353], [116.89542758727856, 40.04667054471337], [116.8843221150262, 40.04491220479485], [116.874801558696, 40.04509777981544], [116.867664339844, 40.0404477115178], [116.86186431257642, 40.04078082995075], [116.85183139670812, 40.05079573865976], [116.84420615734338, 40.05386547443109], [116.84349428051569, 40.05081338199386], [116.82547674642505, 40.050050137696815], [116.82570752576711, 40.047339719285404], [116.81669780430337, 40.04531113725501], [116.81711841643198, 40.038673257239914], [116.81477222996507, 40.03761405101781], [116.81395605141009, 40.02719110571074], [116.80924233363635, 40.02973064730678], [116.79730287585294, 40.03096106414409], [116.79418284936877, 40.02764560506288], [116.78344151506133, 40.03110542095225], [116.7841319491174, 40.03326511638465], [116.7754453785758, 40.03359705977178], [116.77172140360902, 40.031224054656576], [116.77138689082085, 40.02598005529221], [116.76565627545385, 40.01324685220967], [116.76436033820815, 40.01040428397612], [116.76965312482484, 40.001718895563705], [116.76927824767147, 39.99153506966868], [116.76066162407038, 39.981052886058215], [116.76034836557166, 39.97512301039348], [116.75351220858487, 39.96870363452513], [116.75123511374021, 39.96025381866753], [116.75673419704614, 39.95477774118923], [116.77449346658207, 39.948497882118446], [116.77648211284767, 39.94633776409599], [116.77723712488675, 39.93482994294452], [116.77627538625273, 39.92705735221856], [116.77608949518417, 39.90920393634193], [116.77816209709684, 39.901008282968874], [116.77862382659103, 39.890208242695515], [116.78101047255494, 39.885623951486124], [116.78867328550245, 39.880052376870495], [116.79809640205337, 39.87674695787908], [116.7982006885093, 39.88369377174316], [116.8022008575222, 39.88373308640756], [116.80226336733342, 39.88845095943145], [116.80626391915013, 39.8885385829511], [116.80708235409075, 39.880129383128455], [116.81097844625837, 39.87748427005626], [116.81766252028707, 39.87798426919539], [116.82126551573087, 39.875925019685376], [116.83090533456192, 39.86360869315359], [116.83341995579228, 39.8646543325959], [116.84127735954561, 39.857508177253195], [116.84657763183193, 39.85795756033231], [116.85233845379021, 39.84737194147307], [116.85956437906023, 39.84583638440595], [116.86010949747988, 39.842826378328155], [116.86557466039919, 39.84099418542507], [116.8727130190958, 39.84119795053606], [116.87237835413774, 39.84416039002409], [116.87974489476942, 39.84353284899865], [116.89158568331003, 39.83154338092163], [116.89744082846748, 39.82964026594656], [116.90166243547361, 39.83307539851929], [116.89697867090429, 39.84030348433234], [116.89689484802349, 39.84720504166369], [116.90446053835605, 39.84956517595708], [116.91150228517253, 39.84586838604261], [116.91996080052238, 39.834353751605036], [116.92292742013784, 39.819861103222536], [116.92223949816847, 39.81310324646758], [116.92384689202737, 39.81031691072231], [116.93690965197362, 39.80060991531671], [116.92885700381207, 39.80008316316687], [116.9323420905594, 39.79206432265885], [116.94483551465383, 39.79044811852982], [116.94779600761525, 39.784984871753316], [116.94202060449176, 39.7842947949626], [116.94375237606282, 39.77746530010854], [116.93981184230917, 39.7762993410074], [116.93332419402401, 39.78030100249061], [116.92783657406306, 39.78074805704581], [116.91579193931524, 39.77958608298055], [116.91057107470566, 39.77489623305036], [116.91497848326321, 39.768066690553745], [116.90470121838071, 39.761242175755896], [116.90238128374523, 39.76567492815853], [116.89590153621911, 39.76257857419337], [116.89565163137084, 39.75416839793721], [116.90125427189962, 39.75493506045032], [116.90727307285812, 39.74492744340516], [116.90854838155711, 39.74072056889237], [116.9048087477914, 39.73995550907507], [116.90702355776908, 39.73465671195392], [116.9104501266831, 39.73483559609651], [116.9107643337714, 39.73031902238024], [116.90562426479792, 39.73048351896656], [116.8963865948628, 39.72838057717579], [116.89385754510796, 39.7251352921383], [116.88168453700267, 39.7244753977601], [116.87689355702176, 39.71742702887851], [116.88120467292194, 39.713272486090425], [116.88047318650318, 39.70596588734995], [116.88794219447482, 39.694847836855644], [116.88746143796133, 39.69215596615134], [116.88191887739632, 39.689917456229445], [116.88401115299187, 39.68662356065894], [116.8969971610562, 39.68954912683818], [116.90312307508964, 39.6818337320218], [116.89929836291873, 39.680625873937004], [116.90076215872345, 39.67640065953322], [116.88524722555928, 39.67305062573553], [116.87733814057302, 39.67431591270496], [116.86727055086321, 39.670340200725036], [116.85805796974037, 39.66933137454793], [116.8545602005197, 39.66619344269741], [116.84400276961433, 39.66646949601837], [116.84547113213047, 39.65176772653454], [116.83317445266589, 39.6464243483851], [116.83480891713809, 39.643146018484195], [116.82760133995885, 39.64301857125771], [116.82858648823942, 39.640734861558464], [116.8209184442027, 39.63709725224473], [116.8229516440406, 39.63404764216724], [116.82037405219336, 39.632002266257516], [116.83248626657858, 39.6211351587158], [116.82814916145712, 39.62039219762242], [116.82942713347023, 39.615904559986696], [116.81905696356118, 39.61276590484328], [116.81800861148051, 39.61606225578675], [116.81354623257529, 39.617866767149856], [116.80370086368272, 39.6133757567963], [116.79605645906437, 39.611143235460084], [116.78397577663166, 39.60936248486127], [116.78680285640087, 39.60098781383569], [116.7833481238628, 39.60142455922186], [116.7846682883987, 39.59487663695543], [116.77943529203013, 39.595034780169364], [116.77901627540413, 39.592322996409614], [116.77215254582056, 39.59220180747995], [116.76884626273481, 39.597982013583746], [116.76815521904759, 39.60425310577328], [116.75656697420963, 39.61262612105065], [116.74264616913433, 39.61874930777889], [116.73796596307642, 39.61563279623311], [116.73184643550714, 39.61418269890676], [116.72449592927886, 39.61796093403372], [116.72418198061644, 39.62174942351332], [116.71950605231271, 39.62289702046441], [116.71585335028642, 39.62058276787057], [116.71015628048968, 39.620394223300444], [116.70331341132864, 39.61695899869662], [116.69937066045877, 39.62031255478612], [116.69478143387585, 39.61992833461792], [116.69661799020653, 39.609278535108785], [116.71228697849065, 39.601856455536755], [116.71232912869439, 39.599912849326046], [116.7189453114177, 39.596834459025985], [116.72105406405136, 39.59188232788303], [116.6991453326402, 39.58683258406875], [116.69474322175039, 39.58982925057366], [116.6931787726821, 39.59432388479121], [116.69046699944116, 39.5942636890349], [116.68815153340549, 39.600229461622305], [116.68297914046981, 39.59738067363907], [116.66410674074476, 39.6023005160269], [116.6641683825641, 39.603835047432185], [116.65653630874236, 39.60414321271372], [116.6509672986529, 39.60171973323063], [116.65184327368361, 39.59969266504608], [116.64072482395619, 39.59807849388439], [116.63974370780038, 39.60105230440294], [116.62981014759805, 39.6037934506807], [116.62962308809311, 39.59891080973226], [116.62256640251572, 39.59854283229339], [116.61475602277004, 39.60065609923705], [116.61442079585305, 39.605883141281275], [116.6110993801249, 39.60629317906007], [116.61088977710597, 39.61308678356605], [116.60742193948599, 39.61279457185971], [116.60600042400758, 39.617874029207144], [116.60202877924742, 39.61869097918247], [116.60213312860009, 39.62368789622195], [116.59642612876232, 39.623525386481674], [116.59437796077209, 39.618642240247134], [116.58781020853162, 39.61757961657442], [116.58624129398162, 39.62028930617142], [116.57343171381596, 39.62246675380965], [116.57362039360794, 39.618646769443714], [116.56015337531107, 39.61874250195052], [116.56019589433203, 39.615101359311524], [116.56386213818199, 39.61073004087609], [116.56032173639731, 39.61010466559702], [116.56082551217708, 39.603328011355195], [116.55648809329647, 39.60067426363977], [116.55133246662679, 39.60045261826885], [116.54361727168978, 39.59507856903082], [116.53835317868945, 39.59544223040563], [116.5382891336186, 39.60253042528419], [116.53503854176329, 39.60033394797857], [116.53596234175937, 39.592398114880865], [116.52498931668978, 39.595603657997025], [116.52473720457681, 39.59766148282471], [116.51854678819215, 39.595405669044986], [116.51915529133215, 39.59268005004283], [116.51535704712407, 39.589092003753116], [116.51726744751203, 39.58511148766721], [116.51378432194, 39.58072349048602], [116.51447743026715, 39.57601969644801], [116.52024918142482, 39.57615122804852], [116.52136162679777, 39.57182447230706], [116.51447807038953, 39.57077504672163], [116.51347104359068, 39.56534753472969], [116.50562095352748, 39.56434359798036], [116.50463485037126, 39.55934099645311], [116.50209428665484, 39.55908746664397], [116.50249492537998, 39.54988819902016], [116.48374957404856, 39.54904787293649], [116.48345509855987, 39.55225012989183], [116.46729663050546, 39.55182998573942], [116.46486254613677, 39.553327409029556], [116.46905937565653, 39.544496607454406], [116.47195547835858, 39.541953986265426], [116.47212501235398, 39.53423868772583], [116.4627252854389, 39.53308692661371], [116.45848869069921, 39.53034667382961], [116.4584470622902, 39.526357777771516], [116.44771042184637, 39.52734859222079], [116.4475843763089, 39.52517400644506], [116.43482123459323, 39.52598620715371], [116.43134314282867, 39.525180736605705], [116.43371068206895, 39.5220278535361], [116.43421448715318, 39.51494875397062], [116.4365820017383, 39.514870220005236], [116.43767296353978, 39.508559886444516], [116.42684248489104, 39.50610938541346], [116.42552224362193, 39.509198998215815], [116.41844605933757, 39.508391103054045], [116.41693783009177, 39.51499698577658], [116.41785887029621, 39.521390609993766], [116.41528334200886, 39.52375926962435], [116.4050522275057, 39.52333093346931], [116.39934243996007, 39.526845952539404], [116.39645710342921, 39.52553893092573], [116.39662662743604, 39.51304675616963], [116.40105937087986, 39.5107727623352], [116.40237693001225, 39.506669028177576], [116.41254472422516, 39.5050517658965], [116.41671009863978, 39.49527422554935], [116.41231580812075, 39.49523889032812], [116.40963837939049, 39.48689570345857], [116.4053922601752, 39.48377084243024], [116.40618684491605, 39.48074400436555], [116.41736111191385, 39.48382453041712], [116.42114963682188, 39.48646045714674], [116.42378860523979, 39.480002040563505], [116.4191613293295, 39.479932145415866], [116.42215624199919, 39.47489634119717], [116.42747406022163, 39.47686494221146], [116.43009151953953, 39.48159535310229], [116.43799005812247, 39.48088662391457], [116.43790730366307, 39.47756565508622], [116.44262276990635, 39.47498835965031], [116.44249787542265, 39.46383014789122], [116.44786565851223, 39.45623085732675], [116.44855793490372, 39.452025787488935], [116.44453313105215, 39.451364395833444], [116.44421890414, 39.44723938743752], [116.43108075501515, 39.44464908022399], [116.42823261302452, 39.44145386783241], [116.4194589255667, 39.44557092863212], [116.40276118476297, 39.448935275478114], [116.39360264639575, 39.448724085925875], [116.38572302628056, 39.45157629536578], [116.3823802260901, 39.44941866611701], [116.36740521050744, 39.45076044990524], [116.36164291457847, 39.45034371860227], [116.35604887001571, 39.45359217657392], [116.34500847100686, 39.4542659004785], [116.34404887510287, 39.451649621949635], [116.32842049395127, 39.45578653992583], [116.31955181577165, 39.46174327971995], [116.31902958599537, 39.46493510146203], [116.31400032457591, 39.46733361811237], [116.31389594840205, 39.472225056380815], [116.30874151303244, 39.4749014335706], [116.30667419052683, 39.4793555056236], [116.30093385000917, 39.48383067206432], [116.29926344086475, 39.487987957660636], [116.27721198785541, 39.49277758047847], [116.27328400489446, 39.490147159639214], [116.26964833004925, 39.49404379989152], [116.26333568449752, 39.494341716968655], [116.25196026799705, 39.499366583681315], [116.25108048493884, 39.50433802903256], [116.24787995812532, 39.50890056759966], [116.23984467262228, 39.513739346896394], [116.24072270662, 39.51893902370391], [116.23754059575653, 39.52307452004854], [116.2404918990978, 39.52413834877296], [116.24226955022324, 39.52910938403965], [116.239612627397, 39.528977575147096], [116.24053215873435, 39.538623049854486], [116.23651113378583, 39.55179566175466], [116.24019477753473, 39.555997033424426], [116.23701294286894, 39.557188416001075], [116.23464692161689, 39.56292366742151], [116.22867991072305, 39.562755789664415], [116.23045963566699, 39.56721790905516], [116.22336107688493, 39.564287846637676], [116.21979893578406, 39.56696358144663], [116.21514723160375, 39.5777255660363], [116.20204948720196, 39.57651490066152]]]}}