{"type": "Feature", "properties": {"unit_id": "beijing_110113", "name": "顺义区", "district_codes": [110113]}, "geometry": {"type": "MultiPolygon", "coordinates": [[[[116.76565627545385, 40.01324685220967], [116.77138689082085, 40.02598005529221], [116.77172140360902, 40.031224054656576], [116.7754453785758, 40.03359705977178], [116.7841319491174, 40.03326511638465], [116.78344151506133, 40.03110542095225], [116.79418284936877, 40.02764560506288], [116.79730287585294, 40.03096106414409], [116.80924233363635, 40.02973064730678], [116.81395605141009, 40.02719110571074], [116.81477222996507, 40.03761405101781], [116.81711841643198, 40.038673257239914], [116.81669780430337, 40.04531113725501], [116.82570752576711, 40.047339719285404], [116.82547674642505, 40.050050137696815], [116.84349428051569, 40.05081338199386], [116.84420615734338, 40.05386547443109], [116.85183139670812, 40.05079573865976], [116.86186431257642, 40.04078082995075], [116.867664339844, 40.0404477115178], [116.874801558696, 40.04509777981544], [116.8843221150262, 40.04491220479485], [116.89542758727856, 40.04667054471337], [116.90048621336098, 40.05037111965353], [116.90830123182887, 40.05153906432561], [116.91202018355648, 40.04365007199184], [116.91820133967371, 40.046405176318835], [116.92212584354256, 40.053867489202524], [116.92571640922418, 40.05095905884806], [116.93283189164303, 40.04981332515475], [116.93164320404279, 40.045839166196615], [116.93900629455848, 40.04754806558935], [116.9392575069788, 40.040342038122105], [116.95587062023073, 40.05024166877236], [116.95622382687269, 40.062411158154376], [116.96455661691132, 40.06266703060835], [116.96736919059136, 40.065158641652324], [116.97247155388813, 40.06373409308519], [116.97467851073382, 40.070022622860044], [116.97669800295643, 40.06951400379062], [116.98011230777074, 40.07717778315753], [116.97505162374289, 40.08032291166754], [116.97571773902942, 40.08865847272596], [116.97380131517377, 40.092702507556645], [116.96934358290335, 40.093898504120645], [116.96188616945676, 40.100080148957154], [116.96721804947651, 40.102564441985244], [116.96994607728264, 40.110032639945544], [116.96519674943954, 40.112865822887315], [116.96309232811777, 40.11763772867687], [116.96548731049553, 40.123079195585184], [116.95969504283573, 40.12669222945561], [116.96173611190774, 40.12871309321923], [116.96392238544497, 40.13917865050272], [116.97162804604203, 40.15021033539097], [116.96594144269227, 40.155151840167456], [116.96264835953923, 40.16235335548913], [116.95516787838116, 40.17081207636243], [116.95595961016222, 40.17442184287033], [116.94532905926275, 40.173683168438274], [116.93932376175604, 40.18020504069404], [116.93978187087531, 40.18512763573657], [116.94393084566866, 40.185250308634224], [116.93988471247282, 40.1920435318949], [116.9335444284257, 40.19125948654735], [116.92490360858172, 40.2060050465247], [116.9236923683803, 40.21050660159723], [116.9320188072503, 40.20946098122878], [116.93495893606662, 40.22282770770679], [116.92919981457923, 40.22875954340964], [116.92506733038785, 40.22954113600279], [116.91945305000132, 40.224691152052415], [116.91604998123387, 40.21906053417776], [116.90953380537702, 40.22120046027894], [116.90794566740448, 40.219048314364485], [116.90263863168889, 40.221331829814375], [116.90063102753767, 40.22761180604567], [116.89473616517844, 40.2276918169874], [116.88798068413449, 40.23238211511375], [116.89577991571815, 40.235767715294344], [116.88837692244972, 40.23895218851509], [116.88628479633752, 40.24463092440959], [116.88061477971559, 40.25082356718346], [116.88013309685702, 40.25417151692464], [116.87529835620727, 40.258131153509716], [116.87391661752169, 40.26304671801472], [116.86826466326058, 40.26718126730774], [116.8703570674068, 40.27324956988493], [116.86575017579517, 40.28037522558708], [116.86533049099795, 40.289834556019855], [116.8534570248313, 40.289751884047625], [116.85117312887046, 40.29176966637916], [116.84853247027301, 40.302014797571886], [116.84295876627307, 40.31005506999221], [116.832337205448, 40.30901684493453], [116.8229299748193, 40.30322866482968], [116.82404175337582, 40.298024983313844], [116.82115036668226, 40.29714680817256], [116.81851132536573, 40.28980163614075], [116.8190560629099, 40.28415990691475], [116.80573253841857, 40.28117694640073], [116.80351239763203, 40.284795455913475], [116.79446325738033, 40.28796670407141], [116.78837059777764, 40.28617972944433], [116.78190137944165, 40.288193495672374], [116.78167218099497, 40.280205015728114], [116.77794718999465, 40.278195569419395], [116.77683812230897, 40.27200081632638], [116.76738142154935, 40.268273143095094], [116.76552025820766, 40.26524666374595], [116.76246524262623, 40.26885239633487], [116.75652655451637, 40.26779962504196], [116.74665976914989, 40.27425191159972], [116.73685995700714, 40.27782941705164], [116.73222266027172, 40.27750926778328], [116.73497963486454, 40.28174360042037], [116.73284915792588, 40.282844684813824], [116.73230583318193, 40.28313598489952], [116.70477736246193, 40.25500778686564], [116.69862341147586, 40.255891364560625], [116.69854132075417, 40.25034255938679], [116.6905318491518, 40.246877995896], [116.69124154049595, 40.24202161936935], [116.68471478152634, 40.239703902425006], [116.67802152095283, 40.23311366221324], [116.67216225162866, 40.23322186193182], [116.67034691300378, 40.23744960996036], [116.66430055823284, 40.233722811457476], [116.66284020750341, 40.23739893403196], [116.66736439467796, 40.245626852669055], [116.66354739911367, 40.25200892464123], [116.66096052635982, 40.26094406132492], [116.64262664520375, 40.259034539262615], [116.6372014707626, 40.256050381935154], [116.63561563397326, 40.25836520524048], [116.63117092008447, 40.25736840257414], [116.6293959890499, 40.26036404890348], [116.61780910843275, 40.25950226511715], [116.61795588217576, 40.25159067076677], [116.61620248237678, 40.249392501846984], [116.60740758174438, 40.25069156236865], [116.59795980370511, 40.25025678504855], [116.59879596142927, 40.25507783233681], [116.5949274231094, 40.257909185394716], [116.59381870423512, 40.26431476345979], [116.58501178457291, 40.263065872513444], [116.5825637229144, 40.26838629869874], [116.57940377008794, 40.26514863386994], [116.57670302232093, 40.26728185698262], [116.5643481045717, 40.267767952468134], [116.564662119388, 40.27200653148022], [116.55950756885436, 40.2722734506592], [116.56032460167202, 40.276916810823565], [116.54628170612416, 40.27270102962628], [116.54032481205532, 40.275081105243444], [116.53497680911099, 40.27379040148771], [116.53098978451257, 40.276011744529384], [116.5341592092642, 40.26600895914739], [116.52977475995775, 40.2602068085284], [116.52020578528466, 40.260131641040076], [116.51798226178629, 40.256324062051405], [116.50316280251926, 40.25681438481841], [116.49990794746685, 40.260103997113006], [116.49694883293456, 40.2584294684414], [116.49495523187403, 40.25033406582275], [116.48760839140887, 40.249892392270866], [116.4759593568741, 40.24406623090379], [116.4749526974352, 40.236927740994794], [116.47764093869887, 40.22387438486488], [116.4718284501414, 40.22387450240502], [116.46754745666546, 40.21986593028819], [116.46608167600273, 40.20375366154077], [116.47837924129557, 40.19518879134626], [116.48190568542749, 40.19050242250755], [116.48186543811805, 40.18339325204793], [116.48402785195957, 40.180029901146625], [116.47903210339923, 40.175464221388616], [116.4772071676412, 40.170437729574225], [116.47466812400367, 40.17062570609697], [116.47076564269575, 40.162255188806625], [116.47177355798776, 40.158661275294534], [116.47851028249528, 40.15916568009143], [116.48621307087595, 40.15570412855111], [116.48468236983412, 40.14771153494987], [116.47465017172935, 40.14611139697337], [116.47618245441049, 40.13932529302864], [116.47863832648432, 40.1387811866266], [116.4811172860424, 40.12338964175603], [116.48611443172044, 40.11028816920211], [116.48319784037142, 40.100387503498204], [116.47476095331078, 40.095661145539225], [116.4672070667831, 40.09619208335282], [116.46032644219765, 40.093613302173914], [116.46066208030618, 40.088845442297405], [116.46485842282041, 40.08806073232444], [116.46739721262612, 40.08423942684098], [116.47681992308928, 40.08244775662672], [116.48055574520536, 40.07974942753407], [116.49327638614672, 40.079137594463596], [116.50075064711734, 40.07312533074487], [116.50795147086805, 40.069221074897825], [116.5200408487108, 40.070164183041946], [116.5284565152698, 40.065644620993524], [116.5372895938575, 40.05828463763501], [116.54190372939642, 40.061605375527236], [116.54588805820318, 40.0586614525594], [116.57233060723398, 40.075400501346415], [116.56849595295307, 40.09507151517886], [116.56824314852604, 40.10674728879105], [116.57249460209067, 40.101676817449494], [116.57454779773052, 40.08729307391482], [116.59009585096847, 40.089169446205666], [116.59289775721136, 40.09246194688745], [116.59258348102638, 40.102825100087664], [116.5971012971701, 40.09283537187832], [116.59766602490552, 40.08576387771313], [116.60260394141514, 40.05386630542824], [116.59788009715224, 40.05190399326112], [116.6042578541813, 40.03016913246799], [116.60824880527187, 40.03070359800137], [116.6083331677555, 40.02713173471072], [116.61357707544296, 40.025683816575196], [116.61428776356477, 40.0214625297511], [116.61842230273372, 40.02261124840157], [116.62124244917041, 40.0204497862594], [116.62767240507085, 40.022601800378126], [116.63032291496202, 40.01863775599126], [116.64532502620939, 40.02467149473389], [116.64580531665263, 40.020822886114615], [116.64974879203226, 40.01747137133382], [116.65423266856914, 40.0205483188117], [116.65880062542212, 40.01792609986569], [116.66270044998019, 40.01282004051595], [116.67252250724344, 40.013921236419556], [116.67781949486499, 40.013311123135566], [116.68032217107708, 40.00711864855944], [116.68240818097601, 40.00802467735517], [116.67961214906137, 40.01541861824006], [116.69124896228836, 40.01492618042259], [116.69792294772844, 40.01895750559261], [116.70259549315696, 40.025395653638995], [116.71029400282295, 40.02255944288768], [116.71133824869418, 40.0184012160331], [116.71367492874857, 40.021305003522386], [116.71816212102897, 40.020065595858846], [116.71876759458068, 40.02305176281801], [116.72597028240546, 40.02099852872452], [116.72626145586658, 40.02388813043903], [116.73106403545701, 40.026385130941236], [116.74096595322543, 40.024154836989304], [116.74094540198567, 40.020746006962845], [116.74566785289706, 40.01873079930977], [116.74719436184705, 40.01468774555327], [116.75869140592164, 40.0148187571452], [116.76565627545385, 40.01324685220967]]], [[[116.57233060723398, 40.075400501346415], [116.54588805820318, 40.0586614525594], [116.54689531687771, 40.05377890085489], [116.54066787986363, 40.0478412957731], [116.54488311013135, 40.04439405448304], [116.55840505822785, 40.038576886677056], [116.56464962106581, 40.03136311826986], [116.57298470650363, 40.032039696442055], [116.57200116090323, 40.02645387581868], [116.58974963759407, 40.01646548875512], [116.59504077194137, 40.017814608597526], [116.59696229530155, 40.02745927068669], [116.6042578541813, 40.03016913246799], [116.59788009715224, 40.05190399326112], [116.59271474609949, 40.05149752801705], [116.59583116821221, 40.04661323311327], [116.59361540976204, 40.04612599425126], [116.59401310025575, 40.04036336496809], [116.58619037579955, 40.042081723020466], [116.58539395978276, 40.050747838574146], [116.58215125234413, 40.04947992834615], [116.58432588453348, 40.05511299208627], [116.58078737791821, 40.07328353571627], [116.57557569885078, 40.072760078074886], [116.57559745062942, 40.066789474108475], [116.57233060723398, 40.075400501346415]]]]}}