{"type": "Feature", "properties": {"unit_id": "beijing_110119", "name": "延庆区", "district_codes": [110119]}, "geometry": {"type": "MultiPolygon", "coordinates": [[[[115.9609556656814, 40.2644815773941], [115.97031851929157, 40.26982749501189], [115.97571723384134, 40.27573145065361], [115.97273587464935, 40.280462688358575], [115.97513300942357, 40.284078272746775], [115.97258831606455, 40.288467318973204], [115.97663169274162, 40.296798176586115], [115.98419793887037, 40.29829702724897], [115.98180130165554, 40.30260400204738], [115.96945832481254, 40.30753627208946], [115.97033436529215, 40.3103462356953], [115.96718467288783, 40.31783867112721], [115.97356442197228, 40.31935616422789], [115.97660745442207, 40.323016731006824], [115.98725895483103, 40.327768556113654], [115.99290717837901, 40.32422955927262], [116.00140884712447, 40.33187870428095], [116.01061997322415, 40.33337045236522], [116.02023027879659, 40.322967998101696], [116.01991778313835, 40.31917088596892], [116.02487996746554, 40.31102689285254], [116.03380406696726, 40.31137481568724], [116.03618081272386, 40.315489722318524], [116.04479537460543, 40.314435427695614], [116.05063602332316, 40.320790232154145], [116.04702559670812, 40.32546862890577], [116.05545515846708, 40.335404870297765], [116.06205138667436, 40.33555536746324], [116.06706262307044, 40.33840705465043], [116.07134446554946, 40.337916613189115], [116.07696565944306, 40.334275515662824], [116.07997521792893, 40.32937715791332], [116.09226828472731, 40.328562604630186], [116.09659809811934, 40.3300804219072], [116.10400537972296, 40.32937019546563], [116.11026519060641, 40.32222939933229], [116.10986797967139, 40.32051665223637], [116.11602481245069, 40.31137269549701], [116.12639388726154, 40.310557342484046], [116.13563418573221, 40.315466499559186], [116.13204944026943, 40.32325176249237], [116.13175500614986, 40.32955271129786], [116.1375810794417, 40.33466712146895], [116.13131436946718, 40.3351106417414], [116.13122964350401, 40.33934435644924], [116.13447823991397, 40.341625899925354], [116.13206780388718, 40.34380414260841], [116.13845948190108, 40.34712385389379], [116.14122803792336, 40.33924418803156], [116.1383978870645, 40.33521713707494], [116.14630096152267, 40.33631194537085], [116.14938196728595, 40.34350699324996], [116.14439166228755, 40.347843615298856], [116.13919286340791, 40.34962918756948], [116.14233660050996, 40.35554614205925], [116.14191695182406, 40.36039103482002], [116.1530068049402, 40.36486580712616], [116.16252700006694, 40.365335724687824], [116.16445610415651, 40.36797146151556], [116.17091526696417, 40.36956600788225], [116.17412482855732, 40.36632603779534], [116.1867906003191, 40.371435729270004], [116.20297545704005, 40.374918545562785], [116.20530211795678, 40.38044419905909], [116.2160945288741, 40.38081329502408], [116.2208711619939, 40.37981785237307], [116.22573059382165, 40.37370241563999], [116.23054681875368, 40.37614438371642], [116.23586475268517, 40.37622855626281], [116.23743395148884, 40.37853855352975], [116.24170407215064, 40.37319486042217], [116.24601438798253, 40.37502117457411], [116.24729033515315, 40.3799616987676], [116.25224753104003, 40.38191498375078], [116.25517613052693, 40.37928337055192], [116.26477270787088, 40.38141084815278], [116.27674671517207, 40.37397385428199], [116.28462034676731, 40.38187650074647], [116.28376341039245, 40.3903696958835], [116.2798986422111, 40.39473264526691], [116.28363619560297, 40.401233075259405], [116.281756314102, 40.403414513621364], [116.28549493477172, 40.40713767214485], [116.28240339662702, 40.41212861000859], [116.28332163647897, 40.41670982907071], [116.28582743156042, 40.41530326202016], [116.29052591612043, 40.419379465917345], [116.28833218847075, 40.427982189592115], [116.28455173505682, 40.434536494075466], [116.28367326203787, 40.43958655651373], [116.28824568183144, 40.44864505276206], [116.28770212335644, 40.45150059368805], [116.29482101281528, 40.457086166706546], [116.30070735287241, 40.464736639656174], [116.29550958146193, 40.46675997701015], [116.28865982127803, 40.47400864238205], [116.28556803290967, 40.48397519597348], [116.29103866955914, 40.48541821390592], [116.2976365315772, 40.48445779871149], [116.3040645374135, 40.490329570973245], [116.30704847933384, 40.49042138103376], [116.31704285604184, 40.49875131167962], [116.32436612810069, 40.49933414466156], [116.33043835929415, 40.49721150080051], [116.3360920741639, 40.49902085338514], [116.34239396802501, 40.49762373132288], [116.35078143388257, 40.50047741490353], [116.35963121792564, 40.4981580802709], [116.36334743316965, 40.498829230514595], [116.37124023223406, 40.495338384432486], [116.37230539628933, 40.49003458824999], [116.37053072133824, 40.484250390953875], [116.38103691347506, 40.48054792339969], [116.37978505809865, 40.47431084580079], [116.3873905448377, 40.47106433221505], [116.40018225887638, 40.480490336133414], [116.40735638548988, 40.48002292731366], [116.41034849512029, 40.48150709007096], [116.41465862629705, 40.4788002200304], [116.42684349644237, 40.476699070333474], [116.4369195342062, 40.48032256403488], [116.4496854091587, 40.47945855229862], [116.45165571886331, 40.486990159180934], [116.4593521559237, 40.48557284455059], [116.46199561262111, 40.48350007664022], [116.47737677980456, 40.48360424112193], [116.48119711018187, 40.48035947675494], [116.48602515969405, 40.47966370807133], [116.50225183498631, 40.48185592747614], [116.50548471817824, 40.48562086998129], [116.51306169422232, 40.490511016646764], [116.51312431894826, 40.49531395442728], [116.505881425652, 40.499821417600806], [116.50031722650144, 40.50687839356919], [116.49435499407241, 40.509551264634695], [116.49164671560519, 40.51672867528461], [116.48593607456381, 40.516711887853766], [116.48243128581895, 40.51446287197527], [116.47011250179946, 40.512768723838356], [116.4641310129801, 40.51752207917519], [116.45964192335211, 40.51735033249238], [116.45471260078128, 40.522897369975425], [116.46089934120715, 40.52861362215937], [116.46440175746449, 40.53396939365549], [116.47346560366773, 40.539967834363054], [116.4784178073548, 40.5514463701118], [116.49015127426252, 40.55371802218218], [116.49388680184929, 40.55954092803339], [116.49905142602715, 40.56121543947932], [116.50350020634599, 40.57140207441999], [116.50708991004709, 40.571444755693555], [116.51174963077602, 40.57841157632736], [116.51911637266888, 40.581684016430906], [116.52557917012604, 40.59000519912804], [116.52492833990142, 40.59457373172888], [116.52996398281691, 40.59814214144318], [116.5269198534773, 40.60514883067122], [116.52964687471379, 40.61438948146443], [116.53296121526073, 40.61837063432472], [116.53331760844097, 40.6243068515456], [116.5390441443551, 40.62578405827351], [116.54573437991719, 40.623933482008276], [116.55531454067756, 40.6272985677578], [116.56308857560477, 40.62423949039391], [116.5681992592944, 40.6304377905574], [116.5680093958349, 40.635036624123245], [116.55797421472964, 40.63564899997402], [116.54795401880472, 40.64159501208191], [116.54520773843102, 40.641540158747624], [116.54438889688753, 40.646313265616136], [116.53906128933527, 40.64880937075484], [116.53813805743117, 40.65245577036625], [116.53406807520352, 40.65535580884138], [116.52349389189864, 40.653238142496356], [116.52101663074099, 40.65704072390238], [116.51232645166439, 40.65953906948817], [116.51404746710672, 40.66272697719218], [116.5112136615239, 40.6643416021675], [116.50741343252581, 40.67093593000411], [116.49983428775438, 40.67163581988198], [116.49544764450344, 40.669742976657226], [116.48667178515852, 40.67251314280791], [116.48096242673896, 40.67285044420393], [116.4771839889148, 40.67790137866057], [116.4826393522584, 40.69046514394274], [116.49051040780377, 40.695403660776535], [116.49655654435479, 40.69590330117211], [116.49493968971447, 40.70081401992082], [116.49579941550927, 40.70532939139174], [116.49995589887185, 40.7094219137092], [116.4969948468719, 40.714423470645755], [116.49800218147469, 40.71866542875361], [116.50075178608519, 40.71857772366153], [116.504655964937, 40.724995745801365], [116.50339496715971, 40.734015376200695], [116.50761434349869, 40.739999533625735], [116.50035023028508, 40.74195239615918], [116.49568986619462, 40.74508512218646], [116.49677976772924, 40.75513484424752], [116.49411296143425, 40.7592997363132], [116.4893267714621, 40.75821037077624], [116.48523280696571, 40.76176069980522], [116.47899843818617, 40.763620451966965], [116.47408694033714, 40.77000898365163], [116.46527391370338, 40.76963319439568], [116.45918944728247, 40.77112631256115], [116.44765591345696, 40.764234878955236], [116.43809728560086, 40.76755557679867], [116.43139285184849, 40.765202822920386], [116.42550751069693, 40.76657598296991], [116.41851427675563, 40.765767518736695], [116.41014272844572, 40.767688661445355], [116.40794461266742, 40.77622348358895], [116.40148097555993, 40.77872594382817], [116.39686070981178, 40.776946001789675], [116.3862841843768, 40.776710122041955], [116.37350088273193, 40.770657490978294], [116.36464753026004, 40.770796689923365], [116.36137050760054, 40.76922964010921], [116.35489963062929, 40.77100443112226], [116.34682383708359, 40.76859512914692], [116.33668223293442, 40.77148661302301], [116.3268979813745, 40.77110361108057], [116.32391375472623, 40.77218450279451], [116.31135317685886, 40.77061921954021], [116.30697069734286, 40.76865352981331], [116.30175399738857, 40.76219633932805], [116.30492783235084, 40.753573506364525], [116.30175549997655, 40.75059309414461], [116.29858305076213, 40.7541295902806], [116.29169288879558, 40.75529513495416], [116.28476036789087, 40.762301096967974], [116.27525544700003, 40.76242339697117], [116.2712232449465, 40.76013265681813], [116.26731575034495, 40.76138758216243], [116.26802587467196, 40.764836477830514], [116.26374053688501, 40.769203782919654], [116.26344682389264, 40.77565398971792], [116.25487366698262, 40.781432687908364], [116.25169366867705, 40.7863893121995], [116.24179773865961, 40.79031826512185], [116.23907709699756, 40.78686903653438], [116.22886168044965, 40.78161725798712], [116.22946951397824, 40.77362887143518], [116.22559659159772, 40.76998356768004], [116.22381705662592, 40.76091588256695], [116.2275038316858, 40.75839997214579], [116.2171357749465, 40.75229149700168], [116.21430799029623, 40.74768162104318], [116.2141823278692, 40.74317083075203], [116.20705797971637, 40.738634787419436], [116.2043536427327, 40.74020371338773], [116.19850583784617, 40.73842900163082], [116.19949217063694, 40.731527657790316], [116.1915255953447, 40.725380938306124], [116.18603203470578, 40.72325180674333], [116.17865185274273, 40.71214231983109], [116.17485621040129, 40.71089913608731], [116.17162656366548, 40.706347333066304], [116.16992866068006, 40.69900434413295], [116.16504329978177, 40.69443343825433], [116.16739291068767, 40.687497633444146], [116.16519159487892, 40.68013460558182], [116.16210921378477, 40.67738079606422], [116.16129173234687, 40.67109656276245], [116.15636534160258, 40.66089850201748], [116.14508435962374, 40.66177980809521], [116.13648928393737, 40.6653985365801], [116.13055841090363, 40.666066335810896], [116.11882810304425, 40.652504244265856], [116.10680992238053, 40.64725651217592], [116.10511476848721, 40.64469962905489], [116.10632952963465, 40.639362444745906], [116.11401401946905, 40.63171209905128], [116.1156686763553, 40.62841729870763], [116.11194213705197, 40.62638820184687], [116.0979817766844, 40.62541996397586], [116.09245875776509, 40.62900650691318], [116.08208916253726, 40.625056165138744], [116.07941403720879, 40.62225903155357], [116.07028380820675, 40.61832910815897], [116.06708983730634, 40.610580096557065], [116.06341438885039, 40.608719636658606], [116.05633762629829, 40.60879556882084], [116.0519140133363, 40.60549005483988], [116.04454908243471, 40.60462128616082], [116.0382290304845, 40.60054964489123], [116.02605201290893, 40.59842579798959], [116.02373862686242, 40.59592273135032], [116.02221519933919, 40.60588507566464], [116.0189848072373, 40.605106802985404], [115.99889732918817, 40.582737138572995], [115.98993529118137, 40.58258733688493], [115.98906079619275, 40.57853428326713], [115.97601293294838, 40.57771870943503], [115.96900589016542, 40.58950203842351], [115.96587650677989, 40.601094355300546], [115.9597873739904, 40.599742303151295], [115.96130970968419, 40.604629688482305], [115.94904201961081, 40.60829303744775], [115.94227953021645, 40.60758138246169], [115.938626515869, 40.60987222545447], [115.92899829973736, 40.61210564320198], [115.92227038099644, 40.61155023047474], [115.9143485769619, 40.61543279760233], [115.90177777691345, 40.616095043444055], [115.89181715875293, 40.606908634566146], [115.88869776521159, 40.60568489180308], [115.88210286106025, 40.595834383459525], [115.87935865237688, 40.5940301372588], [115.86169325878677, 40.59457196903687], [115.8601428210735, 40.59215613414057], [115.84877869813691, 40.58891986395809], [115.84003371192068, 40.59180072767166], [115.82117824311668, 40.585747203257185], [115.81444925097061, 40.566952579980175], [115.81533039642503, 40.562027903167085], [115.81358995817975, 40.55806494638831], [115.80880886643641, 40.55612458071594], [115.79866100816537, 40.55734723094204], [115.79281202728025, 40.55638909528482], [115.78591640861065, 40.55997003105275], [115.77841537126066, 40.557047276033146], [115.77001689502862, 40.55082543480067], [115.7675891210926, 40.54724971728097], [115.7638617692764, 40.54666792824685], [115.75756279545863, 40.53924146300443], [115.75325208436792, 40.537581549630424], [115.74873287348849, 40.5387088954602], [115.74664075636495, 40.53495708281589], [115.74929825074105, 40.52969053190298], [115.74237553175588, 40.524762293826335], [115.7374630115972, 40.51714509339001], [115.73677377519434, 40.51253771856582], [115.72973004296188, 40.502681051072535], [115.73675523809452, 40.493651782901836], [115.73771658773002, 40.496939755703856], [115.76177504460067, 40.49703492209706], [115.7682240476385, 40.492606461687245], [115.7759106897163, 40.490775357150085], [115.76990075781467, 40.481405752178624], [115.77038310458292, 40.47621543137387], [115.76525311134466, 40.47155322349596], [115.76406078542782, 40.463636043918974], [115.76655303334965, 40.461009536404426], [115.77323304176942, 40.46278752545335], [115.7670983449165, 40.45610794366455], [115.76917173685307, 40.450754526600605], [115.7661778044918, 40.451543303434484], [115.7672457324005, 40.44683488478445], [115.76412655086204, 40.44288074129729], [115.78040068181706, 40.435796436864266], [115.78364848972645, 40.4312188429185], [115.79062722318275, 40.43127561013785], [115.79018797726593, 40.425580220198356], [115.8304120868556, 40.3845094367906], [115.83131429778724, 40.38008758754393], [115.8345026547202, 40.37993258247904], [115.84075350950802, 40.37393700952144], [115.84987570978899, 40.375987356309906], [115.85578876122928, 40.37230020096849], [115.8558530105861, 40.36369200492617], [115.85373587259944, 40.36100845132115], [115.85834766830865, 40.36080574958473], [115.85839009912813, 40.35822159975349], [115.86671163077438, 40.35849128043752], [115.87019075758347, 40.36104785394174], [115.87203486004253, 40.35827185578056], [115.8771474960746, 40.35845520374998], [115.87924243495671, 40.35593691925231], [115.88491810137647, 40.356814155476926], [115.8869912047793, 40.35447319651104], [115.90354717852001, 40.35654496306235], [115.91231091197236, 40.35281158825619], [115.91459143170665, 40.34539554212583], [115.91810388465697, 40.33998075855405], [115.91542818009529, 40.33759225010832], [115.91689240637801, 40.33182288385699], [115.92121962446092, 40.32852338478954], [115.91668435709215, 40.32482590505715], [115.92080312925759, 40.31853637713779], [115.9232482863932, 40.31997276356963], [115.92972475136905, 40.315633659172384], [115.93118750606824, 40.31196270193744], [115.93780757286585, 40.3098515602203], [115.93375730311391, 40.303311296202864], [115.93987705280072, 40.29510570877162], [115.9401075592569, 40.287941958891025], [115.94407341862318, 40.28812889141991], [115.94568120701491, 40.280914466681914], [115.94918860322004, 40.27587761760802], [115.95419652985012, 40.27379738823925], [115.95557392875588, 40.26810048585166], [115.9609556656814, 40.2644815773941]]]]}}