{"type": "Feature", "properties": {"unit_id": "beijing_110106", "name": "丰台区", "district_codes": [110106]}, "geometry": {"type": "MultiPolygon", "coordinates": [[[[116.25306169008836, 39.895442621483014], [116.24686999206641, 39.89516676658199], [116.22748779010705, 39.89089613854946], [116.22859761074791, 39.888327129260624], [116.22172849091415, 39.88784910190607], [116.22166604085628, 39.88261029151792], [116.2168897330638, 39.882752169584464], [116.21345453262808, 39.880096195354895], [116.21303628229992, 39.8754749033117], [116.2048206120425, 39.87682961485867], [116.20601572501332, 39.873431525661935], [116.20203366279208, 39.872871632586374], [116.19846836862475, 39.87862574489333], [116.19331095311121, 39.88201804909192], [116.18421090730165, 39.8802451049229], [116.17292822165437, 39.88137914649394], [116.16082737254418, 39.887424352227505], [116.15713643062325, 39.88554676729325], [116.14990180933266, 39.887682076405994], [116.14472425605794, 39.882695838272326], [116.14134887280427, 39.88392654719418], [116.12538055853648, 39.87988701927296], [116.11959923549804, 39.87656264731398], [116.11342159365844, 39.87608609688461], [116.10592714609427, 39.87185277193349], [116.09910556749692, 39.87115161942965], [116.09782945488676, 39.867441813700836], [116.089504859226, 39.867638572194856], [116.08085081925243, 39.864763856882746], [116.07201138132683, 39.86893834316098], [116.06415860617696, 39.86707704385325], [116.06104782901102, 39.864397106578934], [116.06388803519584, 39.85905489033062], [116.06468171794232, 39.852348070006364], [116.05027941901983, 39.84960693621457], [116.0483812820071, 39.84461420988039], [116.05520539182851, 39.84054678097903], [116.06267939337856, 39.839426924556975], [116.06988500569805, 39.83563988137963], [116.07230802203544, 39.83021527793188], [116.07805438622658, 39.82719749959884], [116.07943400369452, 39.83077804289644], [116.08342625745624, 39.828333165114074], [116.08190029376257, 39.82553343261112], [116.08328102498355, 39.814965201091304], [116.0798747456163, 39.81501676915187], [116.07851623443943, 39.81021329724144], [116.08081687572813, 39.801905006924294], [116.07929179931863, 39.7939419132324], [116.0856058611311, 39.78654102852161], [116.08527144675712, 39.78269656454115], [116.08830314436628, 39.78017021583351], [116.09505811654586, 39.78437080469766], [116.10070658517125, 39.78393069648948], [116.10005779736306, 39.78722235180877], [116.11349590362416, 39.78826899126131], [116.11445975373684, 39.78346403601274], [116.11877378286563, 39.783972204298244], [116.125225788284, 39.78174647299325], [116.12629431120091, 39.77725102879099], [116.12118337099886, 39.77766887299202], [116.11806281284306, 39.77536941562652], [116.11519346556089, 39.77766406170243], [116.111194213078, 39.77197514628835], [116.11517465844813, 39.760244756439704], [116.12219014695243, 39.76103343671264], [116.12753215484005, 39.765259558768065], [116.14180404356483, 39.76513163848879], [116.14266384202347, 39.767300739783124], [116.14974988027848, 39.76558435667662], [116.15650157354956, 39.76787784143639], [116.16352508758521, 39.78296218407096], [116.17684170134625, 39.78241610123832], [116.17721920032142, 39.778914124280966], [116.18187498166309, 39.780503594817624], [116.18829160650176, 39.779309288641635], [116.18833398033856, 39.77722355676904], [116.19428860200355, 39.776891877772286], [116.19575506067093, 39.78701141047517], [116.19575363693662, 39.79839844503936], [116.20197898866023, 39.8051028537489], [116.20132889665433, 39.80956350861767], [116.21069598636768, 39.81566752752298], [116.20839086831542, 39.817733263071254], [116.2080544300109, 39.82346439142898], [116.22117153380013, 39.82382220970746], [116.22226004345389, 39.82597214410541], [116.2335894298691, 39.82565607368125], [116.23698006774787, 39.823930980895845], [116.23827904587091, 39.81735402024702], [116.245624707424, 39.81207947246283], [116.24759233985536, 39.806021142733094], [116.24491480752442, 39.80022228241757], [116.24550214745719, 39.7918500693647], [116.25328298303509, 39.79641169006445], [116.25616969549613, 39.7915725143989], [116.26821120537205, 39.79572039354725], [116.28120600404995, 39.797875261118364], [116.28314898956452, 39.794664270461], [116.29004028235497, 39.794329407970075], [116.28511272261123, 39.7920390963803], [116.28916419197631, 39.789721003385644], [116.29549191867729, 39.7736963221122], [116.30100354624922, 39.768832068868704], [116.30461430932503, 39.77079782691556], [116.31189587651322, 39.782173898982684], [116.31569363101096, 39.782345897436336], [116.31677740356037, 39.79710260314511], [116.32072060335067, 39.79709517170604], [116.32211806921572, 39.80012226698058], [116.33398985186784, 39.80083247580521], [116.33561646347312, 39.80626895247152], [116.34953510673164, 39.804322618397705], [116.35066241770593, 39.799124083702445], [116.36084870680737, 39.79845665052913], [116.36199728776785, 39.79345435412448], [116.35955478055874, 39.7927900887689], [116.36139260627006, 39.783599108092915], [116.37227110927573, 39.78426845866037], [116.37300188874208, 39.77801217556141], [116.37939405913428, 39.77746752614512], [116.38442891396123, 39.779076122584506], [116.3856837915673, 39.76388868011537], [116.39266432652794, 39.764471682933724], [116.39167986987088, 39.779674653389016], [116.3897981875112, 39.785345085155214], [116.41401632231666, 39.78604544775108], [116.41481006642883, 39.792740288567884], [116.42305834463103, 39.79271433420838], [116.4231822969714, 39.80219466862556], [116.41949787412034, 39.80396643055253], [116.41623114930184, 39.809045799514], [116.41154382646242, 39.80873345337448], [116.4090322333494, 39.81112740839986], [116.4037818364507, 39.80993760432086], [116.40392813298674, 39.815653186629866], [116.41353143426302, 39.81397894284953], [116.41221160638781, 39.82151779146051], [116.40819438972126, 39.82288333018554], [116.40955332511022, 39.82802935730246], [116.41384322795851, 39.82521429566968], [116.41899198955745, 39.83050912715437], [116.42583807531042, 39.831541141800585], [116.43052814613617, 39.83994596439562], [116.43438312129723, 39.838275191229336], [116.43612192169348, 39.84229845564231], [116.44050188203867, 39.84289131198409], [116.43978882918417, 39.84695888913658], [116.44429492686976, 39.84734163428299], [116.44496510319159, 39.850646661512165], [116.45414947497504, 39.84727930061344], [116.46165677849804, 39.85468607137633], [116.45716818922888, 39.85488755777517], [116.44989030628037, 39.85986764428029], [116.44804577460235, 39.85802508038107], [116.44198671303786, 39.862277699407436], [116.44016404833877, 39.859491780614064], [116.43676835260912, 39.86471112891486], [116.43743783619135, 39.871464791899946], [116.43636983161043, 39.870503222902194], [116.41697687428398, 39.87142633105038], [116.40741413985785, 39.869746311275755], [116.40965402303405, 39.862244306568854], [116.40622331443151, 39.85754074952073], [116.40061846452886, 39.85856547854783], [116.38926638026423, 39.85728425425322], [116.38872221330622, 39.861336340084044], [116.38165946219377, 39.86597917872088], [116.37441201645942, 39.86466838303474], [116.37436942564806, 39.8697621596653], [116.34441411478649, 39.867349643734414], [116.34330792033555, 39.87224940290964], [116.33813345283184, 39.87232400410333], [116.33542029065877, 39.87483500300744], [116.32914078888707, 39.8738710555674], [116.32052322581687, 39.87556345433225], [116.3152232204267, 39.87391349045123], [116.31465866434206, 39.880227218830605], [116.31970727380453, 39.889816304769525], [116.31968561016436, 39.895494082302775], [116.3079380377317, 39.895498650147466], [116.29673020348702, 39.8906705183311], [116.2889635829452, 39.88559006987797], [116.28892144306016, 39.895252673933584], [116.26017134865357, 39.895034701404924], [116.25306169008836, 39.895442621483014]]]]}}