{"type": "Feature", "properties": {"unit_id": "beijing_110105", "name": "朝阳区", "district_codes": [110105]}, "geometry": {"type": "MultiPolygon", "coordinates": [[[[116.58974963759407, 40.01646548875512], [116.57200116090323, 40.02645387581868], [116.57298470650363, 40.032039696442055], [116.56464962106581, 40.03136311826986], [116.55840505822785, 40.038576886677056], [116.54488311013135, 40.04439405448304], [116.54066787986363, 40.0478412957731], [116.54689531687771, 40.05377890085489], [116.54588805820318, 40.0586614525594], [116.54190372939642, 40.061605375527236], [116.5372895938575, 40.05828463763501], [116.5284565152698, 40.065644620993524], [116.5200408487108, 40.070164183041946], [116.50795147086805, 40.069221074897825], [116.50075064711734, 40.07312533074487], [116.49327638614672, 40.079137594463596], [116.48055574520536, 40.07974942753407], [116.47681992308928, 40.08244775662672], [116.46739721262612, 40.08423942684098], [116.46485842282041, 40.08806073232444], [116.46066208030618, 40.088845442297405], [116.4600762791132, 40.08100959633265], [116.45567138460113, 40.07947460566368], [116.45642708913174, 40.07543755898011], [116.45263145509843, 40.074439339890795], [116.45244362900578, 40.06902028626595], [116.45594589775041, 40.06596107920727], [116.45322009654039, 40.05863756203394], [116.44521110926522, 40.05991950543544], [116.44542093975662, 40.05738904145016], [116.43663923728042, 40.05993811738153], [116.42702352884491, 40.0608825541756], [116.40935730728656, 40.05459057870444], [116.40333259524421, 40.05421559178688], [116.39986225237874, 40.048358064375364], [116.40262310421838, 40.04188125238738], [116.39900571539334, 40.037564752947134], [116.38907676829491, 40.03536048448909], [116.38671477787138, 40.040328684122024], [116.38439571986737, 40.039876348695564], [116.38399866951819, 40.03518489109604], [116.38884741713653, 40.03144881218427], [116.3724696110904, 40.02979040986935], [116.3446865170335, 40.0253523217252], [116.3703235779644, 39.991584718040166], [116.37496105561135, 39.976584919987374], [116.37466910643627, 39.9713214504161], [116.38785176447736, 39.97145602632471], [116.38791516249024, 39.96799512481978], [116.38384053007412, 39.96700699537702], [116.38141778886609, 39.95953327443495], [116.38325573337761, 39.96174166227002], [116.40162943234063, 39.96077584697033], [116.40125191523234, 39.972588397064754], [116.40484962689872, 39.97005357568923], [116.40516453009575, 39.963521868582255], [116.40794672539158, 39.96077646849204], [116.41861901756621, 39.960878569501176], [116.42276523844177, 39.95587713158327], [116.42324774288662, 39.94875885407684], [116.43047333935729, 39.947856732058774], [116.42919490842192, 39.95073106430963], [116.43602426924951, 39.94831927436163], [116.43434864151811, 39.94391202902101], [116.44013215011353, 39.94483083759344], [116.4374928432772, 39.935285010925455], [116.43747281971703, 39.927286304380004], [116.42808818020256, 39.927289714839915], [116.42876008606129, 39.91257510502319], [116.43026901131705, 39.90065543999424], [116.44252691784214, 39.901877685704264], [116.44062007172536, 39.89867057752688], [116.44095655160653, 39.89281540924119], [116.44468711294488, 39.89272395947934], [116.4447507510167, 39.888885255934554], [116.43785550254333, 39.88866258530837], [116.43944918414873, 39.877910639684906], [116.43743783619135, 39.871464791899946], [116.43676835260912, 39.86471112891486], [116.44016404833877, 39.859491780614064], [116.44198671303786, 39.862277699407436], [116.44804577460235, 39.85802508038107], [116.44989030628037, 39.85986764428029], [116.45716818922888, 39.85488755777517], [116.46165677849804, 39.85468607137633], [116.45414947497504, 39.84727930061344], [116.44496510319159, 39.850646661512165], [116.44429492686976, 39.84734163428299], [116.43978882918417, 39.84695888913658], [116.44050188203867, 39.84289131198409], [116.43612192169348, 39.84229845564231], [116.43438312129723, 39.838275191229336], [116.43052814613617, 39.83994596439562], [116.42583807531042, 39.831541141800585], [116.41899198955745, 39.83050912715437], [116.42384877413028, 39.828722347022264], [116.43078091882995, 39.829266973626936], [116.43046780913807, 39.826042800846025], [116.43972843794245, 39.82532318209203], [116.43771697207792, 39.81958838433007], [116.44656165018426, 39.821655510962024], [116.45662768105787, 39.814609956030395], [116.46233310311437, 39.81318942077613], [116.46814545863272, 39.8084653540918], [116.47918342943392, 39.81144302070923], [116.47956026945043, 39.81561277373332], [116.48932108866192, 39.817546861181775], [116.4921762396368, 39.81446053683826], [116.4998169861998, 39.81664919718], [116.49679334643012, 39.81778006258599], [116.50416203636522, 39.82024494353396], [116.50462301696955, 39.82643388867961], [116.51020573197204, 39.82864832698627], [116.51944150861003, 39.82859412827001], [116.51994565414714, 39.82574575182062], [116.52905323137702, 39.82368691103104], [116.53226226689657, 39.827082064173], [116.5272893797352, 39.831594661021406], [116.53681422894347, 39.82909537210097], [116.53779960877532, 39.83396645128568], [116.5527717114673, 39.83360817487381], [116.56358395571742, 39.832437779972764], [116.57135520859569, 39.82963231203725], [116.57169002353568, 39.82648991242501], [116.58123556941541, 39.82718282166851], [116.57795026501789, 39.82387442503365], [116.58581878529434, 39.822837973137794], [116.58569342786305, 39.82532973440528], [116.59345326707127, 39.82455050473351], [116.59320153417667, 39.83062404567241], [116.59646424458839, 39.83064042015242], [116.59612821090393, 39.83969181613104], [116.60258723023196, 39.84550291753123], [116.59888788094877, 39.84509647308048], [116.59840655553606, 39.84903526133451], [116.60766532501135, 39.84914702058585], [116.62115713097397, 39.85963493060547], [116.61420151565189, 39.86790824889167], [116.61913010648426, 39.87620291467034], [116.61852348717323, 39.88010824780813], [116.6231804233214, 39.88054282251733], [116.62177956342364, 39.889426797260754], [116.60981263805618, 39.88875288621142], [116.609519220673, 39.89446177031135], [116.61522166876179, 39.897809046823596], [116.61756000364119, 39.903223974302264], [116.61444753442, 39.90662521160635], [116.61720432083754, 39.91277084815112], [116.61515580839965, 39.92205704079419], [116.62476194315632, 39.92061733882081], [116.61835080331684, 39.928932214981046], [116.62348688777598, 39.930260291924505], [116.62386237063157, 39.93767259908048], [116.6276195940986, 39.939847325695446], [116.62467511187543, 39.94510043584681], [116.6264075896608, 39.94948734201279], [116.63943073380763, 39.944902168036045], [116.63723877231895, 39.95191114176633], [116.635985469128, 39.96850428589276], [116.63398011556419, 39.98153755783664], [116.62819856482281, 39.98063500950968], [116.62782270508158, 39.98513627159748], [116.633291015082, 39.98581131791654], [116.63448014774, 39.98910755834275], [116.63790283100975, 39.98853369491104], [116.63683730174606, 39.99568194933169], [116.63174524570512, 40.001292712720705], [116.62690270402632, 39.9987647727926], [116.61994962573655, 40.00206882846553], [116.62230848320715, 40.0065973749146], [116.6140803132413, 40.010745169224215], [116.59552232273742, 40.012829883481594], [116.58974963759407, 40.01646548875512]]], [[[116.59788009715224, 40.05190399326112], [116.60260394141514, 40.05386630542824], [116.59766602490552, 40.08576387771313], [116.5971012971701, 40.09283537187832], [116.59258348102638, 40.102825100087664], [116.59289775721136, 40.09246194688745], [116.59009585096847, 40.089169446205666], [116.57454779773052, 40.08729307391482], [116.57249460209067, 40.101676817449494], [116.56824314852604, 40.10674728879105], [116.56849595295307, 40.09507151517886], [116.57233060723398, 40.075400501346415], [116.57559745062942, 40.066789474108475], [116.57557569885078, 40.072760078074886], [116.58078737791821, 40.07328353571627], [116.58432588453348, 40.05511299208627], [116.58215125234413, 40.04947992834615], [116.58539395978276, 40.050747838574146], [116.58619037579955, 40.042081723020466], [116.59401310025575, 40.04036336496809], [116.59361540976204, 40.04612599425126], [116.59583116821221, 40.04661323311327], [116.59271474609949, 40.05149752801705], [116.59788009715224, 40.05190399326112]]]]}}