{"type": "Feature", "properties": {"unit_id": "beijing_110101", "name": "东城区", "district_codes": [110101]}, "geometry": {"type": "MultiPolygon", "coordinates": [[[[116.43743783619135, 39.871464791899946], [116.43944918414873, 39.877910639684906], [116.43785550254333, 39.88866258530837], [116.4447507510167, 39.888885255934554], [116.44468711294488, 39.89272395947934], [116.44095655160653, 39.89281540924119], [116.44062007172536, 39.89867057752688], [116.44252691784214, 39.901877685704264], [116.43026901131705, 39.90065543999424], [116.42876008606129, 39.91257510502319], [116.42808818020256, 39.927289714839915], [116.43747281971703, 39.927286304380004], [116.4374928432772, 39.935285010925455], [116.44013215011353, 39.94483083759344], [116.43434864151811, 39.94391202902101], [116.43602426924951, 39.94831927436163], [116.42919490842192, 39.95073106430963], [116.43047333935729, 39.947856732058774], [116.42324774288662, 39.94875885407684], [116.42276523844177, 39.95587713158327], [116.41861901756621, 39.960878569501176], [116.40794672539158, 39.96077646849204], [116.40516453009575, 39.963521868582255], [116.40484962689872, 39.97005357568923], [116.40125191523234, 39.972588397064754], [116.40162943234063, 39.96077584697033], [116.38325573337761, 39.96174166227002], [116.38141778886609, 39.95953327443495], [116.38054118954271, 39.9556182000706], [116.38710128272912, 39.95595411426655], [116.38802276093283, 39.93922819638698], [116.38992461290476, 39.93865812930102], [116.39044880826621, 39.926904329109675], [116.3932300342626, 39.92217125354175], [116.38593563005776, 39.92102129723002], [116.38602141492407, 39.90648285692746], [116.38932306801784, 39.90659478960527], [116.38984683812144, 39.89803988281713], [116.39137208386448, 39.89727414417888], [116.39285973888146, 39.870804767046764], [116.37436942564806, 39.8697621596653], [116.37441201645942, 39.86466838303474], [116.38165946219377, 39.86597917872088], [116.38872221330622, 39.861336340084044], [116.38926638026423, 39.85728425425322], [116.40061846452886, 39.85856547854783], [116.40622331443151, 39.85754074952073], [116.40965402303405, 39.862244306568854], [116.40741413985785, 39.869746311275755], [116.41697687428398, 39.87142633105038], [116.43636983161043, 39.870503222902194], [116.43743783619135, 39.871464791899946]]]]}}