{"type": "Feature", "properties": {"unit_id": "handan_130403", "name": "丛台区", "district_codes": [130403]}, "geometry": {"type": "MultiPolygon", "coordinates": [[[[114.80722772721614, 36.662559513977016], [114.8051645994204, 36.671063803600454], [114.80672132406494, 36.6751648998894], [114.80860057322222, 36.69029967053961], [114.80212765446645, 36.697925977834615], [114.76671835729204, 36.70352527290479], [114.76217559212678, 36.69347629569382], [114.76138883053879, 36.687593670276165], [114.76407572604299, 36.683853246042055], [114.7439717696045, 36.67248866266662], [114.73822240981596, 36.67096664578304], [114.73453219925138, 36.66708199138545], [114.73247484351278, 36.66647566877822], [114.71795967605271, 36.66908341451535], [114.72263536788283, 36.680150505087155], [114.71156938302565, 36.69597860027367], [114.69958178714187, 36.69696084811352], [114.69980279808956, 36.70210921278027], [114.68947036270731, 36.70880866049311], [114.60815628983208, 36.71395320867439], [114.59951985175181, 36.710253949439974], [114.59198867115302, 36.71808131025802], [114.58986832426628, 36.719064053491195], [114.58071782175453, 36.720745968632855], [114.55386382685774, 36.725249184186886], [114.54248894460449, 36.725573184872744], [114.52367475122308, 36.7233467130383], [114.52355357058171, 36.720792039911615], [114.52018977433852, 36.7205317818796], [114.51931927804453, 36.72178249748861], [114.51575340155384, 36.72130956330908], [114.50732444190922, 36.714209366683086], [114.50254230107412, 36.71124498522836], [114.49970469784469, 36.71125646790005], [114.49846910455227, 36.707020483640385], [114.4957130042604, 36.70542125084461], [114.49611838833492, 36.70791986269586], [114.49070815010484, 36.709522706912715], [114.48509449354323, 36.70965113193449], [114.48464853818521, 36.7112208265856], [114.48110242913933, 36.711596378849585], [114.48187148813129, 36.72043785701522], [114.46773077087778, 36.720216348251235], [114.44790789715421, 36.72075970328459], [114.4470382306289, 36.7134697399511], [114.4288306752254, 36.71278582376699], [114.40748977780041, 36.71137378946196], [114.38367146994503, 36.70626101647307], [114.37534151816904, 36.70625975982938], [114.37429377504489, 36.70256826550831], [114.36973602184403, 36.701773171677125], [114.35901268397224, 36.70155740480777], [114.35834788650858, 36.69885815629258], [114.35109238655153, 36.69925580118845], [114.35101130468661, 36.70109776766901], [114.34810965394234, 36.70286668037352], [114.34309269536281, 36.704350747049595], [114.34069513099406, 36.70088437737451], [114.33811600767336, 36.705777069522476], [114.33368328648531, 36.70977689640684], [114.3330182197402, 36.71187981155859], [114.33368274638468, 36.714616778827605], [114.33585750389851, 36.71851612270544], [114.33783186887717, 36.720344209264105], [114.33630039663944, 36.72151333815044], [114.33065920725613, 36.72232356030364], [114.32858502855031, 36.72087247979291], [114.32562363855405, 36.717340448628256], [114.31859199079248, 36.716033668978994], [114.3205473386904, 36.709715049259664], [114.31976229726989, 36.70427002533704], [114.3200245028242, 36.698378283589975], [114.31865491225327, 36.697822221955725], [114.31639932558217, 36.69251280964062], [114.31569392758296, 36.68874449608791], [114.31770886081702, 36.68579958260506], [114.31724626346646, 36.680235924242744], [114.31515085466582, 36.67956424458578], [114.3142245918182, 36.67775308158275], [114.31617994136148, 36.672309827318344], [114.32280760196916, 36.67217140432674], [114.33233795553515, 36.671227738160795], [114.33930793157957, 36.670211170990115], [114.34384069513774, 36.67533364244577], [114.35401734851891, 36.66924964175742], [114.36933783154126, 36.662532155422504], [114.37320903643811, 36.66392662746467], [114.37492213906816, 36.668120143748034], [114.3826674502507, 36.66598105798767], [114.3873682167631, 36.66188814760797], [114.39073887425697, 36.65985047590897], [114.39275715354606, 36.65668547133334], [114.40483014974079, 36.65571812944362], [114.40844600457223, 36.654001829153614], [114.40646738111712, 36.645810310287374], [114.40628554362654, 36.643194837837115], [114.41751867760915, 36.63729404748959], [114.41915524604904, 36.6433166384797], [114.42180326014456, 36.64264317186223], [114.42240873146862, 36.64694713752423], [114.42869632341653, 36.65119007828988], [114.43344913534496, 36.65063645967738], [114.43741332553353, 36.64909816307399], [114.44664028408171, 36.64916205081906], [114.44647861042147, 36.65113056135036], [114.4493927066989, 36.653557793614716], [114.4509313967096, 36.6524605862253], [114.4595969691942, 36.65213293340168], [114.45994093014784, 36.65386070240324], [114.46524725767094, 36.65367075568348], [114.46571303102415, 36.65257159161882], [114.47369438375837, 36.65205285501377], [114.47179240799629, 36.63244038181254], [114.47051773259143, 36.61380877888262], [114.46946602236316, 36.60330296716743], [114.48285719293533, 36.60398655590017], [114.50391186961862, 36.60116160154375], [114.52433657082761, 36.59971470940547], [114.53312742085711, 36.59949722586036], [114.53460572279586, 36.597723967226344], [114.5333295845849, 36.59520113877396], [114.53379646437392, 36.59276867703655], [114.53181184467068, 36.58983820729075], [114.5355177175385, 36.589509808172544], [114.53385734171418, 36.58654126509359], [114.53928464253798, 36.58596494422132], [114.54416375067254, 36.588960561530286], [114.54863700436418, 36.58903716025605], [114.55325088224647, 36.58762713988142], [114.55359548031186, 36.59056317827073], [114.55513248190914, 36.59045011131567], [114.55547700724078, 36.5937729033033], [114.55952265305388, 36.595894787408334], [114.57284889885726, 36.59755436041716], [114.57264647930776, 36.59841365654659], [114.57868854111129, 36.605515571908], [114.58844572292104, 36.6116521731308], [114.60296100340457, 36.61453969770323], [114.62180008919536, 36.614961804244196], [114.62121613591769, 36.610714793383345], [114.62770764831559, 36.610736845868786], [114.62776808424411, 36.60588152829394], [114.62903867603542, 36.60334043910446], [114.63252478563669, 36.602959221069604], [114.63359332969362, 36.601558577624715], [114.63341217747247, 36.59615184613163], [114.63520646172073, 36.58614491118271], [114.63710181743924, 36.58226033457535], [114.64175589239028, 36.58147074353676], [114.6414737423149, 36.57821695115177], [114.64370968549743, 36.57813645418703], [114.64364996294532, 36.57656240165631], [114.6566009875471, 36.57641411734099], [114.65774818714533, 36.57957030595919], [114.66008377642291, 36.582695281295535], [114.65978108790296, 36.58598804378685], [114.66155364107738, 36.59116088447634], [114.66872122055548, 36.59448843513576], [114.67093590318662, 36.597197683612116], [114.67582962015867, 36.59857853572389], [114.6786083290805, 36.5984573064052], [114.68019912403312, 36.594843305533544], [114.67915300098042, 36.590026954336025], [114.68338155387367, 36.58960322678476], [114.69008707441341, 36.58781493516877], [114.68996665829899, 36.584782814334275], [114.69850708227412, 36.58414043950851], [114.69993545269136, 36.59182387838328], [114.7015472410574, 36.59283573401705], [114.70628060347755, 36.601353727574846], [114.71097357988609, 36.610779745501404], [114.7165952553224, 36.617008002392694], [114.71641326427583, 36.6193538709927], [114.71131507737383, 36.6195342691517], [114.71111399902254, 36.623279376172725], [114.71881147093904, 36.62326981323575], [114.72405160975565, 36.625570996426006], [114.74738644767831, 36.63169659426255], [114.75727573040572, 36.63659039312257], [114.78325115613767, 36.64741566663468], [114.78333193569438, 36.65048391946765], [114.78668678961667, 36.65069083318562], [114.7872933495716, 36.6540395804265], [114.79863462511281, 36.65496208131171], [114.80128361055898, 36.6554589613013], [114.80065574529871, 36.66151628018894], [114.80722772721614, 36.662559513977016]]]]}}