{"type": "Feature", "properties": {"unit_id": "handan_130408", "name": "永年区", "district_codes": [130408]}, "geometry": {"type": "MultiPolygon", "coordinates": [[[[114.80722772721614, 36.662559513977016], [114.82128499228439, 36.66349121200182], [114.82569371885997, 36.664878604192985], [114.82632085071964, 36.66745520186663], [114.83613082511107, 36.66703981341453], [114.84031804474705, 36.66645886322852], [114.84134880184723, 36.670802063799506], [114.84341183805003, 36.67422965638819], [114.84037816562703, 36.67587316830148], [114.84193522361812, 36.67860529183768], [114.84401756574412, 36.679390532978836], [114.84502845890702, 36.68154298297907], [114.84290490013854, 36.68227174983131], [114.84494761295576, 36.68785988411353], [114.84611990759419, 36.68924007787989], [114.85346018206168, 36.692840228594974], [114.8617099989643, 36.69308376332583], [114.86181021727174, 36.70197426078158], [114.86083974303833, 36.70043983118755], [114.85689675806053, 36.70073269032415], [114.85511710264134, 36.704191679538354], [114.85519785342136, 36.70793241085548], [114.85279128228684, 36.70792852383171], [114.85190127740533, 36.710520390445126], [114.85240703114354, 36.71267083998594], [114.85545963820661, 36.71450659155575], [114.85693568421736, 36.720784839245994], [114.85986691445186, 36.72061540821229], [114.86217153983749, 36.72330801607761], [114.86243275242764, 36.73471990920039], [114.85774254314107, 36.73574428886358], [114.85857073018622, 36.7384727520475], [114.858226818246, 36.741276373228054], [114.85978357978733, 36.74108584582861], [114.86186584845774, 36.743710151843054], [114.86493897047616, 36.74237433133935], [114.86511999291966, 36.74481295704556], [114.86687856092239, 36.74596152519144], [114.86762631042772, 36.74933524211529], [114.86699891776706, 36.75366054250866], [114.86560473363893, 36.754275293885826], [114.86659502073482, 36.756377194927964], [114.86847470427983, 36.757198053629814], [114.8722128252427, 36.75709659782002], [114.87334396407412, 36.759881993201645], [114.8734654995458, 36.765643241140936], [114.8701511063432, 36.76615008151283], [114.87061518287373, 36.771362105415534], [114.86392512271132, 36.77265360741769], [114.86143812373231, 36.771792670836106], [114.85820344575194, 36.77236547016624], [114.85802091905227, 36.774233921102805], [114.85215750008886, 36.77838575235124], [114.84238923849443, 36.78061232469175], [114.82695552249551, 36.785756200298465], [114.81811562781009, 36.786836987962786], [114.80642567421557, 36.78628659726784], [114.79473821428108, 36.78687464375007], [114.78475194421677, 36.78840227717872], [114.77446580761105, 36.79037524470299], [114.76812212140315, 36.79788222554387], [114.76511166160688, 36.80953933971662], [114.76466596761747, 36.82236214941986], [114.76201962867053, 36.82965676017684], [114.75541768744561, 36.83395669520989], [114.74994682612466, 36.83689118015707], [114.74675869773944, 36.84098155698218], [114.74304488880809, 36.84799738562933], [114.74393170486655, 36.856176347954495], [114.74629217511605, 36.855646240662246], [114.74657458338392, 36.86055270929703], [114.74142913302522, 36.86048702630144], [114.7414697814436, 36.86353684186569], [114.73729387383273, 36.863846374505556], [114.73533783767937, 36.866579469759714], [114.7169713128881, 36.86874120984929], [114.71606318686675, 36.87278241506087], [114.71080427602762, 36.873654564576974], [114.7168891105136, 36.88080269301722], [114.7336611265176, 36.88415392049169], [114.74364661110363, 36.885159744973635], [114.75189935460695, 36.887053527389575], [114.75726796984371, 36.890535857103046], [114.76090170834088, 36.896748575206665], [114.7600321542001, 36.90729667757344], [114.75956775979098, 36.909094224002224], [114.75567133617076, 36.910536144136856], [114.7536920485705, 36.91881288431521], [114.75627533831408, 36.92097676465409], [114.75875845397626, 36.92714798369454], [114.75359035377767, 36.92499442835672], [114.75336806346203, 36.92735870368589], [114.74735401410214, 36.9282530991414], [114.74604198049641, 36.93066555558895], [114.73754924327662, 36.93190846087751], [114.73722597588362, 36.93609860837877], [114.73339358681201, 36.93643754711739], [114.73032791144276, 36.93874601376875], [114.73012682928817, 36.941158431181755], [114.7287349896217, 36.94256250649189], [114.72500493889972, 36.942296930982494], [114.72288885650062, 36.93826287178972], [114.71480688499264, 36.93823299954098], [114.71232878762824, 36.937755525687], [114.71224850803073, 36.93235451392737], [114.70906476032711, 36.932358856049916], [114.7088845768862, 36.92770645461963], [114.70586186689276, 36.92774980675984], [114.7031430055528, 36.926369930639176], [114.70203548884216, 36.922766252913384], [114.7033850979123, 36.92139013575369], [114.70135134887222, 36.91770197638505], [114.69436137330953, 36.91730986295737], [114.6943825151127, 36.915608049633924], [114.69009283836073, 36.91328925788009], [114.67615787897246, 36.913843813864375], [114.67031807109494, 36.91522900803818], [114.6696534834766, 36.91618259641099], [114.66532419731743, 36.91718114658657], [114.66524380926315, 36.91320115962724], [114.66304907707446, 36.91004158707957], [114.65946497073412, 36.910424025614034], [114.6575925566729, 36.90572585969574], [114.65314204191017, 36.90554104791982], [114.65138993185131, 36.90307291549231], [114.64639494288976, 36.90254383699048], [114.64637530986134, 36.899486064272246], [114.64317249466225, 36.89820220844785], [114.63424669794496, 36.89816752666574], [114.63201012233439, 36.897727841463805], [114.63120392402563, 36.901171415888754], [114.62416905385896, 36.9009588309317], [114.623907705221, 36.89766047339616], [114.62084323361425, 36.89522127977861], [114.61614548588462, 36.894398899623965], [114.6151570778188, 36.89579364236425], [114.60436397359595, 36.89542449722184], [114.60258830006876, 36.89431874903769], [114.59962169362252, 36.89028010907331], [114.59514086690392, 36.88877016671497], [114.59362618705099, 36.889606359138924], [114.59340382927903, 36.8920395763365], [114.5827809064829, 36.89158344695566], [114.58271964621784, 36.893410097223], [114.57968914741838, 36.8936197360107], [114.57784965144918, 36.89482033213944], [114.57520189521483, 36.89490478523346], [114.57496002855117, 36.890278858335556], [114.57075525894456, 36.88977358964199], [114.56135232305499, 36.89112650888151], [114.56082643189879, 36.88833666512291], [114.553097278707, 36.888543867283445], [114.55158035005626, 36.88694506413235], [114.55156062138715, 36.88392418761404], [114.54599465974441, 36.88386469733651], [114.54641934953068, 36.87995141456651], [114.54844432108312, 36.87959995827768], [114.55040735209498, 36.87536200995507], [114.54741280148312, 36.86587058800543], [114.54791947011446, 36.8641119104351], [114.55002454814843, 36.86357763934782], [114.55010567502664, 36.85522674071266], [114.54891285499242, 36.85000900033784], [114.54952003892049, 36.84578623944344], [114.54721269866731, 36.84280752992049], [114.54073516239848, 36.83906868931334], [114.53166383037501, 36.835764604971395], [114.5115268826012, 36.82888516842027], [114.50186077784392, 36.82763326434655], [114.47782728701715, 36.83215450010361], [114.47290437801452, 36.83282449053188], [114.46887212675061, 36.83531603480109], [114.46682614900358, 36.8403052365713], [114.46160078897148, 36.840359219419646], [114.45678158023878, 36.84148416405508], [114.4562341684712, 36.847198890985624], [114.44803510830485, 36.84708472642492], [114.44265253833635, 36.844524548777144], [114.44214655760356, 36.841444843441316], [114.43737171018704, 36.84084045809716], [114.43128308474547, 36.84159233509971], [114.4268754900037, 36.84151915898086], [114.42483317946031, 36.83863006428161], [114.42267060199795, 36.83836819133833], [114.41501079854534, 36.838959171230854], [114.41157590856416, 36.83996780485566], [114.41026232848829, 36.84267140352084], [114.40664741977844, 36.84167015510664], [114.40688909510236, 36.84612505206832], [114.40309157651099, 36.84659630088005], [114.40208213815765, 36.845826841316295], [114.4018605326726, 36.84139098131296], [114.40016478794422, 36.84142007100378], [114.38948722031932, 36.844127669039565], [114.38375660839912, 36.846343902348565], [114.3751435604096, 36.84897906031191], [114.35373531414925, 36.85107747640101], [114.36425774046089, 36.837290973171804], [114.36841174770728, 36.831491422833444], [114.36929913612089, 36.82880517181839], [114.36770763143261, 36.81257857855507], [114.36746714613167, 36.8014586163313], [114.36387977846466, 36.79667785182345], [114.3591238338697, 36.787787034773125], [114.35610019490602, 36.78620289518709], [114.35995015661724, 36.78404033438984], [114.3626923040091, 36.77824720434314], [114.36817514884724, 36.77701647130622], [114.37210758272641, 36.774344399933064], [114.37085845438735, 36.76809414072369], [114.37150327098291, 36.764316911980224], [114.37400458801537, 36.75961317545936], [114.3746503954739, 36.75660647772099], [114.37188793938752, 36.755232560458246], [114.37051699610848, 36.748469738763475], [114.36872277842106, 36.74861690080294], [114.3656993027958, 36.74653031434477], [114.36303879711338, 36.743450114025784], [114.35584393899414, 36.73840250102168], [114.35415141000061, 36.73824137576951], [114.34725941448787, 36.734986351489674], [114.34190109513753, 36.72759390314979], [114.3412766971338, 36.72272823108226], [114.33783186887717, 36.720344209264105], [114.33585750389851, 36.71851612270544], [114.33368274638468, 36.714616778827605], [114.3330182197402, 36.71187981155859], [114.33368328648531, 36.70977689640684], [114.33811600767336, 36.705777069522476], [114.34069513099406, 36.70088437737451], [114.34309269536281, 36.704350747049595], [114.34810965394234, 36.70286668037352], [114.35101130468661, 36.70109776766901], [114.35109238655153, 36.69925580118845], [114.35834788650858, 36.69885815629258], [114.35901268397224, 36.70155740480777], [114.36973602184403, 36.701773171677125], [114.37429377504489, 36.70256826550831], [114.37534151816904, 36.70625975982938], [114.38367146994503, 36.70626101647307], [114.40748977780041, 36.71137378946196], [114.4288306752254, 36.71278582376699], [114.4470382306289, 36.7134697399511], [114.44790789715421, 36.72075970328459], [114.46773077087778, 36.720216348251235], [114.48187148813129, 36.72043785701522], [114.48110242913933, 36.711596378849585], [114.48464853818521, 36.7112208265856], [114.48509449354323, 36.70965113193449], [114.49070815010484, 36.709522706912715], [114.49611838833492, 36.70791986269586], [114.4957130042604, 36.70542125084461], [114.49846910455227, 36.707020483640385], [114.49970469784469, 36.71125646790005], [114.50254230107412, 36.71124498522836], [114.50732444190922, 36.714209366683086], [114.51575340155384, 36.72130956330908], [114.51931927804453, 36.72178249748861], [114.52018977433852, 36.7205317818796], [114.52355357058171, 36.720792039911615], [114.52367475122308, 36.7233467130383], [114.54248894460449, 36.725573184872744], [114.55386382685774, 36.725249184186886], [114.58071782175453, 36.720745968632855], [114.58986832426628, 36.719064053491195], [114.59198867115302, 36.71808131025802], [114.59951985175181, 36.710253949439974], [114.60815628983208, 36.71395320867439], [114.68947036270731, 36.70880866049311], [114.69980279808956, 36.70210921278027], [114.69958178714187, 36.69696084811352], [114.71156938302565, 36.69597860027367], [114.72263536788283, 36.680150505087155], [114.71795967605271, 36.66908341451535], [114.73247484351278, 36.66647566877822], [114.73453219925138, 36.66708199138545], [114.73822240981596, 36.67096664578304], [114.7439717696045, 36.67248866266662], [114.76407572604299, 36.683853246042055], [114.76138883053879, 36.687593670276165], [114.76217559212678, 36.69347629569382], [114.76671835729204, 36.70352527290479], [114.80212765446645, 36.697925977834615], [114.80860057322222, 36.69029967053961], [114.80672132406494, 36.6751648998894], [114.8051645994204, 36.671063803600454], [114.80722772721614, 36.662559513977016]]]]}}