{"type": "Feature", "properties": {"unit_id": "handan_130407", "name": "肥乡区", "district_codes": [130407]}, "geometry": {"type": "MultiPolygon", "coordinates": [[[[114.64364996294532, 36.57656240165631], [114.6435493353066, 36.57480451162727], [114.64139341297877, 36.57324275999135], [114.63363620143045, 36.573824766469016], [114.63321320896029, 36.57035719722117], [114.62841696400389, 36.57064414554443], [114.62073702100126, 36.56901924520949], [114.61912347212508, 36.56979330090873], [114.61751144840615, 36.56442452996741], [114.62440685497967, 36.56181938063088], [114.62710775735515, 36.560232212097205], [114.6260605682114, 36.55542192595347], [114.62491099150816, 36.554979425392084], [114.62462966045663, 36.551752407239775], [114.62704874838543, 36.55155681097251], [114.62678646594856, 36.54788600987313], [114.62745194275291, 36.54486079432209], [114.63293440724772, 36.544071328374926], [114.63327707641807, 36.54233175810818], [114.63664191069884, 36.54125462267926], [114.63906084015964, 36.53211868449331], [114.63803425637099, 36.52569341323567], [114.63386355237078, 36.5199291726509], [114.6243311700532, 36.51226551249065], [114.62100525005569, 36.50742619210361], [114.62394985908978, 36.5003556102963], [114.62830422688408, 36.4937668101205], [114.62957429700181, 36.48644466133177], [114.64708435421835, 36.48311239600639], [114.65209933016294, 36.48316173720353], [114.65644867244175, 36.48830756395455], [114.6649069975672, 36.48956819822189], [114.67030352878419, 36.492333609087595], [114.67171219167737, 36.49363630090855], [114.67720975021474, 36.49320997704227], [114.67811539773584, 36.49604092826783], [114.6802498110973, 36.49389088617358], [114.68296880139387, 36.493141123047465], [114.69307796120312, 36.49262902660214], [114.6960187696282, 36.493881381794075], [114.6999060657503, 36.493672031204134], [114.70298839333425, 36.491829995026485], [114.71413039633616, 36.49211407417421], [114.7176360153111, 36.49442073199631], [114.71822102249216, 36.496082277812874], [114.71862250947403, 36.50500559910233], [114.71920759581663, 36.50612640536998], [114.72267411429425, 36.50657750878441], [114.73499337884684, 36.50558116120814], [114.73477193706505, 36.50186006141977], [114.73660787511517, 36.50030177962173], [114.74082365270147, 36.49995207239865], [114.74695619677075, 36.50548090837274], [114.75615964566697, 36.50533633950571], [114.7595308477585, 36.50462161351585], [114.76272160047506, 36.502611842995066], [114.76330736733273, 36.49858002493419], [114.7675282619133, 36.49799264893682], [114.76981124431724, 36.49678575197218], [114.77744800652113, 36.49685016392403], [114.79816559381919, 36.4988496220523], [114.81035984467125, 36.49917867185227], [114.83135502620883, 36.50048376191427], [114.84270186817554, 36.50057263093221], [114.85012432149692, 36.499077290024964], [114.8546349171492, 36.490866564172805], [114.86280220763257, 36.491787487826414], [114.87973701523057, 36.49664190013163], [114.88688676976932, 36.49624045369415], [114.89211662682776, 36.493749284238866], [114.89472182181186, 36.489708074651055], [114.89694230294609, 36.48868309989523], [114.8970439174083, 36.482958753193984], [114.90033423570227, 36.480406332754356], [114.9060839794975, 36.479661262825076], [114.90767821146434, 36.48035657414164], [114.90824261423455, 36.48336404235295], [114.91282059739801, 36.48416485734422], [114.9155424642131, 36.49202569724347], [114.91973613348884, 36.49168384848701], [114.92015829063686, 36.494980962992045], [114.92326240360201, 36.49445641464346], [114.92451167528954, 36.50381375273479], [114.92576072552903, 36.50499187635295], [114.92966947863067, 36.50480340783637], [114.94082799496873, 36.50568637601186], [114.94187593456179, 36.502184220412836], [114.94503635222704, 36.501424819314714], [114.94660600453382, 36.50483419344266], [114.94861971257374, 36.50492715900555], [114.95073265142369, 36.50791938068206], [114.95495831602467, 36.510356043929384], [114.95236155555006, 36.52228993287781], [114.94267890793387, 36.52218312101375], [114.94732897183513, 36.525102924518], [114.94948292135675, 36.52810510261217], [114.95662665433942, 36.52613654100636], [114.95741107886819, 36.52797181804736], [114.95998707095572, 36.528187627013914], [114.96557902421243, 36.52689838214842], [114.9674091275808, 36.5335133438051], [114.97008366214182, 36.53567118825796], [114.9765595654323, 36.53466790358943], [114.97742317347287, 36.536675453484534], [114.98305315095168, 36.53601158991757], [114.984742238112, 36.54033544588467], [114.9857672556244, 36.540786193422456], [114.98747494693536, 36.547438722939006], [114.98980635964813, 36.552340226886315], [114.99764661160002, 36.55179482532342], [114.99828955442936, 36.55653640174683], [115.00460129712413, 36.559424717241136], [115.00564676855716, 36.563150586496214], [115.00840098214134, 36.56280445558413], [115.00870253713003, 36.56520827500583], [115.00767603221726, 36.570050786138765], [115.00514299372234, 36.57009741629123], [115.00409837922628, 36.56767587487639], [115.00291203728531, 36.56792134373217], [115.00457975823534, 36.57427188193575], [115.0011420805905, 36.576648035249], [115.00150314103443, 36.58133139669901], [115.00258873321815, 36.5823905216976], [115.00876047115435, 36.58198507512139], [115.009443691006, 36.58294849640935], [115.01231697317667, 36.59680725611519], [115.01468911785688, 36.603055724128595], [115.02082086336311, 36.60282602313572], [115.02546543189382, 36.60561235987905], [115.02808009606865, 36.60497753795642], [115.02880411052007, 36.60871246130988], [115.03151842309347, 36.61033629249118], [115.02902510502226, 36.610728718402456], [115.02737576413365, 36.61263510935687], [115.0280987956056, 36.6161181449148], [115.02240790845478, 36.62136592677374], [115.01283698505014, 36.62382533483895], [115.00425226589888, 36.62709424435315], [115.00350906857116, 36.62831278785967], [115.00479454186629, 36.63241049124734], [114.99966871578263, 36.633304530562214], [114.99661255347917, 36.63560046277647], [114.99594891859391, 36.63794709038535], [114.9923509832394, 36.6389233955039], [114.98985752160746, 36.640976674078715], [114.9864397943657, 36.640947878434325], [114.98640021269185, 36.638506443014435], [114.98386716858603, 36.6364111478556], [114.97658847974144, 36.636306146672005], [114.97172236361511, 36.63340531163809], [114.96769933388087, 36.633907742269976], [114.96798102973695, 36.63704415531099], [114.966552864848, 36.637375681125526], [114.95746023118473, 36.63713718536825], [114.95691712179548, 36.63492874488219], [114.95305342896357, 36.63590283166122], [114.95343486377274, 36.64025342561639], [114.94888642929473, 36.64136336373536], [114.94951048028534, 36.64382262736607], [114.9452425649979, 36.644593585972444], [114.94024909456589, 36.64857716645966], [114.93904118498968, 36.64497134290969], [114.93209245025835, 36.64336074685621], [114.92705603488015, 36.64352093371472], [114.92008252790018, 36.64451219704845], [114.92048585197068, 36.64634476530072], [114.915021503755, 36.647150231348725], [114.91173533533119, 36.645328047161755], [114.90511875653682, 36.64574480312643], [114.89880262379607, 36.64733695501755], [114.89738930126884, 36.6497492942809], [114.89765065162011, 36.656058536165766], [114.89583442407364, 36.65615509735323], [114.89569293148723, 36.66056338558961], [114.89787216802632, 36.66074672658967], [114.89823576461403, 36.66471236183997], [114.89581334244629, 36.66630290959633], [114.88755500849975, 36.66778553184387], [114.88291076888768, 36.66728968956291], [114.87224233003329, 36.66835082672947], [114.87165693958325, 36.66485829671377], [114.86840348914474, 36.66455555422425], [114.86929233111508, 36.66853022217547], [114.86442074060434, 36.67132116494465], [114.85522163790719, 36.67294749582412], [114.8479825430406, 36.672356840069455], [114.84341183805003, 36.67422965638819], [114.84134880184723, 36.670802063799506], [114.84031804474705, 36.66645886322852], [114.83613082511107, 36.66703981341453], [114.82632085071964, 36.66745520186663], [114.82569371885997, 36.664878604192985], [114.82128499228439, 36.66349121200182], [114.80722772721614, 36.662559513977016], [114.80065574529871, 36.66151628018894], [114.80128361055898, 36.6554589613013], [114.79863462511281, 36.65496208131171], [114.7872933495716, 36.6540395804265], [114.78668678961667, 36.65069083318562], [114.78333193569438, 36.65048391946765], [114.78325115613767, 36.64741566663468], [114.75727573040572, 36.63659039312257], [114.74738644767831, 36.63169659426255], [114.72405160975565, 36.625570996426006], [114.71881147093904, 36.62326981323575], [114.71111399902254, 36.623279376172725], [114.71131507737383, 36.6195342691517], [114.71641326427583, 36.6193538709927], [114.7165952553224, 36.617008002392694], [114.71097357988609, 36.610779745501404], [114.70628060347755, 36.601353727574846], [114.7015472410574, 36.59283573401705], [114.69993545269136, 36.59182387838328], [114.69850708227412, 36.58414043950851], [114.68996665829899, 36.584782814334275], [114.69008707441341, 36.58781493516877], [114.68338155387367, 36.58960322678476], [114.67915300098042, 36.590026954336025], [114.68019912403312, 36.594843305533544], [114.6786083290805, 36.5984573064052], [114.67582962015867, 36.59857853572389], [114.67093590318662, 36.597197683612116], [114.66872122055548, 36.59448843513576], [114.66155364107738, 36.59116088447634], [114.65978108790296, 36.58598804378685], [114.66008377642291, 36.582695281295535], [114.65774818714533, 36.57957030595919], [114.6566009875471, 36.57641411734099], [114.64364996294532, 36.57656240165631]]]]}}