{"type": "Feature", "properties": {"unit_id": "handan_130404", "name": "复兴区", "district_codes": [130404]}, "geometry": {"type": "MultiPolygon", "coordinates": [[[[114.31617994136148, 36.672309827318344], [114.31688538541714, 36.66663599961899], [114.31366229286833, 36.661780938946556], [114.31098357086687, 36.653362917467746], [114.30868638734214, 36.65164006369429], [114.30316458893263, 36.65228721750527], [114.3020162896603, 36.65167150545798], [114.297320330978, 36.64513698577199], [114.29572869140229, 36.64188737617174], [114.29756251765633, 36.640640280949874], [114.3034276503868, 36.639289533050366], [114.30252141811546, 36.6350355633834], [114.30086897087047, 36.63285657466942], [114.29746348316918, 36.6240221793683], [114.2934932442414, 36.62495466872642], [114.28897723019595, 36.62439138234374], [114.28855430487461, 36.61851434737467], [114.2844411049163, 36.618567605784584], [114.28296943229917, 36.61749799404288], [114.28002433609046, 36.61989496705559], [114.27092676921373, 36.620029481474845], [114.26903030353057, 36.61950921892787], [114.26951510763212, 36.611245595131955], [114.27139211949692, 36.60649483588558], [114.27290580470398, 36.60458165443687], [114.27762558471258, 36.60412348372509], [114.28178094075463, 36.603057586749564], [114.28412032955927, 36.600853058416924], [114.28867734663073, 36.59889730662792], [114.29091496469239, 36.599357968227565], [114.29279032311743, 36.5953575163724], [114.28875892602156, 36.59290153275999], [114.29059344245802, 36.58909411543684], [114.29355700676861, 36.5902102445955], [114.29315378214261, 36.58741937274673], [114.28591665165091, 36.583740293746544], [114.28216586150205, 36.58299225831617], [114.28545355473697, 36.57930829041406], [114.27758881377183, 36.57500056775412], [114.28029189345543, 36.56780156198604], [114.28307511610306, 36.56516178045134], [114.28321804489222, 36.55568459439859], [114.2845890579347, 36.55433063980524], [114.28263277470988, 36.55326054812387], [114.28037436726407, 36.55389079146698], [114.27629987017585, 36.5536831318441], [114.27494873711085, 36.55189634379638], [114.27547366211087, 36.550292682197124], [114.27799524089113, 36.55077294499366], [114.27773276740707, 36.54739195797403], [114.279871071147, 36.54151471264549], [114.27918570107981, 36.53988228080882], [114.27583790943785, 36.53729597977812], [114.27018913929717, 36.536740132177215], [114.26566914004768, 36.534172524388104], [114.26554852210687, 36.53075231111582], [114.26653754289724, 36.529901124643686], [114.27119855325341, 36.53037153966058], [114.27462847667219, 36.52830961999757], [114.27884477856618, 36.522951111839525], [114.2785225620376, 36.517645051773556], [114.28094312748561, 36.516047208142496], [114.282678544873, 36.50954036278492], [114.28261786934753, 36.50701664420032], [114.28126734626798, 36.502822198603866], [114.27858551826868, 36.49947070570565], [114.2763668403444, 36.49900916669404], [114.26510796404256, 36.49954972650256], [114.26440245861292, 36.49513120520372], [114.26527126348276, 36.48764618187395], [114.26769316564877, 36.486475185786325], [114.26712797247825, 36.479812607592606], [114.27457405424978, 36.4776986997725], [114.27626803432122, 36.47947629602345], [114.28270193625505, 36.47847283568047], [114.28346760828371, 36.48501894389208], [114.28576676908355, 36.48387563557211], [114.28653326922395, 36.48206548429477], [114.28949635663722, 36.482197487976606], [114.29653249330939, 36.48042703165987], [114.3005833737895, 36.4786504055693], [114.30286141521917, 36.47662555537084], [114.30427281546923, 36.47266795168838], [114.30378897472818, 36.46851862211767], [114.30431367923221, 36.46427160920994], [114.31001716829013, 36.462791289060036], [114.31043966623083, 36.46128219226847], [114.29286604664281, 36.46077829205166], [114.28744266031893, 36.461579456792144], [114.28681746196874, 36.45966510836565], [114.28276501621406, 36.459050387748846], [114.28264351927987, 36.45532614620225], [114.28631449618312, 36.4544800051527], [114.28447951407381, 36.45085486535895], [114.28276646084203, 36.44585405567849], [114.27820851650625, 36.4377125207097], [114.28337224207505, 36.43431916727723], [114.29929926634392, 36.431674780196076], [114.31320387511302, 36.42806022272385], [114.31396878786077, 36.43565569267076], [114.31233659733284, 36.443389446063236], [114.31156890452975, 36.46092231202331], [114.31112540161706, 36.46285726670775], [114.33105134408345, 36.462984638819584], [114.33119176919142, 36.46595306292208], [114.35321421076621, 36.46598088355197], [114.35653900330281, 36.4695638502149], [114.35680039915974, 36.47170147894479], [114.35387805611475, 36.47654206376995], [114.35037052808416, 36.483955628227264], [114.34934267616066, 36.48802853690163], [114.34547292728166, 36.49656441912603], [114.37064688405047, 36.4896206254854], [114.37050633525986, 36.486788105831955], [114.3789155610597, 36.48699180097526], [114.38424047442116, 36.490090817875036], [114.38397714024464, 36.502988967966], [114.38621559279198, 36.50970614049675], [114.38891741724451, 36.52336279767703], [114.38915933331332, 36.53268902259619], [114.38879498564674, 36.53636138291217], [114.38740327416895, 36.53645917587807], [114.38736187273815, 36.540140337881596], [114.38508234703312, 36.54209389155419], [114.3855659516978, 36.54413250518369], [114.37723500799025, 36.546748333214914], [114.37675109773552, 36.549029651846716], [114.37124554506643, 36.55027217614897], [114.3605001294721, 36.55497241756583], [114.35366753949118, 36.55584282384784], [114.35141081683201, 36.55686109258513], [114.36364150370785, 36.57907797954827], [114.36912540110288, 36.57907055765944], [114.37977297595653, 36.57699193683833], [114.37993335653084, 36.58167524955098], [114.40166673408967, 36.5903368591063], [114.40316225458069, 36.58357656465355], [114.40237567067173, 36.57615058613396], [114.40328443223935, 36.57366793663222], [114.40645552449186, 36.573127559620126], [114.40692006634798, 36.57135059874813], [114.4093440754127, 36.57107135457613], [114.41017158653295, 36.5731864877792], [114.41625324429012, 36.57300549439011], [114.41497985228699, 36.57153753450866], [114.41857754854807, 36.570892179269705], [114.41979004174004, 36.57289201360039], [114.42389359148028, 36.57155328717192], [114.42462051858263, 36.574248548444146], [114.4269857131963, 36.57422202892278], [114.42674386626776, 36.5688906213331], [114.43070759337998, 36.568083692988736], [114.44171196242498, 36.56854483643916], [114.44227846684953, 36.56823597899295], [114.45268208339014, 36.56811117726448], [114.45330803556836, 36.57694077616229], [114.45679097541806, 36.5777889950159], [114.4611845857877, 36.57752837692121], [114.46912132249939, 36.59821391821828], [114.46946602236316, 36.60330296716743], [114.47051773259143, 36.61380877888262], [114.47179240799629, 36.63244038181254], [114.47369438375837, 36.65205285501377], [114.46571303102415, 36.65257159161882], [114.46524725767094, 36.65367075568348], [114.45994093014784, 36.65386070240324], [114.4595969691942, 36.65213293340168], [114.4509313967096, 36.6524605862253], [114.4493927066989, 36.653557793614716], [114.44647861042147, 36.65113056135036], [114.44664028408171, 36.64916205081906], [114.43741332553353, 36.64909816307399], [114.43344913534496, 36.65063645967738], [114.42869632341653, 36.65119007828988], [114.42240873146862, 36.64694713752423], [114.42180326014456, 36.64264317186223], [114.41915524604904, 36.6433166384797], [114.41751867760915, 36.63729404748959], [114.40628554362654, 36.643194837837115], [114.40646738111712, 36.645810310287374], [114.40844600457223, 36.654001829153614], [114.40483014974079, 36.65571812944362], [114.39275715354606, 36.65668547133334], [114.39073887425697, 36.65985047590897], [114.3873682167631, 36.66188814760797], [114.3826674502507, 36.66598105798767], [114.37492213906816, 36.668120143748034], [114.37320903643811, 36.66392662746467], [114.36933783154126, 36.662532155422504], [114.35401734851891, 36.66924964175742], [114.34384069513774, 36.67533364244577], [114.33930793157957, 36.670211170990115], [114.33233795553515, 36.671227738160795], [114.32280760196916, 36.67217140432674], [114.31617994136148, 36.672309827318344]]]]}}