{"type": "Feature", "properties": {"unit_id": "handan_urban", "name": "全部市辖区联合区域", "district_codes": [130403, 130402, 130404, 130406, 130407, 130408]}, "geometry": {"type": "Polygon", "coordinates": [[[114.2691094579775, 36.44494852199815], [114.26549833561405, 36.441235481630635], [114.26055391783922, 36.43292545216365], [114.25474072325802, 36.42688871962888], [114.2454507945854, 36.42332738005545], [114.23811715853553, 36.42093421403822], [114.23167050458088, 36.41764002222532], [114.22778970725176, 36.41277812453477], [114.2227361797349, 36.39736165873574], [114.22107963780012, 36.381759872782816], [114.217542058412, 36.375074522283654], [114.21541821848189, 36.367943629673114], [114.21444885863245, 36.36060006637198], [114.21541965397184, 36.35488523512457], [114.21412643683716, 36.34869280602618], [114.20913027612224, 36.34334813765955], [114.20380904343905, 36.34167407986229], [114.19642203332248, 36.34202132331686], [114.18960133868232, 36.34306533561015], [114.18045140663699, 36.34706042828306], [114.17130076848619, 36.35058911166134], [114.16326239566965, 36.35527247552285], [114.1546789714292, 36.35927753658347], [114.14670358123881, 36.361908050370914], [114.13901354964491, 36.36338761855217], [114.12962639233149, 36.364624665204886], [114.118846991144, 36.36538940123865], [114.11080017870684, 36.36983934521036], [114.1081518634589, 36.37530013122722], [114.1044931245267, 36.38600995190909], [114.10111829796436, 36.39717310193199], [114.09828942977813, 36.40904235290971], [114.0957431269782, 36.42137461299796], [114.09549874125159, 36.43212626815898], [114.09695107919356, 36.45574516344154], [114.09591799584157, 36.47633816068279], [114.0963617328449, 36.4813768341769], [114.09179648979398, 36.49506139282886], [114.08860588464218, 36.49864887209881], [114.09207917432359, 36.498996465345634], [114.09920808488432, 36.49800906131173], [114.099793129143, 36.50214713610694], [114.09805652398377, 36.50326856486058], [114.0967229927479, 36.5077155037814], [114.09498573221062, 36.50833440222213], [114.08588022501509, 36.50815371301686], [114.07234134551206, 36.50912292738243], [114.0557686045543, 36.509418905006704], [114.0543175908738, 36.511015866402836], [114.04809207109099, 36.510322802839994], [114.04734619525391, 36.51241239887788], [114.0500251018138, 36.515191385563476], [114.0540142779588, 36.51786112834117], [114.05413490755024, 36.51948410392451], [114.05211990410747, 36.52119920031078], [114.05699639332393, 36.5222044442767], [114.05929415044996, 36.52354374061878], [114.06340618684266, 36.52432065129634], [114.06312297962324, 36.52884384874333], [114.06526034949638, 36.53239683969553], [114.07171299870396, 36.53315187308259], [114.07471797016159, 36.536115001139784], [114.08018529533658, 36.53494046747987], [114.08446367772328, 36.53803982793723], [114.08597734447785, 36.54227078876389], [114.08593607154985, 36.54460961721033], [114.08046661356406, 36.54924095371617], [114.07875138658144, 36.55441171719526], [114.08040481687624, 36.55630333837735], [114.07790259439388, 36.56344474330095], [114.08026234513864, 36.56939254530812], [114.08238084482211, 36.571593750148665], [114.08964777157932, 36.57258420295449], [114.09382780915779, 36.571578506735435], [114.09701813618832, 36.56969509434312], [114.09924022874281, 36.56710644601784], [114.09968492586937, 36.56443088547408], [114.09920103576562, 36.55974533355394], [114.10297903530073, 36.55670236708532], [114.11490241257039, 36.55632186645461], [114.11459943856612, 36.560465490291385], [114.11882387691567, 36.568737287637184], [114.12050177530426, 36.57100852011576], [114.12458697450612, 36.57100345910671], [114.12559775396363, 36.57414283778893], [114.12786284894817, 36.572764081140285], [114.1300071372541, 36.568990619710625], [114.1351054682214, 36.56810863728857], [114.13753373929966, 36.566933637157256], [114.13838425225774, 36.564123345773815], [114.1373322647853, 36.55774619663174], [114.13761667531045, 36.55173772943952], [114.14386936069536, 36.55135131116497], [114.14842299231097, 36.55259503764641], [114.15439451106927, 36.551754700306184], [114.1598804832405, 36.54777458510991], [114.16789747564766, 36.54515177173493], [114.18358724014644, 36.54239843178637], [114.19322268134223, 36.543217067482935], [114.21436676680197, 36.550398783383514], [114.22253776912565, 36.55210787989451], [114.22455925325266, 36.55533609824226], [114.22835959412542, 36.559059347517305], [114.23337251831892, 36.559178737184425], [114.23361466659324, 36.56105289638361], [114.23854641751645, 36.56004090218953], [114.24662794106784, 36.55899955219016], [114.24638503345656, 36.55627495087504], [114.24866799145907, 36.55517369458486], [114.24870829037648, 36.55272996694844], [114.25511017458757, 36.55198576339551], [114.25452537303805, 36.547763063048414], [114.25660528710729, 36.54736678762014], [114.25638370424379, 36.5428161779865], [114.25822058413938, 36.54041885551944], [114.26070382027764, 36.54353933006618], [114.26255997012798, 36.54438804750026], [114.26296332216299, 36.55057166499126], [114.27547366211087, 36.550292682197124], [114.27494873711085, 36.55189634379638], [114.27629987017585, 36.5536831318441], [114.28037436726407, 36.55389079146698], [114.28263277470988, 36.55326054812387], [114.2845890579347, 36.55433063980524], [114.28321804489222, 36.55568459439859], [114.28307511610306, 36.56516178045134], [114.28029189345543, 36.56780156198604], [114.27758881377183, 36.57500056775412], [114.28545355473697, 36.57930829041406], [114.28216586150205, 36.58299225831617], [114.28591665165091, 36.583740293746544], [114.29315378214261, 36.58741937274673], [114.29355700676861, 36.5902102445955], [114.29059344245802, 36.58909411543684], [114.28875892602156, 36.59290153275999], [114.29279032311743, 36.5953575163724], [114.29091496469239, 36.599357968227565], [114.28867734663073, 36.59889730662792], [114.28412032955927, 36.600853058416924], [114.28178094075463, 36.603057586749564], [114.27762558471258, 36.60412348372509], [114.27290580470398, 36.60458165443687], [114.27139211949692, 36.60649483588558], [114.26951510763212, 36.611245595131955], [114.26903030353057, 36.61950921892787], [114.27092676921373, 36.620029481474845], [114.28002433609046, 36.61989496705559], [114.28296943229917, 36.61749799404288], [114.2844411049163, 36.618567605784584], [114.28855430487461, 36.61851434737467], [114.28897723019595, 36.62439138234374], [114.2934932442414, 36.62495466872642], [114.29746348316918, 36.6240221793683], [114.30086897087047, 36.63285657466942], [114.30252141811546, 36.6350355633834], [114.3034276503868, 36.639289533050366], [114.29756251765633, 36.640640280949874], [114.29572869140229, 36.64188737617174], [114.297320330978, 36.64513698577199], [114.3020162896603, 36.65167150545798], [114.30316458893263, 36.65228721750527], [114.30868638734214, 36.65164006369429], [114.31098357086687, 36.653362917467746], [114.31366229286833, 36.661780938946556], [114.31688538541714, 36.66663599961899], [114.31617994136148, 36.672309827318344], [114.3142245918182, 36.67775308158275], [114.31515085466582, 36.67956424458578], [114.31724626346646, 36.680235924242744], [114.31770886081702, 36.68579958260506], [114.31569392758296, 36.68874449608791], [114.31639932558217, 36.69251280964062], [114.31865491225327, 36.697822221955725], [114.3200245028242, 36.698378283589975], [114.31976229726989, 36.70427002533704], [114.3205473386904, 36.709715049259664], [114.31859199079248, 36.716033668978994], [114.32562363855405, 36.717340448628256], [114.32858502855031, 36.72087247979291], [114.33065920725613, 36.72232356030364], [114.33630039663944, 36.72151333815044], [114.33783186887717, 36.720344209264105], [114.3412766971338, 36.72272823108226], [114.34190109513753, 36.72759390314979], [114.34725941448787, 36.734986351489674], [114.35415141000061, 36.73824137576951], [114.35584393899414, 36.73840250102168], [114.36303879711338, 36.743450114025784], [114.3656993027958, 36.74653031434477], [114.36872277842106, 36.74861690080294], [114.37051699610848, 36.748469738763475], [114.37188793938752, 36.755232560458246], [114.3746503954739, 36.75660647772099], [114.37400458801537, 36.75961317545936], [114.37150327098291, 36.764316911980224], [114.37085845438735, 36.76809414072369], [114.37210758272641, 36.774344399933064], [114.36817514884724, 36.77701647130622], [114.3626923040091, 36.77824720434314], [114.35995015661724, 36.78404033438984], [114.35610019490602, 36.78620289518709], [114.3591238338697, 36.787787034773125], [114.36387977846466, 36.79667785182345], [114.36746714613167, 36.8014586163313], [114.36770763143261, 36.81257857855507], [114.36929913612089, 36.82880517181839], [114.36841174770728, 36.831491422833444], [114.36425774046089, 36.837290973171804], [114.35373531414925, 36.85107747640101], [114.3751435604096, 36.84897906031191], [114.38375660839912, 36.846343902348565], [114.38948722031932, 36.844127669039565], [114.40016478794422, 36.84142007100378], [114.4018605326726, 36.84139098131296], [114.40208213815765, 36.845826841316295], [114.40309157651099, 36.84659630088005], [114.40688909510236, 36.84612505206832], [114.40664741977844, 36.84167015510664], [114.41026232848829, 36.84267140352084], [114.41157590856416, 36.83996780485566], [114.41501079854534, 36.838959171230854], [114.42267060199795, 36.83836819133833], [114.42483317946031, 36.83863006428161], [114.4268754900037, 36.84151915898086], [114.43128308474547, 36.84159233509971], [114.43737171018704, 36.84084045809716], [114.44214655760356, 36.841444843441316], [114.44265253833635, 36.844524548777144], [114.44803510830485, 36.84708472642492], [114.4562341684712, 36.847198890985624], [114.45678158023878, 36.84148416405508], [114.46160078897148, 36.840359219419646], [114.46682614900358, 36.8403052365713], [114.46887212675061, 36.83531603480109], [114.47290437801452, 36.83282449053188], [114.47782728701715, 36.83215450010361], [114.50186077784392, 36.82763326434655], [114.5115268826012, 36.82888516842027], [114.53166383037501, 36.835764604971395], [114.54073516239848, 36.83906868931334], [114.54721269866731, 36.84280752992049], [114.54952003892049, 36.84578623944344], [114.54891285499242, 36.85000900033784], [114.55010567502664, 36.85522674071266], [114.55002454814843, 36.86357763934782], [114.54791947011446, 36.8641119104351], [114.54741280148312, 36.86587058800543], [114.55040735209498, 36.87536200995507], [114.54844432108312, 36.87959995827768], [114.54641934953068, 36.87995141456651], [114.54599465974441, 36.88386469733651], [114.55156062138715, 36.88392418761404], [114.55158035005626, 36.88694506413235], [114.553097278707, 36.888543867283445], [114.56082643189879, 36.88833666512291], [114.56135232305499, 36.89112650888151], [114.57075525894456, 36.88977358964199], [114.57496002855117, 36.890278858335556], [114.57520189521483, 36.89490478523346], [114.57784965144918, 36.89482033213944], [114.57968914741838, 36.8936197360107], [114.58271964621784, 36.893410097223], [114.5827809064829, 36.89158344695566], [114.59340382927903, 36.8920395763365], [114.59362618705099, 36.889606359138924], [114.59514086690392, 36.88877016671497], [114.59962169362252, 36.89028010907331], [114.60258830006876, 36.89431874903769], [114.60436397359595, 36.89542449722184], [114.6151570778188, 36.89579364236425], [114.61614548588462, 36.894398899623965], [114.62084323361425, 36.89522127977861], [114.623907705221, 36.89766047339616], [114.62416905385896, 36.9009588309317], [114.63120392402563, 36.901171415888754], [114.63201012233439, 36.897727841463805], [114.63424669794496, 36.89816752666574], [114.64317249466225, 36.89820220844785], [114.64637530986134, 36.899486064272246], [114.64639494288976, 36.90254383699048], [114.65138993185131, 36.90307291549231], [114.65314204191017, 36.90554104791982], [114.6575925566729, 36.90572585969574], [114.65946497073412, 36.910424025614034], [114.66304907707446, 36.91004158707957], [114.66524380926315, 36.91320115962724], [114.66532419731743, 36.91718114658657], [114.6696534834766, 36.91618259641099], [114.67031807109494, 36.91522900803818], [114.67615787897246, 36.913843813864375], [114.69009283836073, 36.91328925788009], [114.6943825151127, 36.915608049633924], [114.69436137330953, 36.91730986295737], [114.70135134887222, 36.91770197638505], [114.7033850979123, 36.92139013575369], [114.70203548884216, 36.922766252913384], [114.7031430055528, 36.926369930639176], [114.70586186689276, 36.92774980675984], [114.7088845768862, 36.92770645461963], [114.70906476032711, 36.932358856049916], [114.71224850803073, 36.93235451392737], [114.71232878762824, 36.937755525687], [114.71480688499264, 36.93823299954098], [114.72288885650062, 36.93826287178972], [114.72500493889972, 36.942296930982494], [114.7287349896217, 36.94256250649189], [114.73012682928817, 36.941158431181755], [114.73032791144276, 36.93874601376875], [114.73339358681201, 36.93643754711739], [114.73722597588362, 36.93609860837877], [114.73754924327662, 36.93190846087751], [114.74604198049641, 36.93066555558895], [114.74735401410214, 36.9282530991414], [114.75336806346203, 36.92735870368589], [114.75359035377767, 36.92499442835672], [114.75875845397626, 36.92714798369454], [114.75627533831408, 36.92097676465409], [114.7536920485705, 36.91881288431521], [114.75567133617076, 36.910536144136856], [114.75956775979098, 36.909094224002224], [114.7600321542001, 36.90729667757344], [114.76090170834088, 36.896748575206665], [114.75726796984371, 36.890535857103046], [114.75189935460695, 36.887053527389575], [114.74364661110363, 36.885159744973635], [114.7336611265176, 36.88415392049169], [114.7168891105136, 36.88080269301722], [114.71080427602762, 36.873654564576974], [114.71606318686675, 36.87278241506087], [114.7169713128881, 36.86874120984929], [114.73533783767937, 36.866579469759714], [114.73729387383273, 36.863846374505556], [114.7414697814436, 36.86353684186569], [114.74142913302522, 36.86048702630144], [114.74657458338392, 36.86055270929703], [114.74629217511605, 36.855646240662246], [114.74393170486655, 36.856176347954495], [114.74304488880809, 36.84799738562933], [114.74675869773944, 36.84098155698218], [114.74994682612466, 36.83689118015707], [114.75541768744561, 36.83395669520989], [114.76201962867053, 36.82965676017684], [114.76466596761747, 36.82236214941986], [114.76511166160688, 36.80953933971662], [114.76812212140315, 36.79788222554387], [114.77446580761105, 36.79037524470299], [114.78475194421677, 36.78840227717872], [114.79473821428108, 36.78687464375007], [114.80642567421557, 36.78628659726784], [114.81811562781009, 36.786836987962786], [114.82695552249551, 36.785756200298465], [114.84238923849443, 36.78061232469175], [114.85215750008886, 36.77838575235124], [114.85802091905227, 36.774233921102805], [114.85820344575194, 36.77236547016624], [114.86143812373231, 36.771792670836106], [114.86392512271132, 36.77265360741769], [114.87061518287373, 36.771362105415534], [114.8701511063432, 36.76615008151283], [114.8734654995458, 36.765643241140936], [114.87334396407412, 36.759881993201645], [114.8722128252427, 36.75709659782002], [114.86847470427983, 36.757198053629814], [114.86659502073482, 36.756377194927964], [114.86560473363893, 36.754275293885826], [114.86699891776706, 36.75366054250866], [114.86762631042772, 36.74933524211529], [114.86687856092239, 36.74596152519144], [114.86511999291966, 36.74481295704556], [114.86493897047616, 36.74237433133935], [114.86186584845774, 36.743710151843054], [114.85978357978733, 36.74108584582861], [114.858226818246, 36.741276373228054], [114.85857073018622, 36.7384727520475], [114.85774254314107, 36.73574428886358], [114.86243275242764, 36.73471990920039], [114.86217153983749, 36.72330801607761], [114.85986691445186, 36.72061540821229], [114.85693568421736, 36.720784839245994], [114.85545963820661, 36.71450659155575], [114.85240703114354, 36.71267083998594], [114.85190127740533, 36.710520390445126], [114.85279128228684, 36.70792852383171], [114.85519785342136, 36.70793241085548], [114.85511710264134, 36.704191679538354], [114.85689675806053, 36.70073269032415], [114.86083974303833, 36.70043983118755], [114.86181021727174, 36.70197426078158], [114.8617099989643, 36.69308376332583], [114.85346018206168, 36.692840228594974], [114.84611990759419, 36.68924007787989], [114.84494761295576, 36.68785988411353], [114.84290490013854, 36.68227174983131], [114.84502845890702, 36.68154298297907], [114.84401756574412, 36.679390532978836], [114.84193522361812, 36.67860529183768], [114.84037816562703, 36.67587316830148], [114.84341183805003, 36.67422965638819], [114.8479825430406, 36.672356840069455], [114.85522163790719, 36.67294749582412], [114.86442074060434, 36.67132116494465], [114.86929233111508, 36.66853022217547], [114.86840348914474, 36.66455555422425], [114.87165693958325, 36.66485829671377], [114.87224233003329, 36.66835082672947], [114.88291076888768, 36.66728968956291], [114.88755500849975, 36.66778553184387], [114.89581334244629, 36.66630290959633], [114.89823576461403, 36.66471236183997], [114.89787216802632, 36.66074672658967], [114.89569293148723, 36.66056338558961], [114.89583442407364, 36.65615509735323], [114.89765065162011, 36.656058536165766], [114.89738930126884, 36.6497492942809], [114.89880262379607, 36.64733695501755], [114.90511875653682, 36.64574480312643], [114.91173533533119, 36.645328047161755], [114.915021503755, 36.647150231348725], [114.92048585197068, 36.64634476530072], [114.92008252790018, 36.64451219704845], [114.92705603488015, 36.64352093371472], [114.93209245025835, 36.64336074685621], [114.93904118498968, 36.64497134290969], [114.94024909456589, 36.64857716645966], [114.9452425649979, 36.644593585972444], [114.94951048028534, 36.64382262736607], [114.94888642929473, 36.64136336373536], [114.95343486377274, 36.64025342561639], [114.95305342896357, 36.63590283166122], [114.95691712179548, 36.63492874488219], [114.95746023118473, 36.63713718536825], [114.966552864848, 36.637375681125526], [114.96798102973695, 36.63704415531099], [114.96769933388087, 36.633907742269976], [114.97172236361511, 36.63340531163809], [114.97658847974144, 36.636306146672005], [114.98386716858603, 36.6364111478556], [114.98640021269185, 36.638506443014435], [114.9864397943657, 36.640947878434325], [114.98985752160746, 36.640976674078715], [114.9923509832394, 36.6389233955039], [114.99594891859391, 36.63794709038535], [114.99661255347917, 36.63560046277647], [114.99966871578263, 36.633304530562214], [115.00479454186629, 36.63241049124734], [115.00350906857116, 36.62831278785967], [115.00425226589888, 36.62709424435315], [115.01283698505014, 36.62382533483895], [115.02240790845478, 36.62136592677374], [115.0280987956056, 36.6161181449148], [115.02737576413365, 36.61263510935687], [115.02902510502226, 36.610728718402456], [115.03151842309347, 36.61033629249118], [115.02880411052007, 36.60871246130988], [115.02808009606865, 36.60497753795642], [115.02546543189382, 36.60561235987905], [115.02082086336311, 36.60282602313572], [115.01468911785688, 36.603055724128595], [115.01231697317667, 36.59680725611519], [115.009443691006, 36.58294849640935], [115.00876047115435, 36.58198507512139], [115.00258873321815, 36.5823905216976], [115.00150314103443, 36.58133139669901], [115.0011420805905, 36.576648035249], [115.00457975823534, 36.57427188193575], [115.00291203728531, 36.56792134373217], [115.00409837922628, 36.56767587487639], [115.00514299372234, 36.57009741629123], [115.00767603221726, 36.570050786138765], [115.00870253713003, 36.56520827500583], [115.00840098214134, 36.56280445558413], [115.00564676855716, 36.563150586496214], [115.00460129712413, 36.559424717241136], [114.99828955442936, 36.55653640174683], [114.99764661160002, 36.55179482532342], [114.98980635964813, 36.552340226886315], [114.98747494693536, 36.547438722939006], [114.9857672556244, 36.540786193422456], [114.984742238112, 36.54033544588467], [114.98305315095168, 36.53601158991757], [114.97742317347287, 36.536675453484534], [114.9765595654323, 36.53466790358943], [114.97008366214182, 36.53567118825796], [114.9674091275808, 36.5335133438051], [114.96557902421243, 36.52689838214842], [114.95998707095572, 36.528187627013914], [114.95741107886819, 36.52797181804736], [114.95662665433942, 36.52613654100636], [114.94948292135675, 36.52810510261217], [114.94732897183513, 36.525102924518], [114.94267890793387, 36.52218312101375], [114.95236155555006, 36.52228993287781], [114.95495831602467, 36.510356043929384], [114.95073265142369, 36.50791938068206], [114.94861971257374, 36.50492715900555], [114.94660600453382, 36.50483419344266], [114.94503635222704, 36.501424819314714], [114.94187593456179, 36.502184220412836], [114.94082799496873, 36.50568637601186], [114.92966947863067, 36.50480340783637], [114.92576072552903, 36.50499187635295], [114.92451167528954, 36.50381375273479], [114.92326240360201, 36.49445641464346], [114.92015829063686, 36.494980962992045], [114.91973613348884, 36.49168384848701], [114.9155424642131, 36.49202569724347], [114.91282059739801, 36.48416485734422], [114.90824261423455, 36.48336404235295], [114.90767821146434, 36.48035657414164], [114.9060839794975, 36.479661262825076], [114.90033423570227, 36.480406332754356], [114.8970439174083, 36.482958753193984], [114.89694230294609, 36.48868309989523], [114.89472182181186, 36.489708074651055], [114.89211662682776, 36.493749284238866], [114.88688676976932, 36.49624045369415], [114.87973701523057, 36.49664190013163], [114.86280220763257, 36.491787487826414], [114.8546349171492, 36.490866564172805], [114.85012432149692, 36.499077290024964], [114.84270186817554, 36.50057263093221], [114.83135502620883, 36.50048376191427], [114.81035984467125, 36.49917867185227], [114.79816559381919, 36.4988496220523], [114.77744800652113, 36.49685016392403], [114.76981124431724, 36.49678575197218], [114.7675282619133, 36.49799264893682], [114.76330736733273, 36.49858002493419], [114.76272160047506, 36.502611842995066], [114.7595308477585, 36.50462161351585], [114.75615964566697, 36.50533633950571], [114.74695619677075, 36.50548090837274], [114.74082365270147, 36.49995207239865], [114.73660787511517, 36.50030177962173], [114.73477193706505, 36.50186006141977], [114.73499337884684, 36.50558116120814], [114.72267411429425, 36.50657750878441], [114.71920759581663, 36.50612640536998], [114.71862250947403, 36.50500559910233], [114.71822102249216, 36.496082277812874], [114.7176360153111, 36.49442073199631], [114.71413039633616, 36.49211407417421], [114.70298839333425, 36.491829995026485], [114.6999060657503, 36.493672031204134], [114.6960187696282, 36.493881381794075], [114.69307796120312, 36.49262902660214], [114.68296880139387, 36.493141123047465], [114.6802498110973, 36.49389088617358], [114.67811539773584, 36.49604092826783], [114.67720975021474, 36.49320997704227], [114.67171219167737, 36.49363630090855], [114.67030352878419, 36.492333609087595], [114.6649069975672, 36.48956819822189], [114.65644867244175, 36.48830756395455], [114.65209933016294, 36.48316173720353], [114.64708435421835, 36.48311239600639], [114.62957429700181, 36.48644466133177], [114.6293531530396, 36.4811753466482], [114.61723806085806, 36.47531643181988], [114.60331852852123, 36.476320458295596], [114.59330629808271, 36.481475464757374], [114.5827630870409, 36.48434369937317], [114.57037373159321, 36.48387730681688], [114.57063699456332, 36.48574376768593], [114.56796801183583, 36.487123778188895], [114.55807759900729, 36.48852008482214], [114.55641893699546, 36.48472691823142], [114.5449028773072, 36.48673392990506], [114.54206872476426, 36.490556778525736], [114.54261496884075, 36.49495797885343], [114.53959813752377, 36.49708795626125], [114.5310922046293, 36.49724066029444], [114.52189655133469, 36.495494554978414], [114.5190193066368, 36.49747848937112], [114.51377166245496, 36.49837191449317], [114.51012416659945, 36.49791640408375], [114.5077527549746, 36.49668194903225], [114.50684132232284, 36.4943583230506], [114.50968060239694, 36.47734757844622], [114.51043022466662, 36.47163336418167], [114.50656113290188, 36.46706590658091], [114.49977408125804, 36.45273883672194], [114.49622894710757, 36.44049840641827], [114.49193313901623, 36.434350144974104], [114.49039291319329, 36.43422962408933], [114.48814462312964, 36.42704193846614], [114.48350590632093, 36.41955643758471], [114.48261531021001, 36.41103625708269], [114.4816627791655, 36.40899132829609], [114.48002187111112, 36.40420352096478], [114.47785469033074, 36.40206824166876], [114.48012391867758, 36.39824010864355], [114.48293981332742, 36.399807558241754], [114.48484493277007, 36.40384950928267], [114.48806580941894, 36.403975877270526], [114.48664895081002, 36.396351652092335], [114.48583775179219, 36.395933441418535], [114.48446114736063, 36.38781550222767], [114.48484668623814, 36.387767639217365], [114.48314480712165, 36.37971569969036], [114.48073429263916, 36.37997069925315], [114.47947828579878, 36.37173413712016], [114.47866827624863, 36.37048330399727], [114.46230121722716, 36.370159247277115], [114.46305053374472, 36.37255321347754], [114.46177409437178, 36.37308291469402], [114.43910290436678, 36.37449927377404], [114.43805127230502, 36.37525232910574], [114.43353994448809, 36.375410623598455], [114.43384294075476, 36.381415843081996], [114.42613822718535, 36.38499907157722], [114.40078097521906, 36.38753269461569], [114.40207207106738, 36.40097253477254], [114.39131260971561, 36.40252362184008], [114.38263674750189, 36.404087641161], [114.38628598750743, 36.4162821250351], [114.37781421344388, 36.41577641224922], [114.36613956463627, 36.41786139014945], [114.36535489878155, 36.40484359472125], [114.34915001212516, 36.40656251816428], [114.34628871213665, 36.40532905268337], [114.34179618754814, 36.40487239401442], [114.33119850422467, 36.40485339210246], [114.32976713173636, 36.41289098514187], [114.32692590385538, 36.4148616524363], [114.3225544903401, 36.415256856014814], [114.31725538977862, 36.4168152531399], [114.31296298674906, 36.42151831566281], [114.31171366051592, 36.424666319292186], [114.31320387511302, 36.42806022272385], [114.29929926634392, 36.431674780196076], [114.28337224207505, 36.43431916727723], [114.27820851650625, 36.4377125207097], [114.28276646084203, 36.44585405567849], [114.28447951407381, 36.45085486535895], [114.27669520156466, 36.44849250723569], [114.2691094579775, 36.44494852199815]]]}}