{"type": "Feature", "properties": {"unit_id": "handan_130402", "name": "邯山区", "district_codes": [130402]}, "geometry": {"type": "MultiPolygon", "coordinates": [[[[114.62957429700181, 36.48644466133177], [114.62830422688408, 36.4937668101205], [114.62394985908978, 36.5003556102963], [114.62100525005569, 36.50742619210361], [114.6243311700532, 36.51226551249065], [114.63386355237078, 36.5199291726509], [114.63803425637099, 36.52569341323567], [114.63906084015964, 36.53211868449331], [114.63664191069884, 36.54125462267926], [114.63327707641807, 36.54233175810818], [114.63293440724772, 36.544071328374926], [114.62745194275291, 36.54486079432209], [114.62678646594856, 36.54788600987313], [114.62704874838543, 36.55155681097251], [114.62462966045663, 36.551752407239775], [114.62491099150816, 36.554979425392084], [114.6260605682114, 36.55542192595347], [114.62710775735515, 36.560232212097205], [114.62440685497967, 36.56181938063088], [114.61751144840615, 36.56442452996741], [114.61912347212508, 36.56979330090873], [114.62073702100126, 36.56901924520949], [114.62841696400389, 36.57064414554443], [114.63321320896029, 36.57035719722117], [114.63363620143045, 36.573824766469016], [114.64139341297877, 36.57324275999135], [114.6435493353066, 36.57480451162727], [114.64364996294532, 36.57656240165631], [114.64370968549743, 36.57813645418703], [114.6414737423149, 36.57821695115177], [114.64175589239028, 36.58147074353676], [114.63710181743924, 36.58226033457535], [114.63520646172073, 36.58614491118271], [114.63341217747247, 36.59615184613163], [114.63359332969362, 36.601558577624715], [114.63252478563669, 36.602959221069604], [114.62903867603542, 36.60334043910446], [114.62776808424411, 36.60588152829394], [114.62770764831559, 36.610736845868786], [114.62121613591769, 36.610714793383345], [114.62180008919536, 36.614961804244196], [114.60296100340457, 36.61453969770323], [114.58844572292104, 36.6116521731308], [114.57868854111129, 36.605515571908], [114.57264647930776, 36.59841365654659], [114.57284889885726, 36.59755436041716], [114.55952265305388, 36.595894787408334], [114.55547700724078, 36.5937729033033], [114.55513248190914, 36.59045011131567], [114.55359548031186, 36.59056317827073], [114.55325088224647, 36.58762713988142], [114.54863700436418, 36.58903716025605], [114.54416375067254, 36.588960561530286], [114.53928464253798, 36.58596494422132], [114.53385734171418, 36.58654126509359], [114.5355177175385, 36.589509808172544], [114.53181184467068, 36.58983820729075], [114.53379646437392, 36.59276867703655], [114.5333295845849, 36.59520113877396], [114.53460572279586, 36.597723967226344], [114.53312742085711, 36.59949722586036], [114.52433657082761, 36.59971470940547], [114.50391186961862, 36.60116160154375], [114.48285719293533, 36.60398655590017], [114.46946602236316, 36.60330296716743], [114.46912132249939, 36.59821391821828], [114.4611845857877, 36.57752837692121], [114.45679097541806, 36.5777889950159], [114.45330803556836, 36.57694077616229], [114.45268208339014, 36.56811117726448], [114.44227846684953, 36.56823597899295], [114.44171196242498, 36.56854483643916], [114.43070759337998, 36.568083692988736], [114.42674386626776, 36.5688906213331], [114.4269857131963, 36.57422202892278], [114.42462051858263, 36.574248548444146], [114.42389359148028, 36.57155328717192], [114.41979004174004, 36.57289201360039], [114.41857754854807, 36.570892179269705], [114.41497985228699, 36.57153753450866], [114.41625324429012, 36.57300549439011], [114.41017158653295, 36.5731864877792], [114.4093440754127, 36.57107135457613], [114.40692006634798, 36.57135059874813], [114.40645552449186, 36.573127559620126], [114.40328443223935, 36.57366793663222], [114.40237567067173, 36.57615058613396], [114.40316225458069, 36.58357656465355], [114.40166673408967, 36.5903368591063], [114.37993335653084, 36.58167524955098], [114.37977297595653, 36.57699193683833], [114.36912540110288, 36.57907055765944], [114.36364150370785, 36.57907797954827], [114.35141081683201, 36.55686109258513], [114.35366753949118, 36.55584282384784], [114.3605001294721, 36.55497241756583], [114.37124554506643, 36.55027217614897], [114.37675109773552, 36.549029651846716], [114.37723500799025, 36.546748333214914], [114.3855659516978, 36.54413250518369], [114.38508234703312, 36.54209389155419], [114.38736187273815, 36.540140337881596], [114.38740327416895, 36.53645917587807], [114.38879498564674, 36.53636138291217], [114.38915933331332, 36.53268902259619], [114.38891741724451, 36.52336279767703], [114.38621559279198, 36.50970614049675], [114.38397714024464, 36.502988967966], [114.38424047442116, 36.490090817875036], [114.3789155610597, 36.48699180097526], [114.37050633525986, 36.486788105831955], [114.37064688405047, 36.4896206254854], [114.34547292728166, 36.49656441912603], [114.34934267616066, 36.48802853690163], [114.35037052808416, 36.483955628227264], [114.35387805611475, 36.47654206376995], [114.35680039915974, 36.47170147894479], [114.35653900330281, 36.4695638502149], [114.35321421076621, 36.46598088355197], [114.33119176919142, 36.46595306292208], [114.33105134408345, 36.462984638819584], [114.31112540161706, 36.46285726670775], [114.31156890452975, 36.46092231202331], [114.31233659733284, 36.443389446063236], [114.31396878786077, 36.43565569267076], [114.31320387511302, 36.42806022272385], [114.31171366051592, 36.424666319292186], [114.31296298674906, 36.42151831566281], [114.31725538977862, 36.4168152531399], [114.3225544903401, 36.415256856014814], [114.32692590385538, 36.4148616524363], [114.32976713173636, 36.41289098514187], [114.33119850422467, 36.40485339210246], [114.34179618754814, 36.40487239401442], [114.34628871213665, 36.40532905268337], [114.34915001212516, 36.40656251816428], [114.36535489878155, 36.40484359472125], [114.36613956463627, 36.41786139014945], [114.37781421344388, 36.41577641224922], [114.38628598750743, 36.4162821250351], [114.38263674750189, 36.404087641161], [114.39131260971561, 36.40252362184008], [114.40207207106738, 36.40097253477254], [114.40078097521906, 36.38753269461569], [114.42613822718535, 36.38499907157722], [114.43384294075476, 36.381415843081996], [114.43353994448809, 36.375410623598455], [114.43805127230502, 36.37525232910574], [114.43910290436678, 36.37449927377404], [114.46177409437178, 36.37308291469402], [114.46305053374472, 36.37255321347754], [114.46230121722716, 36.370159247277115], [114.47866827624863, 36.37048330399727], [114.47947828579878, 36.37173413712016], [114.48073429263916, 36.37997069925315], [114.48314480712165, 36.37971569969036], [114.48484668623814, 36.387767639217365], [114.48446114736063, 36.38781550222767], [114.48583775179219, 36.395933441418535], [114.48664895081002, 36.396351652092335], [114.48806580941894, 36.403975877270526], [114.48484493277007, 36.40384950928267], [114.48293981332742, 36.399807558241754], [114.48012391867758, 36.39824010864355], [114.47785469033074, 36.40206824166876], [114.48002187111112, 36.40420352096478], [114.4816627791655, 36.40899132829609], [114.48261531021001, 36.41103625708269], [114.48350590632093, 36.41955643758471], [114.48814462312964, 36.42704193846614], [114.49039291319329, 36.43422962408933], [114.49193313901623, 36.434350144974104], [114.49622894710757, 36.44049840641827], [114.49977408125804, 36.45273883672194], [114.50656113290188, 36.46706590658091], [114.51043022466662, 36.47163336418167], [114.50968060239694, 36.47734757844622], [114.50684132232284, 36.4943583230506], [114.5077527549746, 36.49668194903225], [114.51012416659945, 36.49791640408375], [114.51377166245496, 36.49837191449317], [114.5190193066368, 36.49747848937112], [114.52189655133469, 36.495494554978414], [114.5310922046293, 36.49724066029444], [114.53959813752377, 36.49708795626125], [114.54261496884075, 36.49495797885343], [114.54206872476426, 36.490556778525736], [114.5449028773072, 36.48673392990506], [114.55641893699546, 36.48472691823142], [114.55807759900729, 36.48852008482214], [114.56796801183583, 36.487123778188895], [114.57063699456332, 36.48574376768593], [114.57037373159321, 36.48387730681688], [114.5827630870409, 36.48434369937317], [114.59330629808271, 36.481475464757374], [114.60331852852123, 36.476320458295596], [114.61723806085806, 36.47531643181988], [114.6293531530396, 36.4811753466482], [114.62957429700181, 36.48644466133177]]]]}}