{"type": "Feature", "properties": {"unit_id": "handan_core", "name": "主城区", "district_codes": [130403, 130402, 130404]}, "geometry": {"type": "Polygon", "coordinates": [[[114.6435493353066, 36.57480451162727], [114.64139341297877, 36.57324275999135], [114.63363620143045, 36.573824766469016], [114.63321320896029, 36.57035719722117], [114.62841696400389, 36.57064414554443], [114.62073702100126, 36.56901924520949], [114.61912347212508, 36.56979330090873], [114.61751144840615, 36.56442452996741], [114.62440685497967, 36.56181938063088], [114.62710775735515, 36.560232212097205], [114.6260605682114, 36.55542192595347], [114.62491099150816, 36.554979425392084], [114.62462966045663, 36.551752407239775], [114.62704874838543, 36.55155681097251], [114.62678646594856, 36.54788600987313], [114.62745194275291, 36.54486079432209], [114.63293440724772, 36.544071328374926], [114.63327707641807, 36.54233175810818], [114.63664191069884, 36.54125462267926], [114.63906084015964, 36.53211868449331], [114.63803425637099, 36.52569341323567], [114.63386355237078, 36.5199291726509], [114.6243311700532, 36.51226551249065], [114.62100525005569, 36.50742619210361], [114.62394985908978, 36.5003556102963], [114.62830422688408, 36.4937668101205], [114.62957429700181, 36.48644466133177], [114.6293531530396, 36.4811753466482], [114.61723806085806, 36.47531643181988], [114.60331852852123, 36.476320458295596], [114.59330629808271, 36.481475464757374], [114.5827630870409, 36.48434369937317], [114.57037373159321, 36.48387730681688], [114.57063699456332, 36.48574376768593], [114.56796801183583, 36.487123778188895], [114.55807759900729, 36.48852008482214], [114.55641893699546, 36.48472691823142], [114.5449028773072, 36.48673392990506], [114.54206872476426, 36.490556778525736], [114.54261496884075, 36.49495797885343], [114.53959813752377, 36.49708795626125], [114.5310922046293, 36.49724066029444], [114.52189655133469, 36.495494554978414], [114.5190193066368, 36.49747848937112], [114.51377166245496, 36.49837191449317], [114.51012416659945, 36.49791640408375], [114.5077527549746, 36.49668194903225], [114.50684132232284, 36.4943583230506], [114.50968060239694, 36.47734757844622], [114.51043022466662, 36.47163336418167], [114.50656113290188, 36.46706590658091], [114.49977408125804, 36.45273883672194], [114.49622894710757, 36.44049840641827], [114.49193313901623, 36.434350144974104], [114.49039291319329, 36.43422962408933], [114.48814462312964, 36.42704193846614], [114.48350590632093, 36.41955643758471], [114.48261531021001, 36.41103625708269], [114.4816627791655, 36.40899132829609], [114.48002187111112, 36.40420352096478], [114.47785469033074, 36.40206824166876], [114.48012391867758, 36.39824010864355], [114.48293981332742, 36.399807558241754], [114.48484493277007, 36.40384950928267], [114.48806580941894, 36.403975877270526], [114.48664895081002, 36.396351652092335], [114.48583775179219, 36.395933441418535], [114.48446114736063, 36.38781550222767], [114.48484668623814, 36.387767639217365], [114.48314480712165, 36.37971569969036], [114.48073429263916, 36.37997069925315], [114.47947828579878, 36.37173413712016], [114.47866827624863, 36.37048330399727], [114.46230121722716, 36.370159247277115], [114.46305053374472, 36.37255321347754], [114.46177409437178, 36.37308291469402], [114.43910290436678, 36.37449927377404], [114.43805127230502, 36.37525232910574], [114.43353994448809, 36.375410623598455], [114.43384294075476, 36.381415843081996], [114.42613822718535, 36.38499907157722], [114.40078097521906, 36.38753269461569], [114.40207207106738, 36.40097253477254], [114.39131260971561, 36.40252362184008], [114.38263674750189, 36.404087641161], [114.38628598750743, 36.4162821250351], [114.37781421344388, 36.41577641224922], [114.36613956463627, 36.41786139014945], [114.36535489878155, 36.40484359472125], [114.34915001212516, 36.40656251816428], [114.34628871213665, 36.40532905268337], [114.34179618754814, 36.40487239401442], [114.33119850422467, 36.40485339210246], [114.32976713173636, 36.41289098514187], [114.32692590385538, 36.4148616524363], [114.3225544903401, 36.415256856014814], [114.31725538977862, 36.4168152531399], [114.31296298674906, 36.42151831566281], [114.31171366051592, 36.424666319292186], [114.31320387511302, 36.42806022272385], [114.29929926634392, 36.431674780196076], [114.28337224207505, 36.43431916727723], [114.27820851650625, 36.4377125207097], [114.28276646084203, 36.44585405567849], [114.28447951407381, 36.45085486535895], [114.28631449618312, 36.4544800051527], [114.28264351927987, 36.45532614620225], [114.28276501621406, 36.459050387748846], [114.28681746196874, 36.45966510836565], [114.28744266031893, 36.461579456792144], [114.29286604664281, 36.46077829205166], [114.31043966623083, 36.46128219226847], [114.31001716829013, 36.462791289060036], [114.30431367923221, 36.46427160920994], [114.30378897472818, 36.46851862211767], [114.30427281546923, 36.47266795168838], [114.30286141521917, 36.47662555537084], [114.3005833737895, 36.4786504055693], [114.29653249330939, 36.48042703165987], [114.28949635663722, 36.482197487976606], [114.28653326922395, 36.48206548429477], [114.28576676908355, 36.48387563557211], [114.28346760828371, 36.48501894389208], [114.28270193625505, 36.47847283568047], [114.27626803432122, 36.47947629602345], [114.27457405424978, 36.4776986997725], [114.26712797247825, 36.479812607592606], [114.26769316564877, 36.486475185786325], [114.26527126348276, 36.48764618187395], [114.26440245861292, 36.49513120520372], [114.26510796404256, 36.49954972650256], [114.2763668403444, 36.49900916669404], [114.27858551826868, 36.49947070570565], [114.28126734626798, 36.502822198603866], [114.28261786934753, 36.50701664420032], [114.282678544873, 36.50954036278492], [114.28094312748561, 36.516047208142496], [114.2785225620376, 36.517645051773556], [114.27884477856618, 36.522951111839525], [114.27462847667219, 36.52830961999757], [114.27119855325341, 36.53037153966058], [114.26653754289724, 36.529901124643686], [114.26554852210687, 36.53075231111582], [114.26566914004768, 36.534172524388104], [114.27018913929717, 36.536740132177215], [114.27583790943785, 36.53729597977812], [114.27918570107981, 36.53988228080882], [114.279871071147, 36.54151471264549], [114.27773276740707, 36.54739195797403], [114.27799524089113, 36.55077294499366], [114.27547366211087, 36.550292682197124], [114.27494873711085, 36.55189634379638], [114.27629987017585, 36.5536831318441], [114.28037436726407, 36.55389079146698], [114.28263277470988, 36.55326054812387], [114.2845890579347, 36.55433063980524], [114.28321804489222, 36.55568459439859], [114.28307511610306, 36.56516178045134], [114.28029189345543, 36.56780156198604], [114.27758881377183, 36.57500056775412], [114.28545355473697, 36.57930829041406], [114.28216586150205, 36.58299225831617], [114.28591665165091, 36.583740293746544], [114.29315378214261, 36.58741937274673], [114.29355700676861, 36.5902102445955], [114.29059344245802, 36.58909411543684], [114.28875892602156, 36.59290153275999], [114.29279032311743, 36.5953575163724], [114.29091496469239, 36.599357968227565], [114.28867734663073, 36.59889730662792], [114.28412032955927, 36.600853058416924], [114.28178094075463, 36.603057586749564], [114.27762558471258, 36.60412348372509], [114.27290580470398, 36.60458165443687], [114.27139211949692, 36.60649483588558], [114.26951510763212, 36.611245595131955], [114.26903030353057, 36.61950921892787], [114.27092676921373, 36.620029481474845], [114.28002433609046, 36.61989496705559], [114.28296943229917, 36.61749799404288], [114.2844411049163, 36.618567605784584], [114.28855430487461, 36.61851434737467], [114.28897723019595, 36.62439138234374], [114.2934932442414, 36.62495466872642], [114.29746348316918, 36.6240221793683], [114.30086897087047, 36.63285657466942], [114.30252141811546, 36.6350355633834], [114.3034276503868, 36.639289533050366], [114.29756251765633, 36.640640280949874], [114.29572869140229, 36.64188737617174], [114.297320330978, 36.64513698577199], [114.3020162896603, 36.65167150545798], [114.30316458893263, 36.65228721750527], [114.30868638734214, 36.65164006369429], [114.31098357086687, 36.653362917467746], [114.31366229286833, 36.661780938946556], [114.31688538541714, 36.66663599961899], [114.31617994136148, 36.672309827318344], [114.3142245918182, 36.67775308158275], [114.31515085466582, 36.67956424458578], [114.31724626346646, 36.680235924242744], [114.31770886081702, 36.68579958260506], [114.31569392758296, 36.68874449608791], [114.31639932558217, 36.69251280964062], [114.31865491225327, 36.697822221955725], [114.3200245028242, 36.698378283589975], [114.31976229726989, 36.70427002533704], [114.3205473386904, 36.709715049259664], [114.31859199079248, 36.716033668978994], [114.32562363855405, 36.717340448628256], [114.32858502855031, 36.72087247979291], [114.33065920725613, 36.72232356030364], [114.33630039663944, 36.72151333815044], [114.33783186887717, 36.720344209264105], [114.33585750389851, 36.71851612270544], [114.33368274638468, 36.714616778827605], [114.3330182197402, 36.71187981155859], [114.33368328648531, 36.70977689640684], [114.33811600767336, 36.705777069522476], [114.34069513099406, 36.70088437737451], [114.34309269536281, 36.704350747049595], [114.34810965394234, 36.70286668037352], [114.35101130468661, 36.70109776766901], [114.35109238655153, 36.69925580118845], [114.35834788650858, 36.69885815629258], [114.35901268397224, 36.70155740480777], [114.36973602184403, 36.701773171677125], [114.37429377504489, 36.70256826550831], [114.37534151816904, 36.70625975982938], [114.38367146994503, 36.70626101647307], [114.40748977780041, 36.71137378946196], [114.4288306752254, 36.71278582376699], [114.4470382306289, 36.7134697399511], [114.44790789715421, 36.72075970328459], [114.46773077087778, 36.720216348251235], [114.48187148813129, 36.72043785701522], [114.48110242913933, 36.711596378849585], [114.48464853818521, 36.7112208265856], [114.48509449354323, 36.70965113193449], [114.49070815010484, 36.709522706912715], [114.49611838833492, 36.70791986269586], [114.4957130042604, 36.70542125084461], [114.49846910455227, 36.707020483640385], [114.49970469784469, 36.71125646790005], [114.50254230107412, 36.71124498522836], [114.50732444190922, 36.714209366683086], [114.51575340155384, 36.72130956330908], [114.51931927804453, 36.72178249748861], [114.52018977433852, 36.7205317818796], [114.52355357058171, 36.720792039911615], [114.52367475122308, 36.7233467130383], [114.54248894460449, 36.725573184872744], [114.55386382685774, 36.725249184186886], [114.58071782175453, 36.720745968632855], [114.58986832426628, 36.719064053491195], [114.59198867115302, 36.71808131025802], [114.59951985175181, 36.710253949439974], [114.60815628983208, 36.71395320867439], [114.68947036270731, 36.70880866049311], [114.69980279808956, 36.70210921278027], [114.69958178714187, 36.69696084811352], [114.71156938302565, 36.69597860027367], [114.72263536788283, 36.680150505087155], [114.71795967605271, 36.66908341451535], [114.73247484351278, 36.66647566877822], [114.73453219925138, 36.66708199138545], [114.73822240981596, 36.67096664578304], [114.7439717696045, 36.67248866266662], [114.76407572604299, 36.683853246042055], [114.76138883053879, 36.687593670276165], [114.76217559212678, 36.69347629569382], [114.76671835729204, 36.70352527290479], [114.80212765446645, 36.697925977834615], [114.80860057322222, 36.69029967053961], [114.80672132406494, 36.6751648998894], [114.8051645994204, 36.671063803600454], [114.80722772721614, 36.662559513977016], [114.80065574529871, 36.66151628018894], [114.80128361055898, 36.6554589613013], [114.79863462511281, 36.65496208131171], [114.7872933495716, 36.6540395804265], [114.78668678961667, 36.65069083318562], [114.78333193569438, 36.65048391946765], [114.78325115613767, 36.64741566663468], [114.75727573040572, 36.63659039312257], [114.74738644767831, 36.63169659426255], [114.72405160975565, 36.625570996426006], [114.71881147093904, 36.62326981323575], [114.71111399902254, 36.623279376172725], [114.71131507737383, 36.6195342691517], [114.71641326427583, 36.6193538709927], [114.7165952553224, 36.617008002392694], [114.71097357988609, 36.610779745501404], [114.70628060347755, 36.601353727574846], [114.7015472410574, 36.59283573401705], [114.69993545269136, 36.59182387838328], [114.69850708227412, 36.58414043950851], [114.68996665829899, 36.584782814334275], [114.69008707441341, 36.58781493516877], [114.68338155387367, 36.58960322678476], [114.67915300098042, 36.590026954336025], [114.68019912403312, 36.594843305533544], [114.6786083290805, 36.5984573064052], [114.67582962015867, 36.59857853572389], [114.67093590318662, 36.597197683612116], [114.66872122055548, 36.59448843513576], [114.66155364107738, 36.59116088447634], [114.65978108790296, 36.58598804378685], [114.66008377642291, 36.582695281295535], [114.65774818714533, 36.57957030595919], [114.6566009875471, 36.57641411734099], [114.64364996294532, 36.57656240165631], [114.6435493353066, 36.57480451162727]]]}}