{"type": "Feature", "properties": {"unit_id": "handan_130406", "name": "峰峰矿区", "district_codes": [130406]}, "geometry": {"type": "MultiPolygon", "coordinates": [[[[114.27547366211087, 36.550292682197124], [114.26296332216299, 36.55057166499126], [114.26255997012798, 36.54438804750026], [114.26070382027764, 36.54353933006618], [114.25822058413938, 36.54041885551944], [114.25638370424379, 36.5428161779865], [114.25660528710729, 36.54736678762014], [114.25452537303805, 36.547763063048414], [114.25511017458757, 36.55198576339551], [114.24870829037648, 36.55272996694844], [114.24866799145907, 36.55517369458486], [114.24638503345656, 36.55627495087504], [114.24662794106784, 36.55899955219016], [114.23854641751645, 36.56004090218953], [114.23361466659324, 36.56105289638361], [114.23337251831892, 36.559178737184425], [114.22835959412542, 36.559059347517305], [114.22455925325266, 36.55533609824226], [114.22253776912565, 36.55210787989451], [114.21436676680197, 36.550398783383514], [114.19322268134223, 36.543217067482935], [114.18358724014644, 36.54239843178637], [114.16789747564766, 36.54515177173493], [114.1598804832405, 36.54777458510991], [114.15439451106927, 36.551754700306184], [114.14842299231097, 36.55259503764641], [114.14386936069536, 36.55135131116497], [114.13761667531045, 36.55173772943952], [114.1373322647853, 36.55774619663174], [114.13838425225774, 36.564123345773815], [114.13753373929966, 36.566933637157256], [114.1351054682214, 36.56810863728857], [114.1300071372541, 36.568990619710625], [114.12786284894817, 36.572764081140285], [114.12559775396363, 36.57414283778893], [114.12458697450612, 36.57100345910671], [114.12050177530426, 36.57100852011576], [114.11882387691567, 36.568737287637184], [114.11459943856612, 36.560465490291385], [114.11490241257039, 36.55632186645461], [114.10297903530073, 36.55670236708532], [114.09920103576562, 36.55974533355394], [114.09968492586937, 36.56443088547408], [114.09924022874281, 36.56710644601784], [114.09701813618832, 36.56969509434312], [114.09382780915779, 36.571578506735435], [114.08964777157932, 36.57258420295449], [114.08238084482211, 36.571593750148665], [114.08026234513864, 36.56939254530812], [114.07790259439388, 36.56344474330095], [114.08040481687624, 36.55630333837735], [114.07875138658144, 36.55441171719526], [114.08046661356406, 36.54924095371617], [114.08593607154985, 36.54460961721033], [114.08597734447785, 36.54227078876389], [114.08446367772328, 36.53803982793723], [114.08018529533658, 36.53494046747987], [114.07471797016159, 36.536115001139784], [114.07171299870396, 36.53315187308259], [114.06526034949638, 36.53239683969553], [114.06312297962324, 36.52884384874333], [114.06340618684266, 36.52432065129634], [114.05929415044996, 36.52354374061878], [114.05699639332393, 36.5222044442767], [114.05211990410747, 36.52119920031078], [114.05413490755024, 36.51948410392451], [114.0540142779588, 36.51786112834117], [114.0500251018138, 36.515191385563476], [114.04734619525391, 36.51241239887788], [114.04809207109099, 36.510322802839994], [114.0543175908738, 36.511015866402836], [114.0557686045543, 36.509418905006704], [114.07234134551206, 36.50912292738243], [114.08588022501509, 36.50815371301686], [114.09498573221062, 36.50833440222213], [114.0967229927479, 36.5077155037814], [114.09805652398377, 36.50326856486058], [114.099793129143, 36.50214713610694], [114.09920808488432, 36.49800906131173], [114.09207917432359, 36.498996465345634], [114.08860588464218, 36.49864887209881], [114.09179648979398, 36.49506139282886], [114.0963617328449, 36.4813768341769], [114.09591799584157, 36.47633816068279], [114.09695107919356, 36.45574516344154], [114.09549874125159, 36.43212626815898], [114.0957431269782, 36.42137461299796], [114.09828942977813, 36.40904235290971], [114.10111829796436, 36.39717310193199], [114.1044931245267, 36.38600995190909], [114.1081518634589, 36.37530013122722], [114.11080017870684, 36.36983934521036], [114.118846991144, 36.36538940123865], [114.12962639233149, 36.364624665204886], [114.13901354964491, 36.36338761855217], [114.14670358123881, 36.361908050370914], [114.1546789714292, 36.35927753658347], [114.16326239566965, 36.35527247552285], [114.17130076848619, 36.35058911166134], [114.18045140663699, 36.34706042828306], [114.18960133868232, 36.34306533561015], [114.19642203332248, 36.34202132331686], [114.20380904343905, 36.34167407986229], [114.20913027612224, 36.34334813765955], [114.21412643683716, 36.34869280602618], [114.21541965397184, 36.35488523512457], [114.21444885863245, 36.36060006637198], [114.21541821848189, 36.367943629673114], [114.217542058412, 36.375074522283654], [114.22107963780012, 36.381759872782816], [114.2227361797349, 36.39736165873574], [114.22778970725176, 36.41277812453477], [114.23167050458088, 36.41764002222532], [114.23811715853553, 36.42093421403822], [114.2454507945854, 36.42332738005545], [114.25474072325802, 36.42688871962888], [114.26055391783922, 36.43292545216365], [114.26549833561405, 36.441235481630635], [114.2691094579775, 36.44494852199815], [114.27669520156466, 36.44849250723569], [114.28447951407381, 36.45085486535895], [114.28631449618312, 36.4544800051527], [114.28264351927987, 36.45532614620225], [114.28276501621406, 36.459050387748846], [114.28681746196874, 36.45966510836565], [114.28744266031893, 36.461579456792144], [114.29286604664281, 36.46077829205166], [114.31043966623083, 36.46128219226847], [114.31001716829013, 36.462791289060036], [114.30431367923221, 36.46427160920994], [114.30378897472818, 36.46851862211767], [114.30427281546923, 36.47266795168838], [114.30286141521917, 36.47662555537084], [114.3005833737895, 36.4786504055693], [114.29653249330939, 36.48042703165987], [114.28949635663722, 36.482197487976606], [114.28653326922395, 36.48206548429477], [114.28576676908355, 36.48387563557211], [114.28346760828371, 36.48501894389208], [114.28270193625505, 36.47847283568047], [114.27626803432122, 36.47947629602345], [114.27457405424978, 36.4776986997725], [114.26712797247825, 36.479812607592606], [114.26769316564877, 36.486475185786325], [114.26527126348276, 36.48764618187395], [114.26440245861292, 36.49513120520372], [114.26510796404256, 36.49954972650256], [114.2763668403444, 36.49900916669404], [114.27858551826868, 36.49947070570565], [114.28126734626798, 36.502822198603866], [114.28261786934753, 36.50701664420032], [114.282678544873, 36.50954036278492], [114.28094312748561, 36.516047208142496], [114.2785225620376, 36.517645051773556], [114.27884477856618, 36.522951111839525], [114.27462847667219, 36.52830961999757], [114.27119855325341, 36.53037153966058], [114.26653754289724, 36.529901124643686], [114.26554852210687, 36.53075231111582], [114.26566914004768, 36.534172524388104], [114.27018913929717, 36.536740132177215], [114.27583790943785, 36.53729597977812], [114.27918570107981, 36.53988228080882], [114.279871071147, 36.54151471264549], [114.27773276740707, 36.54739195797403], [114.27799524089113, 36.55077294499366], [114.27547366211087, 36.550292682197124]]]]}}