{"type": "Feature", "properties": {"unit_id": "shijiazhuang_130110", "name": "鹿泉区", "district_codes": [130110]}, "geometry": {"type": "MultiPolygon", "coordinates": [[[[114.1829784545409, 38.17646504921865], [114.19560732456837, 38.17728333796104], [114.19843540398273, 38.17710293428184], [114.19967204254864, 38.17560466608079], [114.20012476679571, 38.17167673886359], [114.20397340588875, 38.170089378468944], [114.20786046467104, 38.1704530528615], [114.20974501028107, 38.17192988276959], [114.21504443448903, 38.17347589545361], [114.2189500356623, 38.173613380314684], [114.2198334717257, 38.168795530449756], [114.22591528962444, 38.17002256129821], [114.2261912295972, 38.16634618367979], [114.22938805752152, 38.16449041002779], [114.22860407253452, 38.161542319404745], [114.23774296594513, 38.16064469035081], [114.24391898368658, 38.161164783649404], [114.24695693597018, 38.15989102629601], [114.2467810301033, 38.157819652616645], [114.24489940195602, 38.157222292586525], [114.24180284564356, 38.152003668989536], [114.24372411384519, 38.14991878611737], [114.24491994187956, 38.14431601811592], [114.24331371830233, 38.14124814020533], [114.2459405433395, 38.13871215735526], [114.24645072814216, 38.13248307300181], [114.24015837733793, 38.131592447950254], [114.23727602400629, 38.12953190126838], [114.23349188790573, 38.127976621480855], [114.23033385600557, 38.12867769947393], [114.22427326724967, 38.12726552241636], [114.22364526664474, 38.12552461463058], [114.2175229927318, 38.122609746668424], [114.21544311986827, 38.124678730060275], [114.21516888689393, 38.121384777424325], [114.20969206152259, 38.1197964942396], [114.20651222468588, 38.1181317545608], [114.20655166009799, 38.11531626888226], [114.20341072518708, 38.11266714845919], [114.20168352684252, 38.10875875636287], [114.21134280914265, 38.105331876944966], [114.21471872835582, 38.10557517203677], [114.21866392996158, 38.10169995070676], [114.21627024817833, 38.09703332041601], [114.21265941777867, 38.09298911452932], [114.2132091583407, 38.08922904942598], [114.21546661269444, 38.08711837834548], [114.21371978085944, 38.0856019501338], [114.21464347631455, 38.080858114516225], [114.21929484815718, 38.07986622967878], [114.21833354475415, 38.07353888244389], [114.2199432613977, 38.0709480811438], [114.22484779219067, 38.072681216623224], [114.23022337657348, 38.0717813455976], [114.23224386782498, 38.06953624311682], [114.23828327851612, 38.07043062757548], [114.24571391505887, 38.06575274317783], [114.24904548851848, 38.06728232221602], [114.25090679433282, 38.06724227634204], [114.25639290050704, 38.06503494263525], [114.258880998026, 38.06256065592314], [114.25886133256815, 38.05966305681436], [114.26176036951952, 38.05564702717312], [114.26608838694565, 38.05634882691311], [114.26924107661347, 38.05491038887007], [114.27366440590167, 38.056928228924754], [114.27534775578332, 38.05587646880198], [114.27180559216254, 38.05286096192376], [114.27053323025936, 38.050801546561495], [114.27298068843935, 38.048366023248384], [114.27460542145018, 38.04470780268963], [114.26922270443822, 38.0410554743809], [114.2684203550334, 38.036907169519154], [114.26615037022633, 38.03084338532515], [114.26227267280477, 38.02794591134921], [114.26129403345702, 38.02382348521528], [114.26270443922347, 38.021734373206954], [114.25986526034113, 38.01966019477261], [114.2547326850071, 38.0181724002869], [114.25132410309712, 38.01569833420312], [114.24622954379286, 38.01314365864971], [114.241192041868, 38.008366544486144], [114.24358416440717, 38.003538149915535], [114.25694848531032, 38.00203441300434], [114.25926024504726, 38.00150054270027], [114.26885607229514, 37.995867094464465], [114.27345673255572, 37.99510525179947], [114.28159775782106, 37.99677336173167], [114.29024415863043, 38.00220454757011], [114.29268967695995, 38.00000560162201], [114.29495851392359, 37.99527823365209], [114.29767746588197, 37.99170828726735], [114.29699361902098, 37.98948688282333], [114.29423648165545, 37.986017344520334], [114.29402091329912, 37.9845543545599], [114.2947071633732, 37.975303370670765], [114.29386712119788, 37.96727793465142], [114.29249807588562, 37.96433832410965], [114.28905499831406, 37.963064889912545], [114.28794079093419, 37.95742120970117], [114.2890957547091, 37.95623541186431], [114.29195247600347, 37.949160958586035], [114.28860795459319, 37.9417090817571], [114.28563506484294, 37.93967554588029], [114.28129085683214, 37.93800341255797], [114.27874763887657, 37.937793150356335], [114.27420735431289, 37.93565316373737], [114.27205492913752, 37.929501794043354], [114.26874630277281, 37.925562567947715], [114.26306883178623, 37.92442082782615], [114.26089479248618, 37.922610493440985], [114.26567350299858, 37.918705243766], [114.2692570634801, 37.91810272382532], [114.27256526607407, 37.916448781381256], [114.27154773308503, 37.91550344237513], [114.26710379305324, 37.91508063058826], [114.26207152047158, 37.90918233711813], [114.25889919644254, 37.906879213296286], [114.25913446339312, 37.90510678900616], [114.26154307902489, 37.90382655630244], [114.26383458083872, 37.90112090306588], [114.26501002705756, 37.897283520744786], [114.2711381401777, 37.89596003485156], [114.2753864042133, 37.8961423641103], [114.28131603452132, 37.89344469501878], [114.28517101466244, 37.89226788172506], [114.2894745294294, 37.894833721470626], [114.29543941576337, 37.896983498968666], [114.29469605851979, 37.89934306537683], [114.2896299135766, 37.8987112350006], [114.28959075292738, 37.90044261538905], [114.29225045454544, 37.90363647848118], [114.29377674533015, 37.9029821246966], [114.29561483570508, 37.900074813838856], [114.30067998111923, 37.90123903282899], [114.30437505588428, 37.90625582086432], [114.30638895364743, 37.906718444281424], [114.30664385445748, 37.90421352194742], [114.31262722484, 37.89610230513973], [114.31409288262684, 37.8952464572494], [114.32009474760616, 37.893809966216274], [114.32386698861748, 37.89466894658825], [114.3327805036583, 37.89922172264396], [114.33301535808992, 37.896889835913086], [114.33113902763125, 37.89424192924775], [114.33151060009286, 37.89221584156832], [114.33405193896989, 37.893223175081374], [114.33717962141442, 37.89125888085132], [114.33590913265495, 37.88900886812629], [114.33725779100916, 37.88864625224199], [114.34126465293777, 37.88989199205183], [114.34581964040879, 37.892402146412124], [114.34900660025636, 37.89099723936257], [114.3544223197539, 37.89012187357969], [114.35747274846983, 37.89140918116377], [114.36279169245233, 37.891108040684735], [114.3633391890379, 37.889601971026245], [114.36824873111846, 37.88783591186362], [114.36850331974694, 37.889021798952236], [114.38024275158008, 37.88742252145929], [114.38429464081513, 37.88831231934185], [114.38652568920638, 37.88976299825298], [114.39169478037445, 37.88998711591132], [114.39273212971976, 37.886895092546055], [114.38830772539616, 37.88564411569495], [114.39443635768434, 37.88573522826798], [114.39563039625779, 37.88669401815365], [114.39517993998908, 37.88998575988588], [114.39318269382085, 37.89065259798896], [114.39282930637005, 37.89385033417484], [114.40185921711324, 37.896686845532294], [114.40712950225048, 37.896993362430536], [114.40771773003542, 37.89899186564511], [114.4125194118059, 37.897501208149514], [114.42410806609266, 37.90144013912877], [114.42477503891897, 37.90296008177905], [114.42295068712839, 37.90512975232498], [114.42275409959923, 37.90736800184066], [114.42901199739134, 37.91079819930011], [114.43315120220181, 37.91440016183246], [114.43652672978942, 37.91587028165934], [114.44045297248101, 37.91963223532253], [114.44679529899254, 37.91885842297877], [114.4475216972112, 37.91627531422471], [114.45372866195282, 37.91527583955673], [114.45528041006838, 37.91714359441485], [114.46113597641319, 37.9173971376432], [114.46288384021429, 37.91937275583059], [114.46575297141786, 37.92023205710303], [114.47265258294857, 37.92054313796907], [114.47416504846537, 37.923397798915175], [114.47729103399098, 37.92488470934749], [114.48258024520666, 37.92339538881171], [114.48527273523644, 37.926891866720325], [114.49878151750953, 37.92671889046514], [114.49909561468738, 37.928531193360065], [114.50141620586638, 37.92899124207804], [114.50165167811681, 37.93338682936706], [114.50745263899486, 37.93372423209887], [114.5073928750903, 37.93823796626413], [114.50998748855936, 37.94724750076238], [114.50957427255844, 37.95182722081571], [114.50691937325307, 37.95175232167372], [114.50701734274412, 37.955533395274884], [114.50292751604191, 37.95474901586109], [114.50143284772227, 37.95876537125764], [114.50125469803841, 37.96231957767022], [114.50233608067768, 37.963268016190824], [114.50147085690888, 37.96873656853002], [114.49974024340386, 37.972365143207575], [114.49222817634498, 37.97114443027992], [114.49252355948627, 37.969761017935355], [114.48432349555874, 37.97329165204724], [114.47966355548793, 37.975167704680814], [114.47866141038043, 37.976629187970744], [114.47549609759015, 37.975742195419926], [114.46883274706045, 37.975857358121495], [114.46842054250082, 37.973100705623544], [114.466749579652, 37.971606092139695], [114.46248531799111, 37.971635464310324], [114.46215096498776, 37.97319197973132], [114.45558879717858, 37.973429774093766], [114.45191482525098, 37.976123410758525], [114.45205197899617, 37.97842618504142], [114.45715912719885, 37.980393772535606], [114.45658888309453, 37.98348013621232], [114.45493851954845, 37.98341044707319], [114.45375896935705, 37.99002128068857], [114.4452543895354, 37.99133547982777], [114.44509766868067, 37.99373070021043], [114.43172881681332, 37.99312347858814], [114.43165055464777, 37.99393555002018], [114.42621589255629, 37.99343703978212], [114.42254745731621, 37.99428463199823], [114.42231173240278, 37.99717203752274], [114.42119418495112, 37.99530767764004], [114.41948729019146, 37.99804790025156], [114.41856548402541, 38.0021320910468], [114.42156562353762, 38.00491504201026], [114.42172222367384, 38.01035633900328], [114.41995636664437, 38.01161916065387], [114.4130544843848, 38.01125576725669], [114.41107509658111, 38.01390249129991], [114.40617491366389, 38.01375413211907], [114.40472470444851, 38.01559033722519], [114.40354848118658, 38.01982015764844], [114.40139325150906, 38.020711352917594], [114.39796510268894, 38.01966055318037], [114.3918740787827, 38.022004044586566], [114.38954406054987, 38.02396063088371], [114.3896616752981, 38.02704622526577], [114.3921076938485, 38.03356240511106], [114.39089327551969, 38.03760583509344], [114.38701694712107, 38.03779409278657], [114.38646881556801, 38.040214968707495], [114.38271027342891, 38.040244767925905], [114.379970549954, 38.04190949133353], [114.37801243389947, 38.0450490172527], [114.3779541836436, 38.047482589455186], [114.3803216426701, 38.04777341368457], [114.38030117242087, 38.05181528510444], [114.38188730547787, 38.05177388967109], [114.37828497834069, 38.055698996451085], [114.3790294445037, 38.05607135833418], [114.37889189844124, 38.06138960359696], [114.37493863974409, 38.06265591185001], [114.37090745546696, 38.069293955362944], [114.37033963692483, 38.072458308789756], [114.36797169974336, 38.084171730360985], [114.37544466240745, 38.08418880779764], [114.37685340140514, 38.0857296426989], [114.376187477833, 38.089265049620565], [114.3761085029874, 38.097928871981765], [114.37559980122906, 38.09874057272706], [114.36990595149283, 38.0986011591416], [114.36879080913306, 38.10106006277154], [114.37168570917808, 38.10279781276483], [114.37285937066991, 38.104948854836536], [114.38082343294211, 38.10572384889171], [114.38871242482443, 38.10582506697415], [114.39172723184498, 38.10449423330083], [114.3971126078622, 38.105688594496115], [114.39730847390194, 38.10720284673314], [114.4100047476212, 38.10874479547497], [114.41129875819233, 38.11079166277535], [114.41033705376132, 38.11716754134318], [114.40328273882122, 38.11686114293773], [114.40255627188726, 38.12580083296779], [114.40382964272145, 38.12866940937886], [114.40584795412556, 38.12868261783921], [114.40772915281883, 38.13056932527456], [114.40743443656673, 38.13458000310035], [114.40896242597499, 38.136970827386115], [114.41251050422854, 38.14015970630861], [114.41623483640564, 38.14058675445641], [114.4169791469165, 38.14608421410316], [114.4199604083394, 38.14546223026261], [114.42711832395149, 38.15497664230328], [114.43237616843946, 38.161501147536256], [114.43853885756052, 38.166620992986324], [114.43453353099737, 38.17339809684919], [114.42827403573952, 38.175859453697825], [114.41870014593948, 38.19082082761012], [114.41011230293408, 38.19676116415552], [114.40580014708675, 38.20184187042321], [114.40405514175669, 38.2090057044978], [114.40236957638464, 38.21414036104065], [114.39566912860502, 38.22399668383233], [114.3925932262401, 38.229422477439186], [114.38804950885734, 38.239610050123396], [114.38593531451203, 38.24606915621444], [114.38620862685931, 38.25105450910516], [114.38763653214333, 38.256834176510935], [114.3844649001936, 38.26223188927393], [114.37904326298823, 38.26606785931992], [114.38045210295147, 38.268544786310315], [114.37961050495323, 38.26939363164308], [114.37542255536263, 38.26869576534337], [114.37424820829449, 38.271281281739995], [114.36628590177696, 38.273438338654856], [114.36067274899185, 38.27425546415718], [114.35844383491239, 38.27376884318933], [114.35435716637086, 38.270209095740995], [114.34769086642441, 38.268299334566336], [114.3448565146158, 38.26882045237142], [114.34080915388263, 38.27128009138279], [114.33312677474999, 38.27124157669576], [114.33040992092846, 38.26909958317449], [114.32249439447706, 38.266927547471845], [114.31969974166445, 38.263513534319046], [114.31621980396102, 38.26336105524701], [114.3125254650602, 38.25985453032825], [114.31100128392013, 38.25728504047914], [114.30816564947918, 38.2589472716297], [114.30550726974165, 38.254815491388946], [114.30548773240155, 38.251170143487556], [114.30668099152729, 38.250385992340426], [114.2860486820191, 38.245882070024614], [114.27657808218139, 38.24296246568244], [114.25968254106839, 38.238028573211345], [114.2543347824639, 38.23680995982986], [114.25310126908151, 38.23576203544102], [114.23341986880294, 38.237256645470694], [114.23285190951889, 38.229656381232715], [114.22943948658418, 38.229217015485155], [114.23383409546413, 38.22366221202296], [114.23259913000932, 38.216074467429465], [114.22959847670074, 38.21466623983728], [114.22855941296457, 38.20874864539721], [114.22473445100283, 38.20920952348653], [114.21666851433255, 38.21205363130931], [114.21433290654554, 38.214717222387335], [114.2122128447593, 38.215404662602], [114.20657906171463, 38.213552770583966], [114.20210358942595, 38.21033569708437], [114.19796025552331, 38.209041986138736], [114.19409109294577, 38.20939363753359], [114.19088990409783, 38.20719984650387], [114.19077311876194, 38.202488970739374], [114.19554566410159, 38.1980924513657], [114.19110804882894, 38.19470140583667], [114.19002803087585, 38.19293425881375], [114.18727791203588, 38.19128414822486], [114.19254232753381, 38.18611756597613], [114.1928764532837, 38.184936953051725], [114.18729900344721, 38.18269785446606], [114.18602203789817, 38.18322665011259], [114.18492193203096, 38.18092830123674], [114.18215250928709, 38.179609041888156], [114.1829784545409, 38.17646504921865]]]]}}