{"type": "Feature", "properties": {"unit_id": "shijiazhuang_130108", "name": "裕华区", "district_codes": [130108]}, "geometry": {"type": "MultiPolygon", "coordinates": [[[[114.48432349555874, 37.97329165204724], [114.49252355948627, 37.969761017935355], [114.49222817634498, 37.97114443027992], [114.49974024340386, 37.972365143207575], [114.50147085690888, 37.96873656853002], [114.50583588597983, 37.96929574517662], [114.50559969882572, 37.97113142600659], [114.51491969552217, 37.97166504409512], [114.51432971681591, 37.96821560307859], [114.52400270143394, 37.9687092102167], [114.54669779313816, 37.97034986044676], [114.54714944795127, 37.96767526391242], [114.5515882161524, 37.96789640939152], [114.55274604363598, 37.97105432838569], [114.55582817763745, 37.971233125815836], [114.55557325276747, 37.97361516439221], [114.56016662463414, 37.97314400985679], [114.56020561268187, 37.97406226706841], [114.56691719656368, 37.973460195785016], [114.56874165009238, 37.974047725140196], [114.56899652900398, 37.97937217348593], [114.57327294771761, 37.97969626900595], [114.57319399416434, 37.978139854509315], [114.5772731449518, 37.97818292335905], [114.57854845837782, 37.972953938119936], [114.58115683618719, 37.971704733778225], [114.58603783928598, 37.97160074170055], [114.58693844396228, 37.97306549154819], [114.60272731438987, 37.97285431442854], [114.60298128389093, 37.9818651573344], [114.60464503950347, 37.98198472728741], [114.6039204360613, 37.98843930882578], [114.60603480309369, 37.99026201344044], [114.61159350714502, 37.9904453751744], [114.6124148392721, 37.992175241589536], [114.6160742992296, 37.99226570593408], [114.6160940450165, 37.99439514391453], [114.61930227363314, 37.99443149056015], [114.61947878757503, 37.99727893957634], [114.62194332106006, 37.997157598178866], [114.6221583078642, 37.995227974931964], [114.62687276834036, 37.9950628878963], [114.62697000355503, 37.99185609346335], [114.63135100421334, 37.99157067676142], [114.63387354664506, 37.98836064757813], [114.64124353502378, 37.98434402470424], [114.64198659733003, 37.980630077478025], [114.64429337097104, 37.979854230572535], [114.64431369945231, 37.976593508983065], [114.6513297063916, 37.97652763501511], [114.65146674098368, 37.97369279726364], [114.65441755370048, 37.9732744645806], [114.65426119324623, 37.97057317771924], [114.66365938999367, 37.97059579624095], [114.6644797376377, 37.96869084230545], [114.66809439810328, 37.96909603840566], [114.66506531284945, 37.97829975290804], [114.66385322733716, 37.985807641144824], [114.66223090985504, 37.98577169599789], [114.66225062442139, 37.9879001105486], [114.65994479113232, 37.98799844933408], [114.65969100172006, 37.991138588874456], [114.65660377136, 37.99147735377151], [114.65304711050436, 37.99418534525754], [114.65124820851965, 38.000162794733505], [114.65001753892415, 38.00202833564051], [114.64989912971222, 38.00780277273367], [114.64673330385911, 38.00948451613269], [114.64679193312664, 38.011745900936106], [114.64958620176915, 38.012831386577396], [114.65103200749849, 38.01477129087599], [114.6537871787959, 38.01507248012904], [114.65663975422333, 38.017461829750125], [114.65658067385074, 38.01931133242888], [114.65886665627004, 38.01921410657828], [114.65882751254918, 38.021249613404144], [114.66130895281202, 38.02140402234421], [114.66115197408072, 38.024330940777965], [114.6644543774535, 38.025335927423555], [114.66818583328389, 38.025115768461035], [114.66816544981401, 38.028906615187985], [114.6752968224004, 38.02974412333449], [114.67680021694704, 38.030805475254176], [114.67599967640669, 38.03427774321792], [114.67267800783011, 38.03759581173952], [114.67115317583576, 38.040856428612486], [114.60416702116797, 38.05421722782698], [114.58538050893999, 38.05840282422616], [114.58553798620451, 38.05543828731162], [114.58536394239788, 38.036609216068214], [114.50586745681707, 38.03494380501328], [114.50624270785076, 38.02019478025851], [114.48835156362313, 38.00238059092435], [114.48612957892624, 38.001389868546866], [114.48642518656774, 37.997943996452776], [114.49016307479921, 37.97605033957016], [114.4839889247371, 37.975140073404404], [114.48432349555874, 37.97329165204724]]]]}}