{"type": "Feature", "properties": {"unit_id": "shijiazhuang_130109", "name": "藁城区", "district_codes": [130109]}, "geometry": {"type": "MultiPolygon", "coordinates": [[[[114.85385829954325, 38.2629781416071], [114.85393735584081, 38.263827350091475], [114.85052231111563, 38.26623394624737], [114.85109102715582, 38.269999240396224], [114.84518447219651, 38.272653327548475], [114.84304600676768, 38.271483428888814], [114.83733417138005, 38.27342121432833], [114.83179925770858, 38.27667120028585], [114.81878605653962, 38.28063621929409], [114.81868711218438, 38.28687851365956], [114.81815777220807, 38.288135631464726], [114.81446741237374, 38.289056975680005], [114.81022913928956, 38.28908943669115], [114.80907040146754, 38.29126056760312], [114.80436131530625, 38.293279700461994], [114.7991806115278, 38.29686258429027], [114.79761025655932, 38.300026357534534], [114.79337348410823, 38.30047012395248], [114.7885474029577, 38.30002650656743], [114.7813115665534, 38.30111789877262], [114.76960766195926, 38.29996727558622], [114.76153489988648, 38.30152685302805], [114.75812527470082, 38.30285073992393], [114.75961437172485, 38.30695743603499], [114.75920189235478, 38.30960743747933], [114.75553841469973, 38.31229562885764], [114.75250289027194, 38.312586245073426], [114.745748526177, 38.311063538353224], [114.73811465138846, 38.31065500476158], [114.73651023211187, 38.30556853514279], [114.72520112650524, 38.30802790823923], [114.72244324498095, 38.30960666544239], [114.71782852757576, 38.3088706501874], [114.71252959267787, 38.309089224584774], [114.71208067917102, 38.30602865466812], [114.70504334508857, 38.30288647001061], [114.70263980287187, 38.3035922023285], [114.70105713224697, 38.30139557583645], [114.697617083298, 38.30095016674004], [114.69810636574839, 38.298525205429996], [114.69980720619307, 38.296216268396364], [114.6992012342847, 38.28918177841882], [114.69720827974616, 38.289225080957436], [114.69607511197754, 38.28499968089733], [114.69838139414665, 38.284822806488854], [114.69804933428328, 38.282531180790414], [114.70013968697779, 38.286357046817244], [114.70389214696547, 38.28868430018651], [114.71288430458917, 38.2894395526669], [114.71794888256532, 38.28715414998294], [114.72276004838696, 38.28213956768723], [114.72289722725387, 38.279144192360626], [114.72172379534649, 38.27835032412491], [114.7164442006715, 38.27742816737813], [114.7133941570638, 38.275086773764606], [114.71192782602415, 38.27249047343337], [114.71267215556335, 38.25922025665405], [114.71331864556393, 38.254685957854704], [114.71282963562881, 38.252896407879845], [114.70403318214792, 38.25156978226481], [114.70051533190318, 38.24844597496066], [114.69398880620703, 38.24771481224726], [114.69402785504549, 38.24657462002404], [114.68885019916691, 38.245535673738075], [114.68908501532631, 38.24263192483165], [114.69555310947797, 38.2425405500043], [114.69510398725099, 38.234425371993595], [114.69170428750063, 38.233980236646104], [114.69065005213511, 38.22987060761826], [114.69084499259365, 38.22670086500824], [114.68457381696578, 38.227826422880206], [114.68187674904225, 38.229701695005325], [114.6791421798313, 38.228526715748735], [114.6802564028629, 38.221613725023495], [114.68121427865026, 38.22092182647715], [114.6821716552175, 38.21594636714248], [114.68174186846156, 38.21395690622403], [114.67873416188692, 38.210779159018934], [114.67955476560421, 38.20642599361918], [114.67996568006843, 38.19891513439934], [114.68127468844254, 38.19874063642312], [114.68162763603794, 38.192144989564866], [114.67992849882184, 38.18381391438917], [114.67525971090647, 38.18035826389296], [114.67510402892529, 38.172010213786685], [114.67637407998258, 38.17199478196396], [114.67614047832356, 38.16452098554336], [114.6728392649428, 38.163545144704706], [114.6731911845077, 38.15709236694449], [114.67274350834164, 38.145873254136504], [114.67446255096266, 38.1455248958062], [114.67440394372854, 38.14328160558466], [114.66377663429193, 38.142199728747514], [114.66162803500724, 38.13758194055695], [114.66440188839276, 38.136222456064125], [114.66420748237294, 38.13490758301531], [114.66168727346167, 38.13431422937779], [114.66274211007273, 38.132346880721215], [114.66315302857288, 38.12486870682275], [114.66088753529256, 38.12148532557536], [114.65946072541472, 38.12151499165666], [114.65832820825317, 38.11300145581496], [114.65793928271349, 38.1023070811605], [114.66729847253848, 38.09904782158394], [114.67503434602328, 38.10068031995932], [114.68749872251145, 38.10176010973972], [114.68792936073673, 38.09656329307144], [114.69783620873321, 38.09659899794897], [114.6978565183163, 38.093543353103385], [114.69951720057263, 38.093287568269965], [114.69947852652028, 38.091122196285845], [114.70143271517676, 38.09074697430853], [114.699147702268, 38.07793805820495], [114.69344246391604, 38.06953397140593], [114.6894578532003, 38.0627876257308], [114.68713179641252, 38.064573217579], [114.68383028102294, 38.06407420963073], [114.68177921304371, 38.06180457604019], [114.68166175034686, 38.05945230562884], [114.67824256342446, 38.05991087307572], [114.677754943785, 38.0576913370831], [114.6758203111048, 38.058692239845364], [114.67337959450525, 38.05327177821648], [114.6730482237695, 38.04571982213783], [114.6705280837837, 38.04561863534529], [114.67035187938087, 38.04221425316095], [114.67115317583576, 38.040856428612486], [114.67267800783011, 38.03759581173952], [114.67599967640669, 38.03427774321792], [114.67680021694704, 38.030805475254176], [114.6752968224004, 38.02974412333449], [114.66816544981401, 38.028906615187985], [114.66818583328389, 38.025115768461035], [114.6644543774535, 38.025335927423555], [114.66115197408072, 38.024330940777965], [114.66130895281202, 38.02140402234421], [114.65882751254918, 38.021249613404144], [114.65886665627004, 38.01921410657828], [114.65658067385074, 38.01931133242888], [114.65663975422333, 38.017461829750125], [114.6537871787959, 38.01507248012904], [114.65103200749849, 38.01477129087599], [114.64958620176915, 38.012831386577396], [114.64679193312664, 38.011745900936106], [114.64673330385911, 38.00948451613269], [114.64989912971222, 38.00780277273367], [114.65001753892415, 38.00202833564051], [114.65124820851965, 38.000162794733505], [114.65304711050436, 37.99418534525754], [114.65660377136, 37.99147735377151], [114.65969100172006, 37.991138588874456], [114.65994479113232, 37.98799844933408], [114.66225062442139, 37.9879001105486], [114.66223090985504, 37.98577169599789], [114.66385322733716, 37.985807641144824], [114.66506531284945, 37.97829975290804], [114.66809439810328, 37.96909603840566], [114.6644797376377, 37.96869084230545], [114.66629684555414, 37.96634389476346], [114.66635605027889, 37.96333515308145], [114.67104514320951, 37.96408533545281], [114.67163099392876, 37.96224682790142], [114.67608572124584, 37.96175918944806], [114.67768835942495, 37.958720498357394], [114.67483595957256, 37.958739952554176], [114.6766532809984, 37.95406350763539], [114.68253446028697, 37.9479401065777], [114.68929499008804, 37.9420554597204], [114.69599813280657, 37.93799589376488], [114.70358145411484, 37.93486795932925], [114.72225303010703, 37.924055596957174], [114.73448020002111, 37.92050193484334], [114.74285669174868, 37.91967302997508], [114.75125631088709, 37.91975193344629], [114.7595617213127, 37.91506454198523], [114.76044380908172, 37.908949673225415], [114.75801493061792, 37.90809671462965], [114.7584266044451, 37.903500956471575], [114.75321638485032, 37.90301982650484], [114.75339264898376, 37.90091444639523], [114.74759657845357, 37.90168760510928], [114.74849804751756, 37.89667757733639], [114.74323124843998, 37.896252433012336], [114.74370146919446, 37.89297469732425], [114.74178335266225, 37.89134896320313], [114.74730376124539, 37.89174778142964], [114.74840106123244, 37.8879229663783], [114.75118193532619, 37.88814992789081], [114.75202432328682, 37.88512441013398], [114.75458961165725, 37.88547174112587], [114.7554114192767, 37.888630455663694], [114.76818578282182, 37.89080723896877], [114.7728890386197, 37.890810703604956], [114.77516310260903, 37.893677180681266], [114.77943699164311, 37.89520058556961], [114.79010486375223, 37.89308192167361], [114.79683430674976, 37.88741449573168], [114.80503615931859, 37.88016526654101], [114.81290630933711, 37.87611319039624], [114.82939157540606, 37.875104492676265], [114.8623183420161, 37.877453496636626], [114.87422210306576, 37.87434989504484], [114.8812009445203, 37.87119799163217], [114.8917242295155, 37.86777899926748], [114.89683721696537, 37.86155553393014], [114.89487792339371, 37.86123499840686], [114.89480034566104, 37.85730231865856], [114.8996768581324, 37.85677014148676], [114.89997121774506, 37.853423612841404], [114.90145906100284, 37.85351768345483], [114.90169371237464, 37.85633014609327], [114.90337764695875, 37.85390367502509], [114.90631374680576, 37.85329015059051], [114.90989586337678, 37.853635170037734], [114.90989571283998, 37.85498239124121], [114.91629355118263, 37.85532516177463], [114.9261498603856, 37.85719680901932], [114.92826147089842, 37.85719439104719], [114.9324252970298, 37.85509570775561], [114.93240665845902, 37.85218925744985], [114.93428223953671, 37.85017328488845], [114.93725304704199, 37.85046283793608], [114.93762405630112, 37.852141523350255], [114.94436419204227, 37.85264997306269], [114.9463562539882, 37.85115294992748], [114.94871972492527, 37.8531345942497], [114.94871948505302, 37.85526794472834], [114.95209689950939, 37.856367087466985], [114.95652877087849, 37.85590417402131], [114.96043311043408, 37.859201525831175], [114.96761494576613, 37.8598095410978], [114.96790817271793, 37.8576224083381], [114.97442476423173, 37.857924863484065], [114.98146714642499, 37.85891804067659], [114.98103651986966, 37.87010319026451], [114.98031424938631, 37.87914186327411], [114.97949426786842, 37.880063383822375], [114.97385637683129, 37.8796391816839], [114.97356300261607, 37.883571696240736], [114.97159312695509, 37.88380312140139], [114.97161162463875, 37.88762776545051], [114.96765066299008, 37.887598315375065], [114.96702551463606, 37.890398458748244], [114.96513275679577, 37.89258873722819], [114.96462496249706, 37.89712087116731], [114.96128702038926, 37.89732821933864], [114.96118890288719, 37.90117918223388], [114.95892504677178, 37.902290834982644], [114.96048533359688, 37.90866831577676], [114.96204703417934, 37.91052986239229], [114.96263175173574, 37.9136450190683], [114.96520814683208, 37.9132924667026], [114.96698358705963, 37.91740469323539], [114.96928659341349, 37.91685253214126], [114.97096439414543, 37.91883242768734], [114.97445668801434, 37.91892889335888], [114.97396880302078, 37.924871414173495], [114.97447560185483, 37.927826598006206], [114.97308966314739, 37.92799045413548], [114.97147026070749, 37.93036534291089], [114.97148953315883, 37.936131448383506], [114.96875723017548, 37.93641882026389], [114.96928385172501, 37.94098534883871], [114.97174147678585, 37.94618480725112], [114.97478353287997, 37.96221975942113], [114.97558294112876, 37.96772868098464], [114.97378673451453, 37.975041204511136], [114.97021542805881, 37.98577818537789], [114.96840006673199, 37.99265046756988], [114.96777468102226, 37.99768218064913], [114.96911980361752, 38.00776378209771], [114.96638682739543, 38.02102076555365], [114.96662023587857, 38.02789662589036], [114.9682978425564, 38.03272027036024], [114.97516503513931, 38.04146649517285], [114.9760033911222, 38.04605112011318], [114.9750851214818, 38.05199793860925], [114.97266485891615, 38.062055724835986], [114.97346420167116, 38.06847486489158], [114.97744220260134, 38.0877356975036], [114.97705142584556, 38.08987623405092], [114.96399808509122, 38.08988523848894], [114.95956789729868, 38.087623659935424], [114.9578695944424, 38.08483610889659], [114.93808773037463, 38.076329704468044], [114.93429727227971, 38.07128446735649], [114.90347171049827, 38.06689536160952], [114.89840099648082, 38.060499893630016], [114.89305408298306, 38.06029951099965], [114.89274084558814, 38.06149564476321], [114.88660780978735, 38.06146656750088], [114.8843153121856, 38.060321798200555], [114.87443728903638, 38.05288042433596], [114.87443763313783, 38.049835784451886], [114.86392666487924, 38.04910471266814], [114.8591406653673, 38.04750246673387], [114.84464105735142, 38.046972448764166], [114.84089292800226, 38.04707275481859], [114.83975414190364, 38.04953020272005], [114.8362022277144, 38.04951067089139], [114.83518173235144, 38.05125014514255], [114.83537683008423, 38.05425613890595], [114.82962676847913, 38.0542313934657], [114.82173664287633, 38.05514781460671], [114.81877242504878, 38.05958325350455], [114.81871283162808, 38.06359798106243], [114.82201003096557, 38.06594357701077], [114.82220560075088, 38.07360052491471], [114.8216360879927, 38.07550085576403], [114.82277396047031, 38.08177625965811], [114.82597330120807, 38.08148918578398], [114.83066365467727, 38.084754647915055], [114.82824883064401, 38.087421659164136], [114.82809214279563, 38.09030494699405], [114.82970067567891, 38.091583221935075], [114.82950401981944, 38.093390215727204], [114.83303703286181, 38.093755903240954], [114.83268371737509, 38.09824713961185], [114.83654937974322, 38.09891846053625], [114.83497946420508, 38.102250210648975], [114.82310539632863, 38.10205595036176], [114.8190231056227, 38.10226041245724], [114.81684439438251, 38.10064909423532], [114.81682362446493, 38.10696029891394], [114.81497949952794, 38.10711597639564], [114.81401706691625, 38.10977175828171], [114.80697188215527, 38.109931425086415], [114.80612744972036, 38.115776122246245], [114.80646075034598, 38.11919034120708], [114.80575402943578, 38.12139456619478], [114.80290918973417, 38.12172190538602], [114.80212422424974, 38.125160278563825], [114.8022019353424, 38.12901312717114], [114.80074983457757, 38.13102916909689], [114.79741441260329, 38.13130302346793], [114.79762932244552, 38.135580140975485], [114.80055284950019, 38.136234816625496], [114.80204298033823, 38.14323647791744], [114.79909960251837, 38.14867577249526], [114.79433279227194, 38.14848256017611], [114.78956540885613, 38.15036125976922], [114.78956503845026, 38.15356082047211], [114.79062476429311, 38.153801286264724], [114.79262400370772, 38.163894784103555], [114.79293672678749, 38.17099740975282], [114.7952127774947, 38.17097369333443], [114.7964682952689, 38.16906424406301], [114.79794001889891, 38.1692785126319], [114.79841056035907, 38.17230573523443], [114.8008821944532, 38.17351781349737], [114.80099909313972, 38.17638446496428], [114.80005792038808, 38.17927643404917], [114.79780160506623, 38.179259923198906], [114.79776099495399, 38.183878590857], [114.79636826259625, 38.185057666117075], [114.79048386314808, 38.18550033312382], [114.78252049328455, 38.18689764545592], [114.78026524398682, 38.18868645413997], [114.78093164263392, 38.19282779630992], [114.78263779075863, 38.19436891440327], [114.78312722296057, 38.19657179984263], [114.78959895104732, 38.198013038950954], [114.7895206167757, 38.19979119524899], [114.787500286932, 38.20057068054622], [114.7874018466056, 38.203038911842114], [114.78442111534629, 38.20491952014671], [114.78887287481078, 38.20573419479635], [114.78898976259586, 38.208334714078354], [114.78624449450352, 38.20789314886504], [114.78651857109429, 38.210851900428246], [114.78785231313383, 38.21375898443164], [114.78928374367342, 38.21261969365931], [114.7930298717883, 38.214363066708], [114.79222479196443, 38.22025171630264], [114.79240157150238, 38.2247885497643], [114.7945392819913, 38.22526866688418], [114.79516707874147, 38.2281609494414], [114.79881586703202, 38.22823347618392], [114.8098430180423, 38.23105009426062], [114.81773270333156, 38.22842492932627], [114.82146109548827, 38.22885587077508], [114.82220761791922, 38.23040945177885], [114.82725103295849, 38.23153302514371], [114.83209915282217, 38.231329088277896], [114.83213780083364, 38.2351626229824], [114.83082279507684, 38.23518616439527], [114.83143024179142, 38.24338225035504], [114.83319584353498, 38.24707195943261], [114.83333239725116, 38.25366191553152], [114.83769016033284, 38.2543330646382], [114.83818055932636, 38.2516956914591], [114.84245912223525, 38.250629353002914], [114.84389148434526, 38.25708858051534], [114.8490715161353, 38.256063505038775], [114.8486393103002, 38.25882004351154], [114.85211236107966, 38.258693871462064], [114.85226918540191, 38.26294954425026], [114.85385829954325, 38.2629781416071]]]]}}