{"type": "Feature", "properties": {"unit_id": "shijiazhuang_urban", "name": "全部市辖区联合区域", "district_codes": [130102, 130104, 130105, 130108, 130107, 130109, 130110, 130111]}, "geometry": {"type": "MultiPolygon", "coordinates": [[[[114.79071402850953, 37.882981899067495], [114.78714473731678, 37.878978496862835], [114.78265455440459, 37.875255453431144], [114.77894909190586, 37.871478805414746], [114.77522562394441, 37.8635178703188], [114.77281418944237, 37.86263665656238], [114.75946952960706, 37.8640811711353], [114.7494217231928, 37.86401367994029], [114.74630919532699, 37.86330687678644], [114.74413607104415, 37.86037482036144], [114.74922737424785, 37.84969531440451], [114.75365419991998, 37.84406956548372], [114.75747382261733, 37.837656291223084], [114.75606397590929, 37.83276221582448], [114.75107064921808, 37.82950815966344], [114.73267165027588, 37.824046363116544], [114.72592228706873, 37.82277146962306], [114.7151475141911, 37.82235598040976], [114.71229316034929, 37.82085242169587], [114.71020142163815, 37.81375925648376], [114.70760189544094, 37.813882943430706], [114.70926323209841, 37.81186730355004], [114.70349776443172, 37.810621638043656], [114.7020123427438, 37.81283825533923], [114.69917796865549, 37.81224272904705], [114.69956944810458, 37.80996078275761], [114.69206526991769, 37.80738518455344], [114.68081152288399, 37.80553856311932], [114.67133715664228, 37.7986327643875], [114.66244790763317, 37.795141276643555], [114.65578567490141, 37.79486058657351], [114.65312827248061, 37.79558545540609], [114.64689354933442, 37.799718752515005], [114.64490000245667, 37.803470528412646], [114.63798067707457, 37.80229414902532], [114.63532099306897, 37.80311208080799], [114.63283803409152, 37.801714300305896], [114.62677651698783, 37.8016688229758], [114.62401907551083, 37.79979062207764], [114.62415605658747, 37.798536319957265], [114.62180866827698, 37.798431699737264], [114.62169152272648, 37.800847117908056], [114.61773930249943, 37.800850688555904], [114.61460859711329, 37.80233329439221], [114.61406063184099, 37.80544208038928], [114.61494078211553, 37.80752273002437], [114.61349260520365, 37.80908394658405], [114.61349226418258, 37.81215235906216], [114.61574160395512, 37.82174109005682], [114.61707125870407, 37.824300418979135], [114.61460578135303, 37.8276627810588], [114.6120812721908, 37.82887863407521], [114.61112310664281, 37.82615780428909], [114.6076579972707, 37.822839075077106], [114.60530975737865, 37.821999860828754], [114.60037520084724, 37.82176097162046], [114.59755503561001, 37.819893889350816], [114.59342173263484, 37.819333446852475], [114.59277572713144, 37.816665948323305], [114.58384025027429, 37.81496806029747], [114.58344793997819, 37.814167707591245], [114.57852716662389, 37.814190077539365], [114.57838981598685, 37.81571116993462], [114.57083915809116, 37.81590347546175], [114.56650275412348, 37.818232238618094], [114.56595325159294, 37.82177897801465], [114.56020336947549, 37.82463765707215], [114.55661035929546, 37.827071872505684], [114.55394044982879, 37.82698697090612], [114.5483827465537, 37.82864318172395], [114.53592784184731, 37.83008187248198], [114.5356524767783, 37.833774742363595], [114.53205686575329, 37.83357859705146], [114.53134748092583, 37.849857306552416], [114.5339215306956, 37.850784064598066], [114.53258443902124, 37.85400717971495], [114.53991304132789, 37.85855802745285], [114.54741755306078, 37.858467852182514], [114.54802617867657, 37.86000239244671], [114.5475931697653, 37.86650658519056], [114.54678760248655, 37.86799712831176], [114.54038319568637, 37.87086223477123], [114.53727879344635, 37.87140089171476], [114.53333016471643, 37.87097796187933], [114.53362438824936, 37.8693394261398], [114.52998940222577, 37.86894295070974], [114.52584182268238, 37.870745149036885], [114.52523226572934, 37.872995877426014], [114.52047464988665, 37.87582113535982], [114.52126038636337, 37.878662854775634], [114.52566411380502, 37.87990028075935], [114.52990884641532, 37.880085700788584], [114.53157973547718, 37.88150232320423], [114.53169665138002, 37.88595343153603], [114.52847394231918, 37.88571891331965], [114.52617388517392, 37.89001650526959], [114.52243876423834, 37.88907404036859], [114.51604970281224, 37.88870880321895], [114.51614817802056, 37.88798995618752], [114.51040699679123, 37.887906154494296], [114.51021010620866, 37.888665712038645], [114.50608117058171, 37.888519422605455], [114.50688721800469, 37.89092026659975], [114.50411449089972, 37.893337436589604], [114.49984675968928, 37.89356469326547], [114.4954426833998, 37.89164614696897], [114.49247374669588, 37.88845270395634], [114.49095938779821, 37.8893403699838], [114.48531636846596, 37.88841761809695], [114.48360638012042, 37.88891975462698], [114.48348738712258, 37.893343227764376], [114.4824054436238, 37.898376054317495], [114.48327081203286, 37.8993917344734], [114.4874586729046, 37.90081618464361], [114.48696623374398, 37.90449143932851], [114.48790979604317, 37.90707870093997], [114.48794845824034, 37.911368640638266], [114.48930589402019, 37.91255886783404], [114.48969812582796, 37.91586366876303], [114.48824270605205, 37.91965512173796], [114.48425127951405, 37.920935722517726], [114.48258024520666, 37.92339538881171], [114.47729103399098, 37.92488470934749], [114.47416504846537, 37.923397798915175], [114.47265258294857, 37.92054313796907], [114.46575297141786, 37.92023205710303], [114.46288384021429, 37.91937275583059], [114.46113597641319, 37.9173971376432], [114.45528041006838, 37.91714359441485], [114.45372866195282, 37.91527583955673], [114.4475216972112, 37.91627531422471], [114.44679529899254, 37.91885842297877], [114.44045297248101, 37.91963223532253], [114.43652672978942, 37.91587028165934], [114.43315120220181, 37.91440016183246], [114.42901199739134, 37.91079819930011], [114.42275409959923, 37.90736800184066], [114.42295068712839, 37.90512975232498], [114.42477503891897, 37.90296008177905], [114.42410806609266, 37.90144013912877], [114.4125194118059, 37.897501208149514], [114.40771773003542, 37.89899186564511], [114.40712950225048, 37.896993362430536], [114.40185921711324, 37.896686845532294], [114.39282930637005, 37.89385033417484], [114.39318269382085, 37.89065259798896], [114.39517993998908, 37.88998575988588], [114.39563039625779, 37.88669401815365], [114.39443635768434, 37.88573522826798], [114.38830772539616, 37.88564411569495], [114.39273212971976, 37.886895092546055], [114.39169478037445, 37.88998711591132], [114.38652568920638, 37.88976299825298], [114.38429464081513, 37.88831231934185], [114.38024275158008, 37.88742252145929], [114.36850331974694, 37.889021798952236], [114.36824873111846, 37.88783591186362], [114.3633391890379, 37.889601971026245], [114.36279169245233, 37.891108040684735], [114.35747274846983, 37.89140918116377], [114.3544223197539, 37.89012187357969], [114.34900660025636, 37.89099723936257], [114.34581964040879, 37.892402146412124], [114.34126465293777, 37.88989199205183], [114.33725779100916, 37.88864625224199], [114.33590913265495, 37.88900886812629], [114.33717962141442, 37.89125888085132], [114.33405193896989, 37.893223175081374], [114.33151060009286, 37.89221584156832], [114.33113902763125, 37.89424192924775], [114.33301535808992, 37.896889835913086], [114.3327805036583, 37.89922172264396], [114.32386698861748, 37.89466894658825], [114.32009474760616, 37.893809966216274], [114.31409288262684, 37.8952464572494], [114.31262722484, 37.89610230513973], [114.30664385445748, 37.90421352194742], [114.30638895364743, 37.906718444281424], [114.30437505588428, 37.90625582086432], [114.30067998111923, 37.90123903282899], [114.29561483570508, 37.900074813838856], [114.29377674533015, 37.9029821246966], [114.29225045454544, 37.90363647848118], [114.28959075292738, 37.90044261538905], [114.2896299135766, 37.8987112350006], [114.29469605851979, 37.89934306537683], [114.29543941576337, 37.896983498968666], [114.2894745294294, 37.894833721470626], [114.28517101466244, 37.89226788172506], [114.28131603452132, 37.89344469501878], [114.2753864042133, 37.8961423641103], [114.2711381401777, 37.89596003485156], [114.26501002705756, 37.897283520744786], [114.26383458083872, 37.90112090306588], [114.26154307902489, 37.90382655630244], [114.25913446339312, 37.90510678900616], [114.25889919644254, 37.906879213296286], [114.26207152047158, 37.90918233711813], [114.26710379305324, 37.91508063058826], [114.27154773308503, 37.91550344237513], [114.27256526607407, 37.916448781381256], [114.2692570634801, 37.91810272382532], [114.26567350299858, 37.918705243766], [114.26089479248618, 37.922610493440985], [114.26306883178623, 37.92442082782615], [114.26874630277281, 37.925562567947715], [114.27205492913752, 37.929501794043354], [114.27420735431289, 37.93565316373737], [114.27874763887657, 37.937793150356335], [114.28129085683214, 37.93800341255797], [114.28563506484294, 37.93967554588029], [114.28860795459319, 37.9417090817571], [114.29195247600347, 37.949160958586035], [114.2890957547091, 37.95623541186431], [114.28794079093419, 37.95742120970117], [114.28905499831406, 37.963064889912545], [114.29249807588562, 37.96433832410965], [114.29386712119788, 37.96727793465142], [114.2947071633732, 37.975303370670765], [114.29402091329912, 37.9845543545599], [114.29423648165545, 37.986017344520334], [114.29699361902098, 37.98948688282333], [114.29767746588197, 37.99170828726735], [114.29495851392359, 37.99527823365209], [114.29268967695995, 38.00000560162201], [114.29024415863043, 38.00220454757011], [114.28159775782106, 37.99677336173167], [114.27345673255572, 37.99510525179947], [114.26885607229514, 37.995867094464465], [114.25926024504726, 38.00150054270027], [114.25694848531032, 38.00203441300434], [114.24358416440717, 38.003538149915535], [114.241192041868, 38.008366544486144], [114.24622954379286, 38.01314365864971], [114.25132410309712, 38.01569833420312], [114.2547326850071, 38.0181724002869], [114.25986526034113, 38.01966019477261], [114.26270443922347, 38.021734373206954], [114.26129403345702, 38.02382348521528], [114.26227267280477, 38.02794591134921], [114.26615037022633, 38.03084338532515], [114.2684203550334, 38.036907169519154], [114.26922270443822, 38.0410554743809], [114.27460542145018, 38.04470780268963], [114.27298068843935, 38.048366023248384], [114.27053323025936, 38.050801546561495], [114.27180559216254, 38.05286096192376], [114.27534775578332, 38.05587646880198], [114.27366440590167, 38.056928228924754], [114.26924107661347, 38.05491038887007], [114.26608838694565, 38.05634882691311], [114.26176036951952, 38.05564702717312], [114.25886133256815, 38.05966305681436], [114.258880998026, 38.06256065592314], [114.25639290050704, 38.06503494263525], [114.25090679433282, 38.06724227634204], [114.24904548851848, 38.06728232221602], [114.24571391505887, 38.06575274317783], [114.23828327851612, 38.07043062757548], [114.23224386782498, 38.06953624311682], [114.23022337657348, 38.0717813455976], [114.22484779219067, 38.072681216623224], [114.2199432613977, 38.0709480811438], [114.21833354475415, 38.07353888244389], [114.21929484815718, 38.07986622967878], [114.21464347631455, 38.080858114516225], [114.21371978085944, 38.0856019501338], [114.21546661269444, 38.08711837834548], [114.2132091583407, 38.08922904942598], [114.21265941777867, 38.09298911452932], [114.21627024817833, 38.09703332041601], [114.21866392996158, 38.10169995070676], [114.21471872835582, 38.10557517203677], [114.21134280914265, 38.105331876944966], [114.20168352684252, 38.10875875636287], [114.20341072518708, 38.11266714845919], [114.20655166009799, 38.11531626888226], [114.20651222468588, 38.1181317545608], [114.20969206152259, 38.1197964942396], [114.21516888689393, 38.121384777424325], [114.21544311986827, 38.124678730060275], [114.2175229927318, 38.122609746668424], [114.22364526664474, 38.12552461463058], [114.22427326724967, 38.12726552241636], [114.23033385600557, 38.12867769947393], [114.23349188790573, 38.127976621480855], [114.23727602400629, 38.12953190126838], [114.24015837733793, 38.131592447950254], [114.24645072814216, 38.13248307300181], [114.2459405433395, 38.13871215735526], [114.24331371830233, 38.14124814020533], [114.24491994187956, 38.14431601811592], [114.24372411384519, 38.14991878611737], [114.24180284564356, 38.152003668989536], [114.24489940195602, 38.157222292586525], [114.2467810301033, 38.157819652616645], [114.24695693597018, 38.15989102629601], [114.24391898368658, 38.161164783649404], [114.23774296594513, 38.16064469035081], [114.22860407253452, 38.161542319404745], [114.22938805752152, 38.16449041002779], [114.2261912295972, 38.16634618367979], [114.22591528962444, 38.17002256129821], [114.2198334717257, 38.168795530449756], [114.2189500356623, 38.173613380314684], [114.21504443448903, 38.17347589545361], [114.20974501028107, 38.17192988276959], [114.20786046467104, 38.1704530528615], [114.20397340588875, 38.170089378468944], [114.20012476679571, 38.17167673886359], [114.19967204254864, 38.17560466608079], [114.19843540398273, 38.17710293428184], [114.19560732456837, 38.17728333796104], [114.1829784545409, 38.17646504921865], [114.18215250928709, 38.179609041888156], [114.18492193203096, 38.18092830123674], [114.18602203789817, 38.18322665011259], [114.18729900344721, 38.18269785446606], [114.1928764532837, 38.184936953051725], [114.19254232753381, 38.18611756597613], [114.18727791203588, 38.19128414822486], [114.19002803087585, 38.19293425881375], [114.19110804882894, 38.19470140583667], [114.19554566410159, 38.1980924513657], [114.19077311876194, 38.202488970739374], [114.19088990409783, 38.20719984650387], [114.19409109294577, 38.20939363753359], [114.19796025552331, 38.209041986138736], [114.20210358942595, 38.21033569708437], [114.20657906171463, 38.213552770583966], [114.2122128447593, 38.215404662602], [114.21433290654554, 38.214717222387335], [114.21666851433255, 38.21205363130931], [114.22473445100283, 38.20920952348653], [114.22855941296457, 38.20874864539721], [114.22959847670074, 38.21466623983728], [114.23259913000932, 38.216074467429465], [114.23383409546413, 38.22366221202296], [114.22943948658418, 38.229217015485155], [114.23285190951889, 38.229656381232715], [114.23341986880294, 38.237256645470694], [114.25310126908151, 38.23576203544102], [114.2543347824639, 38.23680995982986], [114.25968254106839, 38.238028573211345], [114.27657808218139, 38.24296246568244], [114.2860486820191, 38.245882070024614], [114.30668099152729, 38.250385992340426], [114.30548773240155, 38.251170143487556], [114.30550726974165, 38.254815491388946], [114.30816564947918, 38.2589472716297], [114.31100128392013, 38.25728504047914], [114.3125254650602, 38.25985453032825], [114.31621980396102, 38.26336105524701], [114.31969974166445, 38.263513534319046], [114.32249439447706, 38.266927547471845], [114.33040992092846, 38.26909958317449], [114.33312677474999, 38.27124157669576], [114.34080915388263, 38.27128009138279], [114.3448565146158, 38.26882045237142], [114.34769086642441, 38.268299334566336], [114.35435716637086, 38.270209095740995], [114.35844383491239, 38.27376884318933], [114.36067274899185, 38.27425546415718], [114.36628590177696, 38.273438338654856], [114.37424820829449, 38.271281281739995], [114.37542255536263, 38.26869576534337], [114.37961050495323, 38.26939363164308], [114.38045210295147, 38.268544786310315], [114.37904326298823, 38.26606785931992], [114.3844649001936, 38.26223188927393], [114.38763653214333, 38.256834176510935], [114.38620862685931, 38.25105450910516], [114.38593531451203, 38.24606915621444], [114.38804950885734, 38.239610050123396], [114.3925932262401, 38.229422477439186], [114.39566912860502, 38.22399668383233], [114.40236957638464, 38.21414036104065], [114.40405514175669, 38.2090057044978], [114.40580014708675, 38.20184187042321], [114.41011230293408, 38.19676116415552], [114.41870014593948, 38.19082082761012], [114.42827403573952, 38.175859453697825], [114.43453353099737, 38.17339809684919], [114.43853885756052, 38.166620992986324], [114.439421978206, 38.167352531244376], [114.44238687173498, 38.16568523529117], [114.44670752079145, 38.15998514782748], [114.45774784889514, 38.15188296741645], [114.4683209612713, 38.14518964887912], [114.47065968155185, 38.145381809773674], [114.47606556710983, 38.14442727159706], [114.4754374630588, 38.14147700802552], [114.48505103428282, 38.13984395449027], [114.4881977973836, 38.14090234536035], [114.49260200574028, 38.140902376424435], [114.4951781047421, 38.13757645241049], [114.49407820076034, 38.131796102683154], [114.49643726857475, 38.12967875783862], [114.49580876333789, 38.12870669596461], [114.4975588809931, 38.13021321565207], [114.50127526587342, 38.131114522152174], [114.5096509849131, 38.13075343910781], [114.51462611283712, 38.13179123779495], [114.52382659021204, 38.12983802623916], [114.53581592738843, 38.12549976779372], [114.54157352044878, 38.122671043553176], [114.55037244890187, 38.121189824997785], [114.5557722413095, 38.11980489661151], [114.56050415808829, 38.117156522673], [114.56560649764016, 38.11590203358752], [114.57686615497035, 38.1152640844248], [114.58265028876274, 38.11606582661664], [114.58635499365846, 38.11512479337387], [114.59029322481, 38.11257590626954], [114.59419244426707, 38.110836473092675], [114.60541464673318, 38.108762941140235], [114.61525871334398, 38.10979380215881], [114.62815026140471, 38.109063135345075], [114.6354825480392, 38.10757929606118], [114.65102209013236, 38.10257257106969], [114.65793928271349, 38.1023070811605], [114.65832820825317, 38.11300145581496], [114.65946072541472, 38.12151499165666], [114.66088753529256, 38.12148532557536], [114.66315302857288, 38.12486870682275], [114.66274211007273, 38.132346880721215], [114.66168727346167, 38.13431422937779], [114.66420748237294, 38.13490758301531], [114.66440188839276, 38.136222456064125], [114.66162803500724, 38.13758194055695], [114.66377663429193, 38.142199728747514], [114.67440394372854, 38.14328160558466], [114.67446255096266, 38.1455248958062], [114.67274350834164, 38.145873254136504], [114.6731911845077, 38.15709236694449], [114.6728392649428, 38.163545144704706], [114.67614047832356, 38.16452098554336], [114.67637407998258, 38.17199478196396], [114.67510402892529, 38.172010213786685], [114.67525971090647, 38.18035826389296], [114.67992849882184, 38.18381391438917], [114.68162763603794, 38.192144989564866], [114.68127468844254, 38.19874063642312], [114.67996568006843, 38.19891513439934], [114.67955476560421, 38.20642599361918], [114.67873416188692, 38.210779159018934], [114.68174186846156, 38.21395690622403], [114.6821716552175, 38.21594636714248], [114.68121427865026, 38.22092182647715], [114.6802564028629, 38.221613725023495], [114.6791421798313, 38.228526715748735], [114.68187674904225, 38.229701695005325], [114.68457381696578, 38.227826422880206], [114.69084499259365, 38.22670086500824], [114.69065005213511, 38.22987060761826], [114.69170428750063, 38.233980236646104], [114.69510398725099, 38.234425371993595], [114.69555310947797, 38.2425405500043], [114.68908501532631, 38.24263192483165], [114.68885019916691, 38.245535673738075], [114.69402785504549, 38.24657462002404], [114.69398880620703, 38.24771481224726], [114.70051533190318, 38.24844597496066], [114.70403318214792, 38.25156978226481], [114.71282963562881, 38.252896407879845], [114.71331864556393, 38.254685957854704], [114.71267215556335, 38.25922025665405], [114.71192782602415, 38.27249047343337], [114.7133941570638, 38.275086773764606], [114.7164442006715, 38.27742816737813], [114.72172379534649, 38.27835032412491], [114.72289722725387, 38.279144192360626], [114.72276004838696, 38.28213956768723], [114.71794888256532, 38.28715414998294], [114.71288430458917, 38.2894395526669], [114.70389214696547, 38.28868430018651], [114.70013968697779, 38.286357046817244], [114.69804933428328, 38.282531180790414], [114.69838139414665, 38.284822806488854], [114.69607511197754, 38.28499968089733], [114.69720827974616, 38.289225080957436], [114.6992012342847, 38.28918177841882], [114.69980720619307, 38.296216268396364], [114.69810636574839, 38.298525205429996], [114.697617083298, 38.30095016674004], [114.70105713224697, 38.30139557583645], [114.70263980287187, 38.3035922023285], [114.70504334508857, 38.30288647001061], [114.71208067917102, 38.30602865466812], [114.71252959267787, 38.309089224584774], [114.71782852757576, 38.3088706501874], [114.72244324498095, 38.30960666544239], [114.72520112650524, 38.30802790823923], [114.73651023211187, 38.30556853514279], [114.73811465138846, 38.31065500476158], [114.745748526177, 38.311063538353224], [114.75250289027194, 38.312586245073426], [114.75553841469973, 38.31229562885764], [114.75920189235478, 38.30960743747933], [114.75961437172485, 38.30695743603499], [114.75812527470082, 38.30285073992393], [114.76153489988648, 38.30152685302805], [114.76960766195926, 38.29996727558622], [114.7813115665534, 38.30111789877262], [114.7885474029577, 38.30002650656743], [114.79337348410823, 38.30047012395248], [114.79761025655932, 38.300026357534534], [114.7991806115278, 38.29686258429027], [114.80436131530625, 38.293279700461994], [114.80907040146754, 38.29126056760312], [114.81022913928956, 38.28908943669115], [114.81446741237374, 38.289056975680005], [114.81815777220807, 38.288135631464726], [114.81868711218438, 38.28687851365956], [114.81878605653962, 38.28063621929409], [114.83179925770858, 38.27667120028585], [114.83733417138005, 38.27342121432833], [114.84304600676768, 38.271483428888814], [114.84518447219651, 38.272653327548475], [114.85109102715582, 38.269999240396224], [114.85052231111563, 38.26623394624737], [114.85393735584081, 38.263827350091475], [114.85385829954325, 38.2629781416071], [114.85226918540191, 38.26294954425026], [114.85211236107966, 38.258693871462064], [114.8486393103002, 38.25882004351154], [114.8490715161353, 38.256063505038775], [114.84389148434526, 38.25708858051534], [114.84245912223525, 38.250629353002914], [114.83818055932636, 38.2516956914591], [114.83769016033284, 38.2543330646382], [114.83333239725116, 38.25366191553152], [114.83319584353498, 38.24707195943261], [114.83143024179142, 38.24338225035504], [114.83082279507684, 38.23518616439527], [114.83213780083364, 38.2351626229824], [114.83209915282217, 38.231329088277896], [114.82725103295849, 38.23153302514371], [114.82220761791922, 38.23040945177885], [114.82146109548827, 38.22885587077508], [114.81773270333156, 38.22842492932627], [114.8098430180423, 38.23105009426062], [114.79881586703202, 38.22823347618392], [114.79516707874147, 38.2281609494414], [114.7945392819913, 38.22526866688418], [114.79240157150238, 38.2247885497643], [114.79222479196443, 38.22025171630264], [114.7930298717883, 38.214363066708], [114.78928374367342, 38.21261969365931], [114.78785231313383, 38.21375898443164], [114.78651857109429, 38.210851900428246], [114.78624449450352, 38.20789314886504], [114.78898976259586, 38.208334714078354], [114.78887287481078, 38.20573419479635], [114.78442111534629, 38.20491952014671], [114.7874018466056, 38.203038911842114], [114.787500286932, 38.20057068054622], [114.7895206167757, 38.19979119524899], [114.78959895104732, 38.198013038950954], [114.78312722296057, 38.19657179984263], [114.78263779075863, 38.19436891440327], [114.78093164263392, 38.19282779630992], [114.78026524398682, 38.18868645413997], [114.78252049328455, 38.18689764545592], [114.79048386314808, 38.18550033312382], [114.79636826259625, 38.185057666117075], [114.79776099495399, 38.183878590857], [114.79780160506623, 38.179259923198906], [114.80005792038808, 38.17927643404917], [114.80099909313972, 38.17638446496428], [114.8008821944532, 38.17351781349737], [114.79841056035907, 38.17230573523443], [114.79794001889891, 38.1692785126319], [114.7964682952689, 38.16906424406301], [114.7952127774947, 38.17097369333443], [114.79293672678749, 38.17099740975282], [114.79262400370772, 38.163894784103555], [114.79062476429311, 38.153801286264724], [114.78956503845026, 38.15356082047211], [114.78956540885613, 38.15036125976922], [114.79433279227194, 38.14848256017611], [114.79909960251837, 38.14867577249526], [114.80204298033823, 38.14323647791744], [114.80055284950019, 38.136234816625496], [114.79762932244552, 38.135580140975485], [114.79741441260329, 38.13130302346793], [114.80074983457757, 38.13102916909689], [114.8022019353424, 38.12901312717114], [114.80212422424974, 38.125160278563825], [114.80290918973417, 38.12172190538602], [114.80575402943578, 38.12139456619478], [114.80646075034598, 38.11919034120708], [114.80612744972036, 38.115776122246245], [114.80697188215527, 38.109931425086415], [114.81401706691625, 38.10977175828171], [114.81497949952794, 38.10711597639564], [114.81682362446493, 38.10696029891394], [114.81684439438251, 38.10064909423532], [114.8190231056227, 38.10226041245724], [114.82310539632863, 38.10205595036176], [114.83497946420508, 38.102250210648975], [114.83654937974322, 38.09891846053625], [114.83268371737509, 38.09824713961185], [114.83303703286181, 38.093755903240954], [114.82950401981944, 38.093390215727204], [114.82970067567891, 38.091583221935075], [114.82809214279563, 38.09030494699405], [114.82824883064401, 38.087421659164136], [114.83066365467727, 38.084754647915055], [114.82597330120807, 38.08148918578398], [114.82277396047031, 38.08177625965811], [114.8216360879927, 38.07550085576403], [114.82220560075088, 38.07360052491471], [114.82201003096557, 38.06594357701077], [114.81871283162808, 38.06359798106243], [114.81877242504878, 38.05958325350455], [114.82173664287633, 38.05514781460671], [114.82962676847913, 38.0542313934657], [114.83537683008423, 38.05425613890595], [114.83518173235144, 38.05125014514255], [114.8362022277144, 38.04951067089139], [114.83975414190364, 38.04953020272005], [114.84089292800226, 38.04707275481859], [114.84464105735142, 38.046972448764166], [114.8591406653673, 38.04750246673387], [114.86392666487924, 38.04910471266814], [114.87443763313783, 38.049835784451886], [114.87443728903638, 38.05288042433596], [114.8843153121856, 38.060321798200555], [114.88660780978735, 38.06146656750088], [114.89274084558814, 38.06149564476321], [114.89305408298306, 38.06029951099965], [114.89840099648082, 38.060499893630016], [114.90347171049827, 38.06689536160952], [114.93429727227971, 38.07128446735649], [114.93808773037463, 38.076329704468044], [114.9578695944424, 38.08483610889659], [114.95956789729868, 38.087623659935424], [114.96399808509122, 38.08988523848894], [114.97705142584556, 38.08987623405092], [114.97744220260134, 38.0877356975036], [114.97346420167116, 38.06847486489158], [114.97266485891615, 38.062055724835986], [114.9750851214818, 38.05199793860925], [114.9760033911222, 38.04605112011318], [114.97516503513931, 38.04146649517285], [114.9682978425564, 38.03272027036024], [114.96662023587857, 38.02789662589036], [114.96638682739543, 38.02102076555365], [114.96911980361752, 38.00776378209771], [114.96777468102226, 37.99768218064913], [114.96840006673199, 37.99265046756988], [114.97021542805881, 37.98577818537789], [114.97378673451453, 37.975041204511136], [114.97558294112876, 37.96772868098464], [114.97478353287997, 37.96221975942113], [114.97174147678585, 37.94618480725112], [114.96928385172501, 37.94098534883871], [114.96875723017548, 37.93641882026389], [114.97148953315883, 37.936131448383506], [114.97147026070749, 37.93036534291089], [114.97308966314739, 37.92799045413548], [114.97447560185483, 37.927826598006206], [114.97396880302078, 37.924871414173495], [114.97445668801434, 37.91892889335888], [114.97096439414543, 37.91883242768734], [114.96928659341349, 37.91685253214126], [114.96698358705963, 37.91740469323539], [114.96520814683208, 37.9132924667026], [114.96263175173574, 37.9136450190683], [114.96204703417934, 37.91052986239229], [114.96048533359688, 37.90866831577676], [114.95892504677178, 37.902290834982644], [114.96118890288719, 37.90117918223388], [114.96128702038926, 37.89732821933864], [114.96462496249706, 37.89712087116731], [114.96513275679577, 37.89258873722819], [114.96702551463606, 37.890398458748244], [114.96765066299008, 37.887598315375065], [114.97161162463875, 37.88762776545051], [114.97159312695509, 37.88380312140139], [114.97356300261607, 37.883571696240736], [114.97385637683129, 37.8796391816839], [114.97949426786842, 37.880063383822375], [114.98031424938631, 37.87914186327411], [114.98103651986966, 37.87010319026451], [114.98146714642499, 37.85891804067659], [114.97442476423173, 37.857924863484065], [114.96790817271793, 37.8576224083381], [114.96761494576613, 37.8598095410978], [114.96043311043408, 37.859201525831175], [114.95652877087849, 37.85590417402131], [114.95209689950939, 37.856367087466985], [114.94871948505302, 37.85526794472834], [114.94871972492527, 37.8531345942497], [114.9463562539882, 37.85115294992748], [114.94436419204227, 37.85264997306269], [114.93762405630112, 37.852141523350255], [114.93725304704199, 37.85046283793608], [114.93428223953671, 37.85017328488845], [114.93240665845902, 37.85218925744985], [114.9324252970298, 37.85509570775561], [114.92826147089842, 37.85719439104719], [114.9261498603856, 37.85719680901932], [114.91629355118263, 37.85532516177463], [114.90989571283998, 37.85498239124121], [114.90989586337678, 37.853635170037734], [114.90631374680576, 37.85329015059051], [114.90337764695875, 37.85390367502509], [114.90169371237464, 37.85633014609327], [114.90145906100284, 37.85351768345483], [114.89997121774506, 37.853423612841404], [114.8996768581324, 37.85677014148676], [114.89480034566104, 37.85730231865856], [114.89487792339371, 37.86123499840686], [114.89683721696537, 37.86155553393014], [114.8917242295155, 37.86777899926748], [114.8812009445203, 37.87119799163217], [114.87422210306576, 37.87434989504484], [114.8623183420161, 37.877453496636626], [114.82939157540606, 37.875104492676265], [114.81290630933711, 37.87611319039624], [114.80503615931859, 37.88016526654101], [114.79683430674976, 37.88741449573168], [114.79071402850953, 37.882981899067495]]], [[[114.02390649908668, 38.021858176901745], [114.01974722819111, 38.018997391348286], [114.02009838384339, 38.01790514753366], [114.01711078054116, 38.017753769513604], [114.01193639166907, 38.01991150437053], [114.00752345515798, 38.01897954358363], [114.00555168372007, 38.0157528117002], [114.00695815618114, 38.010387410240874], [114.00891144348631, 38.00994242841023], [114.0094969911138, 38.00769318745161], [114.00750622190984, 38.00465152822403], [114.00772079661967, 38.002908508146675], [114.0045969641983, 38.003689121221534], [114.00317096882493, 38.00570287813566], [113.99803634153871, 38.00527939135613], [113.99522554535471, 38.006711228611444], [113.99547856909578, 38.00858686321918], [113.99417001980271, 38.01226261355726], [113.99176894104497, 38.013826197760956], [113.98714101306116, 38.01783090678243], [113.9861049695871, 38.02658685246092], [113.98823257637252, 38.0284419266103], [114.00324772441087, 38.02255825324658], [114.00527765669055, 38.022778144915364], [114.01189688582471, 38.02508572893429], [114.0154895412019, 38.024862040424765], [114.01949195021514, 38.027217884979365], [114.02128903850156, 38.026680615160416], [114.02105491342175, 38.0247658743998], [114.02390649908668, 38.021858176901745]]], [[[114.01494041201423, 38.03902767890095], [114.01224611679307, 38.039687802779916], [114.00939558617634, 38.03857909309926], [114.00836049044032, 38.039779461126706], [114.0081642766761, 38.04638845470902], [114.00644601996633, 38.04922624043273], [114.00133101152962, 38.05123617797318], [114.00181817026808, 38.054465378429654], [114.00041221448801, 38.0557599242509], [113.99404808662968, 38.056643427918786], [113.98863953310502, 38.06080756988236], [113.98516347293142, 38.06194812705256], [113.98155046956049, 38.06429818621176], [113.98451798375564, 38.07320937096659], [113.98539588989438, 38.07801877617286], [113.98684026777651, 38.08178927409843], [113.99033442053418, 38.087160937261814], [113.99121218651601, 38.09259339865372], [113.99310609370524, 38.096707515735254], [113.99882543015866, 38.10189920819571], [114.01545968721699, 38.107442244855974], [114.01739304759094, 38.108552801297215], [114.02079057161278, 38.10829093382417], [114.023914683982, 38.11128466424015], [114.0284065373877, 38.11386276999829], [114.03145334248357, 38.117906398524525], [114.03244874226183, 38.11909901305579], [114.03686426725818, 38.11891469381095], [114.03887692038232, 38.11718339818169], [114.04317596891967, 38.11499378400383], [114.04763220885927, 38.11499785071313], [114.05126802217413, 38.112385748234665], [114.05504074869226, 38.11377364752075], [114.05623357028773, 38.116973047965054], [114.05900967365159, 38.11702111104829], [114.0637824855398, 38.112204399842284], [114.06769582024646, 38.110724439572515], [114.06996476789224, 38.11235476745874], [114.06986644154014, 38.115636528307824], [114.07477790751747, 38.119416530306076], [114.07836102452448, 38.11522922023935], [114.08125821082352, 38.11698014412744], [114.0856832753662, 38.11645908543684], [114.08805330205402, 38.11997753952225], [114.08775883808326, 38.12316628546913], [114.0904815850676, 38.124187351647656], [114.09085315333355, 38.12895612238253], [114.08677897222807, 38.12851978360099], [114.08474262611948, 38.129185059578454], [114.08844378661118, 38.13323386052727], [114.09075442673162, 38.13456119907299], [114.09735726854659, 38.135409077294305], [114.10115934494402, 38.137786649682475], [114.10411961309791, 38.136937031123864], [114.10419783446805, 38.13586185261644], [114.10114069345639, 38.13478509521659], [114.10380668977074, 38.1333913023869], [114.10392410053106, 38.13111990760513], [114.10118026344277, 38.13044229332201], [114.09925919497027, 38.13262055021509], [114.09735764713407, 38.132315504510686], [114.09612420309342, 38.12840986700919], [114.09673221027191, 38.12380094371741], [114.09569363673113, 38.12239377794755], [114.09302880847439, 38.123947552281194], [114.09222567348053, 38.1216503219209], [114.08736838895938, 38.117919471938926], [114.08652564819766, 38.114439232062395], [114.08913168369942, 38.11123637945033], [114.08876012035125, 38.10671965234179], [114.0914444874904, 38.10378208019017], [114.09050443869762, 38.10091282280931], [114.08717440750897, 38.101060273144995], [114.08503940125013, 38.0984969367223], [114.0811037374672, 38.09646623285442], [114.07542811323572, 38.0906641869222], [114.07607440970399, 38.08593257225458], [114.07417545261178, 38.08469830012019], [114.07486129205331, 38.08318325789684], [114.07443091932048, 38.079794022026995], [114.07777763921965, 38.078900496340914], [114.08778401436489, 38.08084689644229], [114.09953969373134, 38.081455533731834], [114.10108825073583, 38.080658496883274], [114.10230397069779, 38.07669785521578], [114.09650345268237, 38.07128749535182], [114.09082128779312, 38.070438518158404], [114.09091923315015, 38.07122264784645], [114.08572865150624, 38.07248724509003], [114.08149869694242, 38.07182590868306], [114.08061793040548, 38.07089640054531], [114.0756452770178, 38.07213717389902], [114.0715155724177, 38.07212775747274], [114.06848301481071, 38.070816328106716], [114.06676174590521, 38.06906332152717], [114.0699113378036, 38.06703868393453], [114.07081217844328, 38.06292969953419], [114.07140080166947, 38.054473207723035], [114.07093126269967, 38.05334354087407], [114.07341682843754, 38.05219738552573], [114.0725946239575, 38.04963177768309], [114.06660795475113, 38.04389524986342], [114.06545469543794, 38.038750814525756], [114.06385062136849, 38.03662576078072], [114.06404670477585, 38.03420494609362], [114.061679456351, 38.033636540917314], [114.06387142400763, 38.02984228263778], [114.06113270734383, 38.02878239618971], [114.05606732445554, 38.03062661672705], [114.0526067427772, 38.030461187176186], [114.04504292567015, 38.02663333270773], [114.04433982847326, 38.022498032957145], [114.04099864565886, 38.02348999352548], [114.04320589509341, 38.02445604117389], [114.04267875185808, 38.02637266887646], [114.03556627667133, 38.02817132046843], [114.03445293439096, 38.02794810781179], [114.02829867189698, 38.03232728819823], [114.0218537668782, 38.03267728688864], [114.02033069569536, 38.034890109650675], [114.01810483081711, 38.03557468253195], [114.01494041201423, 38.03902767890095]]]]}}