{"type": "Feature", "properties": {"unit_id": "shijiazhuang_130102", "name": "长安区", "district_codes": [130102]}, "geometry": {"type": "MultiPolygon", "coordinates": [[[[114.65793928271349, 38.1023070811605], [114.65102209013236, 38.10257257106969], [114.6354825480392, 38.10757929606118], [114.62815026140471, 38.109063135345075], [114.61525871334398, 38.10979380215881], [114.60541464673318, 38.108762941140235], [114.59419244426707, 38.110836473092675], [114.59029322481, 38.11257590626954], [114.58635499365846, 38.11512479337387], [114.58265028876274, 38.11606582661664], [114.57686615497035, 38.1152640844248], [114.56560649764016, 38.11590203358752], [114.56050415808829, 38.117156522673], [114.5557722413095, 38.11980489661151], [114.55037244890187, 38.121189824997785], [114.54157352044878, 38.122671043553176], [114.53581592738843, 38.12549976779372], [114.52382659021204, 38.12983802623916], [114.51462611283712, 38.13179123779495], [114.5096509849131, 38.13075343910781], [114.50127526587342, 38.131114522152174], [114.4975588809931, 38.13021321565207], [114.49580876333789, 38.12870669596461], [114.47797672426763, 38.113352777306446], [114.48295069090672, 38.11264876468325], [114.47964762851802, 38.11099201911673], [114.47917633577383, 38.10602171691177], [114.47471382498993, 38.105943300913296], [114.47404632652324, 38.10523734044186], [114.47607054050518, 38.102226298531555], [114.48324717452665, 38.10166246535829], [114.48605856514045, 38.102029691023176], [114.48904761976254, 38.103858819783056], [114.48863480751749, 38.096243091762844], [114.488852285141, 38.09124773015458], [114.4872608146688, 38.08207319330879], [114.4960894863201, 38.080916145808544], [114.49264923637732, 38.07188102206108], [114.49213811736834, 38.071879501794285], [114.48824698908403, 38.05523652517014], [114.48649825548469, 38.04290579692801], [114.49520925534287, 38.042718546243165], [114.49788349489751, 38.04176934829284], [114.50429412314924, 38.04204061199601], [114.50580745553526, 38.04147401253902], [114.50586745681707, 38.03494380501328], [114.58536394239788, 38.036609216068214], [114.58553798620451, 38.05543828731162], [114.58538050893999, 38.05840282422616], [114.60416702116797, 38.05421722782698], [114.67115317583576, 38.040856428612486], [114.67035187938087, 38.04221425316095], [114.6705280837837, 38.04561863534529], [114.6730482237695, 38.04571982213783], [114.67337959450525, 38.05327177821648], [114.6758203111048, 38.058692239845364], [114.677754943785, 38.0576913370831], [114.67824256342446, 38.05991087307572], [114.68166175034686, 38.05945230562884], [114.68177921304371, 38.06180457604019], [114.68383028102294, 38.06407420963073], [114.68713179641252, 38.064573217579], [114.6894578532003, 38.0627876257308], [114.69344246391604, 38.06953397140593], [114.699147702268, 38.07793805820495], [114.70143271517676, 38.09074697430853], [114.69947852652028, 38.091122196285845], [114.69951720057263, 38.093287568269965], [114.6978565183163, 38.093543353103385], [114.69783620873321, 38.09659899794897], [114.68792936073673, 38.09656329307144], [114.68749872251145, 38.10176010973972], [114.67503434602328, 38.10068031995932], [114.66729847253848, 38.09904782158394], [114.65793928271349, 38.1023070811605]]]]}}