{"type": "Feature", "properties": {"unit_id": "shijiazhuang_core", "name": "主城区", "district_codes": [130102, 130104, 130105, 130108]}, "geometry": {"type": "Polygon", "coordinates": [[[114.67267800783011, 38.03759581173952], [114.67599967640669, 38.03427774321792], [114.67680021694704, 38.030805475254176], [114.6752968224004, 38.02974412333449], [114.66816544981401, 38.028906615187985], [114.66818583328389, 38.025115768461035], [114.6644543774535, 38.025335927423555], [114.66115197408072, 38.024330940777965], [114.66130895281202, 38.02140402234421], [114.65882751254918, 38.021249613404144], [114.65886665627004, 38.01921410657828], [114.65658067385074, 38.01931133242888], [114.65663975422333, 38.017461829750125], [114.6537871787959, 38.01507248012904], [114.65103200749849, 38.01477129087599], [114.64958620176915, 38.012831386577396], [114.64679193312664, 38.011745900936106], [114.64673330385911, 38.00948451613269], [114.64989912971222, 38.00780277273367], [114.65001753892415, 38.00202833564051], [114.65124820851965, 38.000162794733505], [114.65304711050436, 37.99418534525754], [114.65660377136, 37.99147735377151], [114.65969100172006, 37.991138588874456], [114.65994479113232, 37.98799844933408], [114.66225062442139, 37.9879001105486], [114.66223090985504, 37.98577169599789], [114.66385322733716, 37.985807641144824], [114.66506531284945, 37.97829975290804], [114.66809439810328, 37.96909603840566], [114.6644797376377, 37.96869084230545], [114.66365938999367, 37.97059579624095], [114.65426119324623, 37.97057317771924], [114.65441755370048, 37.9732744645806], [114.65146674098368, 37.97369279726364], [114.6513297063916, 37.97652763501511], [114.64431369945231, 37.976593508983065], [114.64429337097104, 37.979854230572535], [114.64198659733003, 37.980630077478025], [114.64124353502378, 37.98434402470424], [114.63387354664506, 37.98836064757813], [114.63135100421334, 37.99157067676142], [114.62697000355503, 37.99185609346335], [114.62687276834036, 37.9950628878963], [114.6221583078642, 37.995227974931964], [114.62194332106006, 37.997157598178866], [114.61947878757503, 37.99727893957634], [114.61930227363314, 37.99443149056015], [114.6160940450165, 37.99439514391453], [114.6160742992296, 37.99226570593408], [114.6124148392721, 37.992175241589536], [114.61159350714502, 37.9904453751744], [114.60603480309369, 37.99026201344044], [114.6039204360613, 37.98843930882578], [114.60464503950347, 37.98198472728741], [114.60298128389093, 37.9818651573344], [114.60272731438987, 37.97285431442854], [114.58693844396228, 37.97306549154819], [114.58603783928598, 37.97160074170055], [114.58115683618719, 37.971704733778225], [114.57854845837782, 37.972953938119936], [114.5772731449518, 37.97818292335905], [114.57319399416434, 37.978139854509315], [114.57327294771761, 37.97969626900595], [114.56899652900398, 37.97937217348593], [114.56874165009238, 37.974047725140196], [114.56691719656368, 37.973460195785016], [114.56020561268187, 37.97406226706841], [114.56016662463414, 37.97314400985679], [114.55557325276747, 37.97361516439221], [114.55582817763745, 37.971233125815836], [114.55274604363598, 37.97105432838569], [114.5515882161524, 37.96789640939152], [114.54714944795127, 37.96767526391242], [114.54669779313816, 37.97034986044676], [114.52400270143394, 37.9687092102167], [114.51432971681591, 37.96821560307859], [114.51491969552217, 37.97166504409512], [114.50559969882572, 37.97113142600659], [114.50583588597983, 37.96929574517662], [114.50147085690888, 37.96873656853002], [114.49974024340386, 37.972365143207575], [114.49222817634498, 37.97114443027992], [114.49252355948627, 37.969761017935355], [114.48432349555874, 37.97329165204724], [114.47966355548793, 37.975167704680814], [114.47866141038043, 37.976629187970744], [114.47549609759015, 37.975742195419926], [114.46883274706045, 37.975857358121495], [114.46842054250082, 37.973100705623544], [114.466749579652, 37.971606092139695], [114.46248531799111, 37.971635464310324], [114.46215096498776, 37.97319197973132], [114.45558879717858, 37.973429774093766], [114.45191482525098, 37.976123410758525], [114.45205197899617, 37.97842618504142], [114.45715912719885, 37.980393772535606], [114.45658888309453, 37.98348013621232], [114.45493851954845, 37.98341044707319], [114.45375896935705, 37.99002128068857], [114.4452543895354, 37.99133547982777], [114.44509766868067, 37.99373070021043], [114.43172881681332, 37.99312347858814], [114.43165055464777, 37.99393555002018], [114.42621589255629, 37.99343703978212], [114.42254745731621, 37.99428463199823], [114.42231173240278, 37.99717203752274], [114.42119418495112, 37.99530767764004], [114.41948729019146, 37.99804790025156], [114.41856548402541, 38.0021320910468], [114.42156562353762, 38.00491504201026], [114.42172222367384, 38.01035633900328], [114.41995636664437, 38.01161916065387], [114.4130544843848, 38.01125576725669], [114.41107509658111, 38.01390249129991], [114.40617491366389, 38.01375413211907], [114.40472470444851, 38.01559033722519], [114.40354848118658, 38.01982015764844], [114.40139325150906, 38.020711352917594], [114.39796510268894, 38.01966055318037], [114.3918740787827, 38.022004044586566], [114.38954406054987, 38.02396063088371], [114.3896616752981, 38.02704622526577], [114.3921076938485, 38.03356240511106], [114.39089327551969, 38.03760583509344], [114.38701694712107, 38.03779409278657], [114.38646881556801, 38.040214968707495], [114.38271027342891, 38.040244767925905], [114.379970549954, 38.04190949133353], [114.37801243389947, 38.0450490172527], [114.3779541836436, 38.047482589455186], [114.3803216426701, 38.04777341368457], [114.38030117242087, 38.05181528510444], [114.38188730547787, 38.05177388967109], [114.37828497834069, 38.055698996451085], [114.3790294445037, 38.05607135833418], [114.37889189844124, 38.06138960359696], [114.37493863974409, 38.06265591185001], [114.37090745546696, 38.069293955362944], [114.37033963692483, 38.072458308789756], [114.36797169974336, 38.084171730360985], [114.37544466240745, 38.08418880779764], [114.37685340140514, 38.0857296426989], [114.376187477833, 38.089265049620565], [114.3761085029874, 38.097928871981765], [114.37559980122906, 38.09874057272706], [114.36990595149283, 38.0986011591416], [114.36879080913306, 38.10106006277154], [114.37168570917808, 38.10279781276483], [114.37285937066991, 38.104948854836536], [114.38082343294211, 38.10572384889171], [114.38871242482443, 38.10582506697415], [114.39172723184498, 38.10449423330083], [114.3971126078622, 38.105688594496115], [114.39730847390194, 38.10720284673314], [114.4100047476212, 38.10874479547497], [114.41129875819233, 38.11079166277535], [114.41033705376132, 38.11716754134318], [114.40328273882122, 38.11686114293773], [114.40255627188726, 38.12580083296779], [114.40382964272145, 38.12866940937886], [114.40584795412556, 38.12868261783921], [114.40772915281883, 38.13056932527456], [114.40743443656673, 38.13458000310035], [114.40896242597499, 38.136970827386115], [114.41251050422854, 38.14015970630861], [114.41623483640564, 38.14058675445641], [114.4169791469165, 38.14608421410316], [114.4199604083394, 38.14546223026261], [114.42711832395149, 38.15497664230328], [114.43237616843946, 38.161501147536256], [114.43853885756052, 38.166620992986324], [114.439421978206, 38.167352531244376], [114.44238687173498, 38.16568523529117], [114.44670752079145, 38.15998514782748], [114.45774784889514, 38.15188296741645], [114.4683209612713, 38.14518964887912], [114.47065968155185, 38.145381809773674], [114.47606556710983, 38.14442727159706], [114.4754374630588, 38.14147700802552], [114.48505103428282, 38.13984395449027], [114.4881977973836, 38.14090234536035], [114.49260200574028, 38.140902376424435], [114.4951781047421, 38.13757645241049], [114.49407820076034, 38.131796102683154], [114.49643726857475, 38.12967875783862], [114.49580876333789, 38.12870669596461], [114.4975588809931, 38.13021321565207], [114.50127526587342, 38.131114522152174], [114.5096509849131, 38.13075343910781], [114.51462611283712, 38.13179123779495], [114.52382659021204, 38.12983802623916], [114.53581592738843, 38.12549976779372], [114.54157352044878, 38.122671043553176], [114.55037244890187, 38.121189824997785], [114.5557722413095, 38.11980489661151], [114.56050415808829, 38.117156522673], [114.56560649764016, 38.11590203358752], [114.57686615497035, 38.1152640844248], [114.58265028876274, 38.11606582661664], [114.58635499365846, 38.11512479337387], [114.59029322481, 38.11257590626954], [114.59419244426707, 38.110836473092675], [114.60541464673318, 38.108762941140235], [114.61525871334398, 38.10979380215881], [114.62815026140471, 38.109063135345075], [114.6354825480392, 38.10757929606118], [114.65102209013236, 38.10257257106969], [114.65793928271349, 38.1023070811605], [114.66729847253848, 38.09904782158394], [114.67503434602328, 38.10068031995932], [114.68749872251145, 38.10176010973972], [114.68792936073673, 38.09656329307144], [114.69783620873321, 38.09659899794897], [114.6978565183163, 38.093543353103385], [114.69951720057263, 38.093287568269965], [114.69947852652028, 38.091122196285845], [114.70143271517676, 38.09074697430853], [114.699147702268, 38.07793805820495], [114.69344246391604, 38.06953397140593], [114.6894578532003, 38.0627876257308], [114.68713179641252, 38.064573217579], [114.68383028102294, 38.06407420963073], [114.68177921304371, 38.06180457604019], [114.68166175034686, 38.05945230562884], [114.67824256342446, 38.05991087307572], [114.677754943785, 38.0576913370831], [114.6758203111048, 38.058692239845364], [114.67337959450525, 38.05327177821648], [114.6730482237695, 38.04571982213783], [114.6705280837837, 38.04561863534529], [114.67035187938087, 38.04221425316095], [114.67115317583576, 38.040856428612486], [114.67267800783011, 38.03759581173952]]]}}