{"type": "Feature", "properties": {"unit_id": "shijiazhuang_130104", "name": "桥西区", "district_codes": [130104]}, "geometry": {"type": "MultiPolygon", "coordinates": [[[[114.37033963692483, 38.072458308789756], [114.37090745546696, 38.069293955362944], [114.37493863974409, 38.06265591185001], [114.37889189844124, 38.06138960359696], [114.3790294445037, 38.05607135833418], [114.37828497834069, 38.055698996451085], [114.38188730547787, 38.05177388967109], [114.38030117242087, 38.05181528510444], [114.3803216426701, 38.04777341368457], [114.3779541836436, 38.047482589455186], [114.37801243389947, 38.0450490172527], [114.379970549954, 38.04190949133353], [114.38271027342891, 38.040244767925905], [114.38646881556801, 38.040214968707495], [114.38701694712107, 38.03779409278657], [114.39089327551969, 38.03760583509344], [114.3921076938485, 38.03356240511106], [114.3896616752981, 38.02704622526577], [114.38954406054987, 38.02396063088371], [114.3918740787827, 38.022004044586566], [114.39796510268894, 38.01966055318037], [114.40139325150906, 38.020711352917594], [114.40354848118658, 38.01982015764844], [114.40472470444851, 38.01559033722519], [114.40617491366389, 38.01375413211907], [114.41107509658111, 38.01390249129991], [114.4130544843848, 38.01125576725669], [114.41995636664437, 38.01161916065387], [114.42172222367384, 38.01035633900328], [114.42156562353762, 38.00491504201026], [114.41856548402541, 38.0021320910468], [114.41948729019146, 37.99804790025156], [114.42119418495112, 37.99530767764004], [114.42231173240278, 37.99717203752274], [114.42254745731621, 37.99428463199823], [114.42621589255629, 37.99343703978212], [114.43165055464777, 37.99393555002018], [114.43172881681332, 37.99312347858814], [114.44509766868067, 37.99373070021043], [114.4452543895354, 37.99133547982777], [114.45375896935705, 37.99002128068857], [114.45493851954845, 37.98341044707319], [114.45658888309453, 37.98348013621232], [114.45715912719885, 37.980393772535606], [114.45205197899617, 37.97842618504142], [114.45191482525098, 37.976123410758525], [114.45558879717858, 37.973429774093766], [114.46215096498776, 37.97319197973132], [114.46248531799111, 37.971635464310324], [114.466749579652, 37.971606092139695], [114.46842054250082, 37.973100705623544], [114.46883274706045, 37.975857358121495], [114.47549609759015, 37.975742195419926], [114.47866141038043, 37.976629187970744], [114.47966355548793, 37.975167704680814], [114.48432349555874, 37.97329165204724], [114.4839889247371, 37.975140073404404], [114.49016307479921, 37.97605033957016], [114.48642518656774, 37.997943996452776], [114.48612957892624, 38.001389868546866], [114.48835156362313, 38.00238059092435], [114.50624270785076, 38.02019478025851], [114.50586745681707, 38.03494380501328], [114.50580745553526, 38.04147401253902], [114.50429412314924, 38.04204061199601], [114.49788349489751, 38.04176934829284], [114.49520925534287, 38.042718546243165], [114.48649825548469, 38.04290579692801], [114.47822095660176, 38.04272202688528], [114.47833823665465, 38.04429168812719], [114.47110425864184, 38.04412587111521], [114.47110416482401, 38.04492303959286], [114.46336081542886, 38.04474416381585], [114.463183909738, 38.047124232568216], [114.42958381942032, 38.048430576851125], [114.42856340178915, 38.05175306882745], [114.42860212796735, 38.05469173232073], [114.43036669004367, 38.062883570260716], [114.42022441224206, 38.06498768385228], [114.38020183611278, 38.071876565600455], [114.37033963692483, 38.072458308789756]]]]}}