{"type": "Feature", "properties": {"unit_id": "shijiazhuang_130107", "name": "井陉矿区", "district_codes": [130107]}, "geometry": {"type": "MultiPolygon", "coordinates": [[[[114.0218537668782, 38.03267728688864], [114.02829867189698, 38.03232728819823], [114.03445293439096, 38.02794810781179], [114.03556627667133, 38.02817132046843], [114.04267875185808, 38.02637266887646], [114.04320589509341, 38.02445604117389], [114.04099864565886, 38.02348999352548], [114.04433982847326, 38.022498032957145], [114.04504292567015, 38.02663333270773], [114.0526067427772, 38.030461187176186], [114.05606732445554, 38.03062661672705], [114.06113270734383, 38.02878239618971], [114.06387142400763, 38.02984228263778], [114.061679456351, 38.033636540917314], [114.06404670477585, 38.03420494609362], [114.06385062136849, 38.03662576078072], [114.06545469543794, 38.038750814525756], [114.06660795475113, 38.04389524986342], [114.0725946239575, 38.04963177768309], [114.07341682843754, 38.05219738552573], [114.07093126269967, 38.05334354087407], [114.07140080166947, 38.054473207723035], [114.07081217844328, 38.06292969953419], [114.0699113378036, 38.06703868393453], [114.06676174590521, 38.06906332152717], [114.06848301481071, 38.070816328106716], [114.0715155724177, 38.07212775747274], [114.0756452770178, 38.07213717389902], [114.08061793040548, 38.07089640054531], [114.08149869694242, 38.07182590868306], [114.08572865150624, 38.07248724509003], [114.09091923315015, 38.07122264784645], [114.09082128779312, 38.070438518158404], [114.09650345268237, 38.07128749535182], [114.10230397069779, 38.07669785521578], [114.10108825073583, 38.080658496883274], [114.09953969373134, 38.081455533731834], [114.08778401436489, 38.08084689644229], [114.07777763921965, 38.078900496340914], [114.07443091932048, 38.079794022026995], [114.07486129205331, 38.08318325789684], [114.07417545261178, 38.08469830012019], [114.07607440970399, 38.08593257225458], [114.07542811323572, 38.0906641869222], [114.0811037374672, 38.09646623285442], [114.08503940125013, 38.0984969367223], [114.08717440750897, 38.101060273144995], [114.09050443869762, 38.10091282280931], [114.0914444874904, 38.10378208019017], [114.08876012035125, 38.10671965234179], [114.08913168369942, 38.11123637945033], [114.08652564819766, 38.114439232062395], [114.08736838895938, 38.117919471938926], [114.09222567348053, 38.1216503219209], [114.09302880847439, 38.123947552281194], [114.09569363673113, 38.12239377794755], [114.09673221027191, 38.12380094371741], [114.09612420309342, 38.12840986700919], [114.09735764713407, 38.132315504510686], [114.09925919497027, 38.13262055021509], [114.10118026344277, 38.13044229332201], [114.10392410053106, 38.13111990760513], [114.10380668977074, 38.1333913023869], [114.10114069345639, 38.13478509521659], [114.10419783446805, 38.13586185261644], [114.10411961309791, 38.136937031123864], [114.10115934494402, 38.137786649682475], [114.09735726854659, 38.135409077294305], [114.09075442673162, 38.13456119907299], [114.08844378661118, 38.13323386052727], [114.08474262611948, 38.129185059578454], [114.08677897222807, 38.12851978360099], [114.09085315333355, 38.12895612238253], [114.0904815850676, 38.124187351647656], [114.08775883808326, 38.12316628546913], [114.08805330205402, 38.11997753952225], [114.0856832753662, 38.11645908543684], [114.08125821082352, 38.11698014412744], [114.07836102452448, 38.11522922023935], [114.07477790751747, 38.119416530306076], [114.06986644154014, 38.115636528307824], [114.06996476789224, 38.11235476745874], [114.06769582024646, 38.110724439572515], [114.0637824855398, 38.112204399842284], [114.05900967365159, 38.11702111104829], [114.05623357028773, 38.116973047965054], [114.05504074869226, 38.11377364752075], [114.05126802217413, 38.112385748234665], [114.04763220885927, 38.11499785071313], [114.04317596891967, 38.11499378400383], [114.03887692038232, 38.11718339818169], [114.03686426725818, 38.11891469381095], [114.03244874226183, 38.11909901305579], [114.03145334248357, 38.117906398524525], [114.0284065373877, 38.11386276999829], [114.023914683982, 38.11128466424015], [114.02079057161278, 38.10829093382417], [114.01739304759094, 38.108552801297215], [114.01545968721699, 38.107442244855974], [113.99882543015866, 38.10189920819571], [113.99310609370524, 38.096707515735254], [113.99121218651601, 38.09259339865372], [113.99033442053418, 38.087160937261814], [113.98684026777651, 38.08178927409843], [113.98539588989438, 38.07801877617286], [113.98451798375564, 38.07320937096659], [113.98155046956049, 38.06429818621176], [113.98516347293142, 38.06194812705256], [113.98863953310502, 38.06080756988236], [113.99404808662968, 38.056643427918786], [114.00041221448801, 38.0557599242509], [114.00181817026808, 38.054465378429654], [114.00133101152962, 38.05123617797318], [114.00644601996633, 38.04922624043273], [114.0081642766761, 38.04638845470902], [114.00836049044032, 38.039779461126706], [114.00939558617634, 38.03857909309926], [114.01224611679307, 38.039687802779916], [114.01494041201423, 38.03902767890095], [114.01810483081711, 38.03557468253195], [114.02033069569536, 38.034890109650675], [114.0218537668782, 38.03267728688864]]], [[[114.01949195021514, 38.027217884979365], [114.0154895412019, 38.024862040424765], [114.01189688582471, 38.02508572893429], [114.00527765669055, 38.022778144915364], [114.00324772441087, 38.02255825324658], [113.98823257637252, 38.0284419266103], [113.9861049695871, 38.02658685246092], [113.98714101306116, 38.01783090678243], [113.99176894104497, 38.013826197760956], [113.99417001980271, 38.01226261355726], [113.99547856909578, 38.00858686321918], [113.99522554535471, 38.006711228611444], [113.99803634153871, 38.00527939135613], [114.00317096882493, 38.00570287813566], [114.0045969641983, 38.003689121221534], [114.00772079661967, 38.002908508146675], [114.00750622190984, 38.00465152822403], [114.0094969911138, 38.00769318745161], [114.00891144348631, 38.00994242841023], [114.00695815618114, 38.010387410240874], [114.00555168372007, 38.0157528117002], [114.00752345515798, 38.01897954358363], [114.01193639166907, 38.01991150437053], [114.01711078054116, 38.017753769513604], [114.02009838384339, 38.01790514753366], [114.01974722819111, 38.018997391348286], [114.02390649908668, 38.021858176901745], [114.02105491342175, 38.0247658743998], [114.02128903850156, 38.026680615160416], [114.01949195021514, 38.027217884979365]]]]}}