{"type": "Feature", "properties": {"unit_id": "shijiazhuang_130105", "name": "新华区", "district_codes": [130105]}, "geometry": {"type": "MultiPolygon", "coordinates": [[[[114.48649825548469, 38.04290579692801], [114.48824698908403, 38.05523652517014], [114.49213811736834, 38.071879501794285], [114.49264923637732, 38.07188102206108], [114.4960894863201, 38.080916145808544], [114.4872608146688, 38.08207319330879], [114.488852285141, 38.09124773015458], [114.48863480751749, 38.096243091762844], [114.48904761976254, 38.103858819783056], [114.48605856514045, 38.102029691023176], [114.48324717452665, 38.10166246535829], [114.47607054050518, 38.102226298531555], [114.47404632652324, 38.10523734044186], [114.47471382498993, 38.105943300913296], [114.47917633577383, 38.10602171691177], [114.47964762851802, 38.11099201911673], [114.48295069090672, 38.11264876468325], [114.47797672426763, 38.113352777306446], [114.49580876333789, 38.12870669596461], [114.49643726857475, 38.12967875783862], [114.49407820076034, 38.131796102683154], [114.4951781047421, 38.13757645241049], [114.49260200574028, 38.140902376424435], [114.4881977973836, 38.14090234536035], [114.48505103428282, 38.13984395449027], [114.4754374630588, 38.14147700802552], [114.47606556710983, 38.14442727159706], [114.47065968155185, 38.145381809773674], [114.4683209612713, 38.14518964887912], [114.45774784889514, 38.15188296741645], [114.44670752079145, 38.15998514782748], [114.44238687173498, 38.16568523529117], [114.439421978206, 38.167352531244376], [114.43853885756052, 38.166620992986324], [114.43237616843946, 38.161501147536256], [114.42711832395149, 38.15497664230328], [114.4199604083394, 38.14546223026261], [114.4169791469165, 38.14608421410316], [114.41623483640564, 38.14058675445641], [114.41251050422854, 38.14015970630861], [114.40896242597499, 38.136970827386115], [114.40743443656673, 38.13458000310035], [114.40772915281883, 38.13056932527456], [114.40584795412556, 38.12868261783921], [114.40382964272145, 38.12866940937886], [114.40255627188726, 38.12580083296779], [114.40328273882122, 38.11686114293773], [114.41033705376132, 38.11716754134318], [114.41129875819233, 38.11079166277535], [114.4100047476212, 38.10874479547497], [114.39730847390194, 38.10720284673314], [114.3971126078622, 38.105688594496115], [114.39172723184498, 38.10449423330083], [114.38871242482443, 38.10582506697415], [114.38082343294211, 38.10572384889171], [114.37285937066991, 38.104948854836536], [114.37168570917808, 38.10279781276483], [114.36879080913306, 38.10106006277154], [114.36990595149283, 38.0986011591416], [114.37559980122906, 38.09874057272706], [114.3761085029874, 38.097928871981765], [114.376187477833, 38.089265049620565], [114.37685340140514, 38.0857296426989], [114.37544466240745, 38.08418880779764], [114.36797169974336, 38.084171730360985], [114.37033963692483, 38.072458308789756], [114.38020183611278, 38.071876565600455], [114.42022441224206, 38.06498768385228], [114.43036669004367, 38.062883570260716], [114.42860212796735, 38.05469173232073], [114.42856340178915, 38.05175306882745], [114.42958381942032, 38.048430576851125], [114.463183909738, 38.047124232568216], [114.46336081542886, 38.04474416381585], [114.47110416482401, 38.04492303959286], [114.47110425864184, 38.04412587111521], [114.47833823665465, 38.04429168812719], [114.47822095660176, 38.04272202688528], [114.48649825548469, 38.04290579692801]]]]}}