{"type": "Feature", "properties": {"unit_id": "shijiazhuang_130111", "name": "栾城区", "district_codes": [130111]}, "geometry": {"type": "MultiPolygon", "coordinates": [[[[114.79683430674976, 37.88741449573168], [114.79010486375223, 37.89308192167361], [114.77943699164311, 37.89520058556961], [114.77516310260903, 37.893677180681266], [114.7728890386197, 37.890810703604956], [114.76818578282182, 37.89080723896877], [114.7554114192767, 37.888630455663694], [114.75458961165725, 37.88547174112587], [114.75202432328682, 37.88512441013398], [114.75118193532619, 37.88814992789081], [114.74840106123244, 37.8879229663783], [114.74730376124539, 37.89174778142964], [114.74178335266225, 37.89134896320313], [114.74370146919446, 37.89297469732425], [114.74323124843998, 37.896252433012336], [114.74849804751756, 37.89667757733639], [114.74759657845357, 37.90168760510928], [114.75339264898376, 37.90091444639523], [114.75321638485032, 37.90301982650484], [114.7584266044451, 37.903500956471575], [114.75801493061792, 37.90809671462965], [114.76044380908172, 37.908949673225415], [114.7595617213127, 37.91506454198523], [114.75125631088709, 37.91975193344629], [114.74285669174868, 37.91967302997508], [114.73448020002111, 37.92050193484334], [114.72225303010703, 37.924055596957174], [114.70358145411484, 37.93486795932925], [114.69599813280657, 37.93799589376488], [114.68929499008804, 37.9420554597204], [114.68253446028697, 37.9479401065777], [114.6766532809984, 37.95406350763539], [114.67483595957256, 37.958739952554176], [114.67768835942495, 37.958720498357394], [114.67608572124584, 37.96175918944806], [114.67163099392876, 37.96224682790142], [114.67104514320951, 37.96408533545281], [114.66635605027889, 37.96333515308145], [114.66629684555414, 37.96634389476346], [114.6644797376377, 37.96869084230545], [114.66365938999367, 37.97059579624095], [114.65426119324623, 37.97057317771924], [114.65441755370048, 37.9732744645806], [114.65146674098368, 37.97369279726364], [114.6513297063916, 37.97652763501511], [114.64431369945231, 37.976593508983065], [114.64429337097104, 37.979854230572535], [114.64198659733003, 37.980630077478025], [114.64124353502378, 37.98434402470424], [114.63387354664506, 37.98836064757813], [114.63135100421334, 37.99157067676142], [114.62697000355503, 37.99185609346335], [114.62687276834036, 37.9950628878963], [114.6221583078642, 37.995227974931964], [114.62194332106006, 37.997157598178866], [114.61947878757503, 37.99727893957634], [114.61930227363314, 37.99443149056015], [114.6160940450165, 37.99439514391453], [114.6160742992296, 37.99226570593408], [114.6124148392721, 37.992175241589536], [114.61159350714502, 37.9904453751744], [114.60603480309369, 37.99026201344044], [114.6039204360613, 37.98843930882578], [114.60464503950347, 37.98198472728741], [114.60298128389093, 37.9818651573344], [114.60272731438987, 37.97285431442854], [114.58693844396228, 37.97306549154819], [114.58603783928598, 37.97160074170055], [114.58115683618719, 37.971704733778225], [114.57854845837782, 37.972953938119936], [114.5772731449518, 37.97818292335905], [114.57319399416434, 37.978139854509315], [114.57327294771761, 37.97969626900595], [114.56899652900398, 37.97937217348593], [114.56874165009238, 37.974047725140196], [114.56691719656368, 37.973460195785016], [114.56020561268187, 37.97406226706841], [114.56016662463414, 37.97314400985679], [114.55557325276747, 37.97361516439221], [114.55582817763745, 37.971233125815836], [114.55274604363598, 37.97105432838569], [114.5515882161524, 37.96789640939152], [114.54714944795127, 37.96767526391242], [114.54669779313816, 37.97034986044676], [114.52400270143394, 37.9687092102167], [114.51432971681591, 37.96821560307859], [114.51491969552217, 37.97166504409512], [114.50559969882572, 37.97113142600659], [114.50583588597983, 37.96929574517662], [114.50147085690888, 37.96873656853002], [114.50233608067768, 37.963268016190824], [114.50125469803841, 37.96231957767022], [114.50143284772227, 37.95876537125764], [114.50292751604191, 37.95474901586109], [114.50701734274412, 37.955533395274884], [114.50691937325307, 37.95175232167372], [114.50957427255844, 37.95182722081571], [114.50998748855936, 37.94724750076238], [114.5073928750903, 37.93823796626413], [114.50745263899486, 37.93372423209887], [114.50165167811681, 37.93338682936706], [114.50141620586638, 37.92899124207804], [114.49909561468738, 37.928531193360065], [114.49878151750953, 37.92671889046514], [114.48527273523644, 37.926891866720325], [114.48258024520666, 37.92339538881171], [114.48425127951405, 37.920935722517726], [114.48824270605205, 37.91965512173796], [114.48969812582796, 37.91586366876303], [114.48930589402019, 37.91255886783404], [114.48794845824034, 37.911368640638266], [114.48790979604317, 37.90707870093997], [114.48696623374398, 37.90449143932851], [114.4874586729046, 37.90081618464361], [114.48327081203286, 37.8993917344734], [114.4824054436238, 37.898376054317495], [114.48348738712258, 37.893343227764376], [114.48360638012042, 37.88891975462698], [114.48531636846596, 37.88841761809695], [114.49095938779821, 37.8893403699838], [114.49247374669588, 37.88845270395634], [114.4954426833998, 37.89164614696897], [114.49984675968928, 37.89356469326547], [114.50411449089972, 37.893337436589604], [114.50688721800469, 37.89092026659975], [114.50608117058171, 37.888519422605455], [114.51021010620866, 37.888665712038645], [114.51040699679123, 37.887906154494296], [114.51614817802056, 37.88798995618752], [114.51604970281224, 37.88870880321895], [114.52243876423834, 37.88907404036859], [114.52617388517392, 37.89001650526959], [114.52847394231918, 37.88571891331965], [114.53169665138002, 37.88595343153603], [114.53157973547718, 37.88150232320423], [114.52990884641532, 37.880085700788584], [114.52566411380502, 37.87990028075935], [114.52126038636337, 37.878662854775634], [114.52047464988665, 37.87582113535982], [114.52523226572934, 37.872995877426014], [114.52584182268238, 37.870745149036885], [114.52998940222577, 37.86894295070974], [114.53362438824936, 37.8693394261398], [114.53333016471643, 37.87097796187933], [114.53727879344635, 37.87140089171476], [114.54038319568637, 37.87086223477123], [114.54678760248655, 37.86799712831176], [114.5475931697653, 37.86650658519056], [114.54802617867657, 37.86000239244671], [114.54741755306078, 37.858467852182514], [114.53991304132789, 37.85855802745285], [114.53258443902124, 37.85400717971495], [114.5339215306956, 37.850784064598066], [114.53134748092583, 37.849857306552416], [114.53205686575329, 37.83357859705146], [114.5356524767783, 37.833774742363595], [114.53592784184731, 37.83008187248198], [114.5483827465537, 37.82864318172395], [114.55394044982879, 37.82698697090612], [114.55661035929546, 37.827071872505684], [114.56020336947549, 37.82463765707215], [114.56595325159294, 37.82177897801465], [114.56650275412348, 37.818232238618094], [114.57083915809116, 37.81590347546175], [114.57838981598685, 37.81571116993462], [114.57852716662389, 37.814190077539365], [114.58344793997819, 37.814167707591245], [114.58384025027429, 37.81496806029747], [114.59277572713144, 37.816665948323305], [114.59342173263484, 37.819333446852475], [114.59755503561001, 37.819893889350816], [114.60037520084724, 37.82176097162046], [114.60530975737865, 37.821999860828754], [114.6076579972707, 37.822839075077106], [114.61112310664281, 37.82615780428909], [114.6120812721908, 37.82887863407521], [114.61460578135303, 37.8276627810588], [114.61707125870407, 37.824300418979135], [114.61574160395512, 37.82174109005682], [114.61349226418258, 37.81215235906216], [114.61349260520365, 37.80908394658405], [114.61494078211553, 37.80752273002437], [114.61406063184099, 37.80544208038928], [114.61460859711329, 37.80233329439221], [114.61773930249943, 37.800850688555904], [114.62169152272648, 37.800847117908056], [114.62180866827698, 37.798431699737264], [114.62415605658747, 37.798536319957265], [114.62401907551083, 37.79979062207764], [114.62677651698783, 37.8016688229758], [114.63283803409152, 37.801714300305896], [114.63532099306897, 37.80311208080799], [114.63798067707457, 37.80229414902532], [114.64490000245667, 37.803470528412646], [114.64689354933442, 37.799718752515005], [114.65312827248061, 37.79558545540609], [114.65578567490141, 37.79486058657351], [114.66244790763317, 37.795141276643555], [114.67133715664228, 37.7986327643875], [114.68081152288399, 37.80553856311932], [114.69206526991769, 37.80738518455344], [114.69956944810458, 37.80996078275761], [114.69917796865549, 37.81224272904705], [114.7020123427438, 37.81283825533923], [114.70349776443172, 37.810621638043656], [114.70926323209841, 37.81186730355004], [114.70760189544094, 37.813882943430706], [114.71020142163815, 37.81375925648376], [114.71229316034929, 37.82085242169587], [114.7151475141911, 37.82235598040976], [114.72592228706873, 37.82277146962306], [114.73267165027588, 37.824046363116544], [114.75107064921808, 37.82950815966344], [114.75606397590929, 37.83276221582448], [114.75747382261733, 37.837656291223084], [114.75365419991998, 37.84406956548372], [114.74922737424785, 37.84969531440451], [114.74413607104415, 37.86037482036144], [114.74630919532699, 37.86330687678644], [114.7494217231928, 37.86401367994029], [114.75946952960706, 37.8640811711353], [114.77281418944237, 37.86263665656238], [114.77522562394441, 37.8635178703188], [114.77894909190586, 37.871478805414746], [114.78265455440459, 37.875255453431144], [114.78714473731678, 37.878978496862835], [114.79071402850953, 37.882981899067495], [114.79683430674976, 37.88741449573168]]]]}}