{"type": "Feature", "properties": {"unit_id": "tangshan_130203", "name": "路北区", "district_codes": [130203]}, "geometry": {"type": "MultiPolygon", "coordinates": [[[[118.11539776415624, 39.58099185671085], [118.12340133897598, 39.58568547012665], [118.12399895708941, 39.60466555357439], [118.1273293233432, 39.605137997527486], [118.12829076959947, 39.62420689923902], [118.17772955940164, 39.6242578629404], [118.19699805480995, 39.62240236992675], [118.21456382627214, 39.63003204640694], [118.21729306240145, 39.63234577361231], [118.22278842743188, 39.6312897445684], [118.22380684149108, 39.633977158025054], [118.23782554521932, 39.64756809544219], [118.23142503161814, 39.65357443839117], [118.22937052135748, 39.650560558035494], [118.22518668036453, 39.65333565066694], [118.22062072862435, 39.65331528987259], [118.21634359305241, 39.660334321524466], [118.2165616454129, 39.663347036794065], [118.22107428195605, 39.66330494250257], [118.22389278120994, 39.66692803968386], [118.2254020756916, 39.67649576918497], [118.21805201387964, 39.675645609685084], [118.21659661532648, 39.67194558592761], [118.21286539408675, 39.675717444456], [118.2165954546191, 39.68099608090572], [118.22487262469255, 39.68885231094215], [118.22281678302252, 39.69151799510656], [118.21481094038423, 39.68785887980578], [118.21397379909408, 39.69093138178355], [118.20498213389178, 39.693367857057716], [118.20394291323461, 39.69877950718213], [118.20700082603398, 39.7020604690673], [118.20021021521926, 39.70159737671401], [118.19944480089077, 39.71287356749661], [118.16385721576462, 39.712153703777915], [118.16456774581296, 39.70873949540891], [118.15957746890372, 39.706624633520114], [118.1543144191788, 39.70686520028284], [118.15420563457582, 39.702871583382006], [118.14950703700346, 39.69983796261572], [118.13263022384318, 39.69878284728248], [118.12051262556496, 39.69699186815627], [118.11561923923543, 39.69405440078244], [118.11392856134961, 39.688453122858085], [118.11927761529913, 39.68134223661888], [118.11767664616325, 39.67673768707014], [118.10498567859071, 39.669834029190056], [118.0921054336143, 39.65488266220701], [118.08828975423097, 39.665200208774266], [118.0801368513892, 39.67319602076138], [118.07641605330198, 39.673667301050656], [118.07696024268306, 39.67692822667469], [118.06603786082405, 39.678829040798064], [118.05878485438642, 39.677716746801714], [118.05865778608992, 39.67987061437779], [118.04580769835567, 39.679209239658555], [118.04093422675308, 39.673338409088615], [118.03443272469279, 39.67071691878451], [118.03390660160684, 39.67515052211488], [118.02621035638415, 39.67946137178754], [118.01884213879757, 39.68027809290416], [118.01084148490344, 39.678195013202924], [118.00695117893694, 39.664989956402074], [117.99634487656361, 39.66586499920678], [117.98633683142906, 39.654048206422395], [117.9833864958671, 39.6537919435807], [117.97755791041257, 39.64711199728183], [117.98110688362604, 39.64560312098118], [117.98353319220065, 39.63682277726033], [117.98809581297127, 39.632328194757925], [117.99457489455722, 39.63438528912305], [117.99882864959106, 39.633482559810986], [118.0125294788266, 39.63512784195646], [118.01843285376843, 39.62318095309783], [118.02216262890987, 39.61897014793058], [118.03170514560813, 39.618741036547725], [118.03280973446655, 39.61325634152463], [118.03100015975195, 39.60337432629855], [118.03641584611333, 39.59772166340871], [118.04469489220207, 39.59817081527791], [118.04873595262046, 39.59650637559222], [118.05085634903168, 39.589581630367725], [118.0633834509393, 39.587824513759294], [118.0694236197453, 39.58867571697087], [118.07007631624693, 39.593173794640926], [118.07668050479596, 39.592760496392906], [118.07942148870558, 39.58754025995727], [118.09502026850048, 39.586250760922326], [118.10577886738045, 39.58276751593701], [118.11539776415624, 39.58099185671085]]]]}}