{"type": "Feature", "properties": {"unit_id": "tangshan_urban", "name": "全部市辖区联合区域", "district_codes": [130202, 130203, 130205, 130207, 130204, 130208, 130209]}, "geometry": {"type": "MultiPolygon", "coordinates": [[[[118.61231319460738, 39.03190210558384], [118.6114606096001, 39.03331874702992], [118.61831939016076, 39.03723336591821], [118.61231319460738, 39.03190210558384]]], [[[118.61684652663001, 39.06474357059169], [118.61508577574257, 39.067451245034896], [118.63305904133267, 39.07520457619076], [118.63400250721817, 39.07487250357188], [118.64785222672452, 39.056127737664006], [118.64792604190806, 39.04807059591208], [118.64319577940572, 39.048015424879544], [118.634223150787, 39.0414658509896], [118.62475691554953, 39.05392580401434], [118.61630319454954, 39.055019010587095], [118.61381678461387, 39.05934914955437], [118.61684652663001, 39.06474357059169]]], [[[118.42856711471323, 39.38136375491624], [118.42922297808828, 39.376146858262146], [118.41904055178976, 39.34948333011587], [118.42022453386069, 39.33043939626787], [118.42442684002576, 39.3289218594367], [118.45274935230086, 39.33106739640939], [118.46377317526824, 39.32996431399362], [118.46886029048368, 39.304967710489606], [118.4725074120032, 39.29894044622304], [118.50733343730053, 39.28854827004978], [118.51677835638274, 39.28608225988055], [118.54883346934102, 39.287825506410506], [118.55280305028492, 39.2899673127322], [118.56812870686558, 39.28690175531826], [118.57133110165279, 39.2798464215634], [118.58640663470734, 39.267810363374224], [118.59952458373061, 39.25877486036431], [118.60110605793396, 39.24584374228569], [118.6030476831938, 39.254741469688824], [118.6014491404112, 39.26141117621353], [118.59570924215413, 39.26674557973464], [118.59810582122716, 39.27300628362477], [118.61223040736712, 39.27166834381511], [118.62103151340263, 39.26114805849377], [118.63075280048317, 39.257010449125026], [118.64076150086127, 39.24688984687836], [118.64768454747353, 39.24634493571923], [118.65196056854936, 39.252081394795], [118.6524858062091, 39.25696080199051], [118.64771797600427, 39.26690168354484], [118.64206264948766, 39.274237998121954], [118.63823810792319, 39.27278561652758], [118.63136677201952, 39.27400250980856], [118.62913680658966, 39.27739451083663], [118.63508300081888, 39.27892389784303], [118.63250867303483, 39.28437053135751], [118.63651438897607, 39.28795711850663], [118.63408483427504, 39.29437618892872], [118.62857300405575, 39.29093208297012], [118.6183247944491, 39.291193546545756], [118.61429593246038, 39.2956833537624], [118.61643644267, 39.30092006845544], [118.62991183314736, 39.31693216918995], [118.64839946211178, 39.32485360107361], [118.65966998086887, 39.32519425798767], [118.6790366329615, 39.3291084489745], [118.70494880133225, 39.328341629390174], [118.71713145147432, 39.328669985408006], [118.71428503813938, 39.32006672234221], [118.70727017490144, 39.313725451095706], [118.7048972159036, 39.30159113140278], [118.7107889101483, 39.29648627765901], [118.71006510119487, 39.28916207274567], [118.71347417261737, 39.28142457720862], [118.70896096859126, 39.27400960519681], [118.69948501922822, 39.246125183723954], [118.70245838817766, 39.23412808903919], [118.69970508505207, 39.22564025376944], [118.69597267425343, 39.22054334276826], [118.69408871605158, 39.21319875204077], [118.68710274643855, 39.14712399736517], [118.64590144812679, 39.154319004972535], [118.6315267313273, 39.15650907484032], [118.6193392924543, 39.154149894040614], [118.597159193811, 39.14468361841474], [118.5869852555281, 39.141772938665284], [118.58605855881954, 39.13348948882236], [118.58004243744315, 39.12845566320816], [118.57298682270404, 39.13006807444406], [118.57416912524806, 39.125729968692184], [118.58231634871468, 39.116005893277645], [118.5838983683471, 39.11168254769537], [118.58284496944428, 39.10682285596643], [118.57797338170066, 39.10012024564652], [118.57391803835097, 39.09841838656093], [118.55431923594317, 39.09820072232161], [118.54559744018218, 39.087408682556536], [118.5409522586773, 39.086926500141644], [118.53054778719584, 39.091006190140114], [118.52697502884996, 39.090147217728315], [118.5455107178817, 39.04990064963371], [118.56472498618686, 38.998423570458094], [118.56911036259825, 38.99735917172286], [118.5837506309403, 38.9831336514125], [118.58800333603644, 38.98001675482656], [118.5972882502581, 38.977341370583034], [118.59874114884053, 38.97073935695109], [118.57733624237359, 38.95257835304264], [118.53390452878187, 38.909038779376516], [118.51936010147452, 38.904047416187616], [118.50822033150945, 38.903589225111986], [118.49458106519285, 38.90427405222618], [118.48502527357368, 38.90814060341487], [118.40020734834584, 38.95940783355203], [118.37179946468342, 38.97067718957866], [118.36483290366749, 38.98305269579927], [118.3673689033345, 39.010957108121595], [118.38325862227799, 39.02865214426981], [118.38431100798923, 39.03611271896753], [118.37706919089698, 39.0476879990079], [118.37060909914557, 39.05602012647058], [118.35989009637545, 39.06404401727951], [118.35281952253911, 39.067375321520764], [118.34656483248558, 39.06862940156734], [118.32053926686464, 39.06757711781282], [118.31617080219415, 39.06882756421041], [118.29992719771397, 39.07820131484137], [118.2911868700729, 39.08216316517429], [118.2832606318673, 39.08173278958885], [118.26974265868401, 39.071331428579875], [118.25130896322537, 39.0857961836022], [118.24172969152214, 39.104117883869904], [118.22756672567577, 39.09599508142831], [118.21674080433623, 39.1110812433211], [118.23492926629082, 39.115781925442064], [118.23620221776217, 39.1119469246453], [118.24709025460929, 39.11496826929839], [118.2404732782668, 39.12254524536964], [118.23376517971349, 39.12117398733752], [118.23440236343728, 39.11795231267808], [118.21563039018034, 39.112605018138886], [118.2073659711414, 39.12411927724575], [118.22465194596178, 39.13723348030096], [118.17634690529472, 39.1832474102498], [118.13832535310863, 39.15873553142589], [118.13328295969467, 39.1646361002704], [118.11892405506737, 39.18154065936509], [118.11103047822249, 39.18393886777788], [118.07130607142605, 39.20082013026044], [118.06669783142817, 39.204218212482964], [118.06404923669933, 39.212827161111704], [118.04845972446721, 39.209260755229906], [118.044492034369, 39.19890441731156], [118.01993535308931, 39.20066432313957], [118.028568950301, 39.21744256708205], [118.03075908634861, 39.22936795765785], [118.0583528520404, 39.22998078693008], [118.05922288863302, 39.23390408045915], [118.05838660748516, 39.254701050964016], [118.05720752362473, 39.255629638299766], [118.03017533234735, 39.263976462606884], [118.02709552431874, 39.27040134745329], [118.02897858182621, 39.273502571123466], [118.02213381366013, 39.27651794010655], [118.02539185801876, 39.284227722741946], [118.02207835509735, 39.289272392139345], [118.01843853365642, 39.29127479969251], [118.01594122783969, 39.285822930579705], [118.01058408302904, 39.282999303874995], [118.00337962816863, 39.28673908873759], [117.99988646282806, 39.286028076159184], [117.99874590411416, 39.28915291161773], [117.98951495377058, 39.287737556552024], [117.98902597210294, 39.292476553601105], [117.98596562843406, 39.29562203112128], [117.9776024671322, 39.29446988872296], [117.97658820994559, 39.29762612542748], [117.97148236776613, 39.29964719858625], [117.96639281912698, 39.30894493898143], [117.96903583692752, 39.312858044581375], [117.95994427725626, 39.31542076946983], [117.94557481432184, 39.31443334774361], [117.94131528628004, 39.316823920242086], [117.93342724050665, 39.31664846640409], [117.9266965836309, 39.31816225949097], [117.90427513163937, 39.3185989941217], [117.8997694361401, 39.315212782400664], [117.89657071735058, 39.31954015563617], [117.88611648403882, 39.32213836213973], [117.88695302844059, 39.32643476382364], [117.88249632605545, 39.33094645804223], [117.87245515194365, 39.33085788053611], [117.86117127100817, 39.32888421303219], [117.85521831916377, 39.33321703727233], [117.84919107217937, 39.331013185349605], [117.84962857022953, 39.328270269735086], [117.8434923005701, 39.3263785208616], [117.84187123420163, 39.33118826046828], [117.83576963896515, 39.335409050725445], [117.839993681186, 39.34185970234001], [117.84381831172307, 39.34134982970462], [117.8471862678562, 39.35066531403847], [117.85681676941769, 39.36129023252524], [117.8545407816918, 39.3638104778054], [117.84709359926585, 39.36196388208288], [117.8486593344331, 39.36549295404301], [117.84592762302292, 39.36860580451512], [117.84193902940339, 39.366091869144014], [117.84709388173053, 39.35972291923381], [117.83085087373092, 39.34978900591955], [117.82700724079031, 39.35528322092683], [117.81476893063139, 39.355056690336276], [117.81019878773155, 39.35327739060029], [117.8005116370435, 39.35584697069209], [117.7970887849803, 39.36095029190264], [117.7990169283654, 39.3722041027084], [117.81476628286951, 39.37585015253841], [117.83279606288129, 39.37624345681343], [117.84313983691933, 39.37801762422381], [117.84625410334014, 39.37974635373882], [117.85189894530038, 39.37248621869657], [117.85959950649, 39.37727719341793], [117.85437386899522, 39.38366025532362], [117.85637530634588, 39.39614797718635], [117.85324265697598, 39.40226735789272], [117.84197173099614, 39.40091652746173], [117.84091502999996, 39.407038028450934], [117.8657483873785, 39.41055447799199], [117.86423159186808, 39.453933228672035], [117.86798073469554, 39.45390718633991], [117.87196426982256, 39.4661974478974], [117.88024302143654, 39.46576693258075], [117.88224281412316, 39.468162713712275], [117.8921348326812, 39.47151741490796], [117.89366076123213, 39.47588342173626], [117.8904424041048, 39.484706039607076], [117.8863142835181, 39.48604929956297], [117.890968524291, 39.48828904974504], [117.89251155506419, 39.508685925867546], [117.90216136894759, 39.510361129161275], [117.90621218532672, 39.51514613652325], [117.90662961865553, 39.52041539905713], [117.90337741224347, 39.522167354427125], [117.904340163222, 39.526983782519615], [117.89921541455045, 39.52911019527726], [117.8993058478382, 39.53408171758129], [117.90375670472983, 39.53695786810413], [117.90373819802063, 39.54094470650754], [117.90722613883524, 39.541132045040335], [117.91105762852362, 39.547288987660714], [117.91187378571708, 39.553587859886285], [117.91871774388689, 39.56228927925901], [117.92505093847657, 39.56712822564035], [117.92789855737728, 39.57310948938022], [117.92399654156966, 39.57711371682438], [117.90878323047752, 39.58190559567008], [117.89373771208773, 39.588482821493194], [117.88648339280972, 39.59047884367861], [117.87798982177766, 39.58908149793353], [117.86213895370493, 39.595779915191116], [117.85117950249472, 39.5909670392512], [117.84733728895256, 39.591226449145445], [117.84522596269264, 39.58817650567246], [117.84085467528925, 39.59004324242492], [117.83315112917211, 39.588529423443994], [117.82031144122605, 39.58967715330606], [117.81109639992656, 39.59433133575402], [117.79563766585451, 39.60058559350389], [117.7875932564755, 39.59987165761991], [117.78300883281622, 39.596008024345], [117.76116738950904, 39.598536341891325], [117.75991202326531, 39.608673543556904], [117.7575849694902, 39.61107728940918], [117.7810753386403, 39.63446944894234], [117.78868066433446, 39.637194995793564], [117.79488595410838, 39.6469296921239], [117.80127433889736, 39.65346426394505], [117.81347401310008, 39.65532672162406], [117.82086769644413, 39.65452936986241], [117.83780464958836, 39.65652758382568], [117.84980494902581, 39.661370988184515], [117.85688689961178, 39.6706368738624], [117.8582145476317, 39.67541410911747], [117.86028791421064, 39.6959959544067], [117.86248948523213, 39.700523464880376], [117.87460858331183, 39.70971023930016], [117.87950144590465, 39.71489229040817], [117.88204770378184, 39.72080564329068], [117.8853738899922, 39.733329487843434], [117.88606313124416, 39.74659637127513], [117.8852075313461, 39.75805354626564], [117.8739458246222, 39.76899947623312], [117.88000405519954, 39.771717123143695], [117.88571446890138, 39.77183047709404], [117.89198755135614, 39.774342570928525], [117.90950318316759, 39.772987251933934], [117.91151867697691, 39.77682007952316], [117.91415084294198, 39.78830170114587], [117.91507500340045, 39.80101407983842], [117.92474889774147, 39.79916728312836], [117.92373198187398, 39.80491684830017], [117.91545511110736, 39.807197350858914], [117.91625358821186, 39.80931467481407], [117.92394915872964, 39.810072226779496], [117.93855242901118, 39.80485035960871], [117.94076327777451, 39.808896339631715], [117.94114369502418, 39.81621512605068], [117.93822336870943, 39.825128372998535], [117.92752092752472, 39.834236631671004], [117.91713871036433, 39.84517558158853], [117.91561310504711, 39.85412705182458], [117.9197667601095, 39.87441792542709], [117.92439265339509, 39.88991089328202], [117.92205096049207, 39.90116063293024], [117.91580476499428, 39.91133703082079], [117.91422437399818, 39.91776069991066], [117.92146543466353, 39.93184382101598], [117.92990375973478, 39.925739974590535], [117.94294273744089, 39.92414897382116], [117.97931455547722, 39.925803499695824], [118.00072761762821, 39.92370270000615], [118.01100775677003, 39.925257559967974], [118.0368417241843, 39.940514973544424], [118.03856271582237, 39.94390058031141], [118.03872432253908, 39.95123688427049], [118.04162212436464, 39.95724468944268], [118.04290654701104, 39.9678402582999], [118.04805205550822, 39.97151164533738], [118.05479431586068, 39.970364086110784], [118.06186514804088, 39.963062983930556], [118.0704813923134, 39.95988078008952], [118.07479930087976, 39.960264785879815], [118.08289308437827, 39.96429751841937], [118.09440554868858, 39.97523203524862], [118.10060123710201, 39.97851063256949], [118.11218085938731, 39.9778615560653], [118.11690943349338, 39.97899965599281], [118.12680489349421, 39.986901565986116], [118.13777957793201, 39.99069034509661], [118.14107423874725, 39.993926033197745], [118.14733663255551, 40.007961265389234], [118.16367106866026, 40.02193535535664], [118.17696749620198, 40.02210017654975], [118.18141141446436, 40.023334348674325], [118.18396079273668, 40.03127261177906], [118.19075258393224, 40.035337490365144], [118.19719836094515, 40.041092052084714], [118.20524370217294, 40.05688961200362], [118.20879378764411, 40.05914450171391], [118.21962164208233, 40.058443757482145], [118.22298758892488, 40.059828064293676], [118.22919029747199, 40.06206819841988], [118.24417095328339, 40.06261827434101], [118.2531283478332, 40.065132372346845], [118.2639168377596, 40.06425971675822], [118.27124973453539, 40.06534069543315], [118.27669517856617, 40.06344292601094], [118.28124992003012, 40.056408516621616], [118.2870728810515, 40.052381646404335], [118.29936837597023, 40.04977180175752], [118.30167304198582, 40.038017688546056], [118.29685058898032, 40.033119684905266], [118.29563623742908, 40.02723785385839], [118.29853846148603, 40.02106863739076], [118.29420598158096, 40.01503460609728], [118.29467772768983, 40.01155606356642], [118.30421505084936, 40.00394608773199], [118.30666250004587, 40.005090819359154], [118.30780314059281, 40.014795370581595], [118.31066648043871, 40.01693316614341], [118.32447773045477, 40.017668300085866], [118.32819346571893, 40.01432233275377], [118.33129335356435, 40.00419085487566], [118.33885169292817, 39.99746680439858], [118.34597512070468, 39.99319690189128], [118.34356581381181, 39.98562059101819], [118.3388719721748, 39.979740530848424], [118.34603299647547, 39.97040476556985], [118.34235405247932, 39.96391572108622], [118.34358748653224, 39.95724673532867], [118.34947851702313, 39.954687323336145], [118.35379324236838, 39.95038915449898], [118.35238085866779, 39.94201386775322], [118.34549334732736, 39.93750109581433], [118.34121639047703, 39.932783110782445], [118.33991234394145, 39.922553970243946], [118.3305796314674, 39.921452719937356], [118.31927183031026, 39.91449163843728], [118.32045044306909, 39.90674375445972], [118.31940025234793, 39.90153498179895], [118.31320168172105, 39.900784570908996], [118.31124376956144, 39.89840824867184], [118.31383668443576, 39.89120085950658], [118.31149963126944, 39.88796928719075], [118.2949288395922, 39.89185486767599], [118.28972442898935, 39.89038445446109], [118.28992484725319, 39.88506344026216], [118.28575387804995, 39.87917226788298], [118.27666399734305, 39.879260536877055], [118.27192810066447, 39.87352313822934], [118.2738165948511, 39.86795081307691], [118.27989619851324, 39.86326003644876], [118.28120255429225, 39.85832486556863], [118.27828187722686, 39.85395429248809], [118.2767041527098, 39.84668633221277], [118.27187835432433, 39.84065009487051], [118.25733640029945, 39.830724995829506], [118.25495820538922, 39.82163224020167], [118.24665625804981, 39.81756797857535], [118.23762337223815, 39.81150696142793], [118.23591503004126, 39.80717648992893], [118.24173233273947, 39.8038920647017], [118.2437682109052, 39.80224171020054], [118.25383441221182, 39.80231993330342], [118.25650577732296, 39.79583888847406], [118.259284196315, 39.793984155426166], [118.26364229408713, 39.79730089778822], [118.26845297199111, 39.79522608714612], [118.27384374201856, 39.79654565804411], [118.28340671878252, 39.79231398843872], [118.29354498574358, 39.790181577442546], [118.3077409515033, 39.793149203491545], [118.3209909863107, 39.793701766923576], [118.32740563958671, 39.79490439810785], [118.33081314943776, 39.79827857502398], [118.3384604447595, 39.79835703154814], [118.34551203955074, 39.79387342025094], [118.34982589946245, 39.79363181026888], [118.35671413487466, 39.79787294164863], [118.36654207327425, 39.79751640489273], [118.37849721636486, 39.79150395983694], [118.38332455278783, 39.79073676999004], [118.38776975448539, 39.800781772413714], [118.3986102397215, 39.79844063647518], [118.40355134872225, 39.799686214532194], [118.40582158419848, 39.80583992742057], [118.40941923522506, 39.81038837687674], [118.41016309412419, 39.815715209967216], [118.41619736655895, 39.81884783650418], [118.42822020853603, 39.81633558999662], [118.43327830018333, 39.81399011531185], [118.43415266698851, 39.80989563834857], [118.4384669106544, 39.80524443854837], [118.43468220815579, 39.79907125688391], [118.45055967849905, 39.79180754819124], [118.4628750451907, 39.791664290395595], [118.46491644582301, 39.78923854930694], [118.46530084983776, 39.781075252971824], [118.46737834558294, 39.78020860656761], [118.48473343229513, 39.78164321483877], [118.48708662684595, 39.77583761768676], [118.49045945814738, 39.77453866838708], [118.50424604357327, 39.773769909761484], [118.51159425151684, 39.77084600297428], [118.51524166843068, 39.764077339112326], [118.52020112568633, 39.763764579886896], [118.52696422356419, 39.767476905968984], [118.53609434656259, 39.769277373938756], [118.53884586885528, 39.766447353883756], [118.54684388060372, 39.765452593845545], [118.55596715658444, 39.76168298235697], [118.55695155257554, 39.753891572590256], [118.55114446517017, 39.74625853834726], [118.53713626580627, 39.74195590106413], [118.53963373580243, 39.73201511237432], [118.54027150191372, 39.73438632466029], [118.55748254070897, 39.73213004591789], [118.5642714904401, 39.733793747209035], [118.56656446030938, 39.73039742301062], [118.57211313474838, 39.73124626054829], [118.57378807495778, 39.72042648560874], [118.56991341271664, 39.7155097196233], [118.56349112745279, 39.715593946340285], [118.5638559915408, 39.70665773630751], [118.55358898733634, 39.70606344570181], [118.54628683331075, 39.70439588608623], [118.54628747661965, 39.6992326433173], [118.54084047398798, 39.701092137134374], [118.53756168413888, 39.69384641126778], [118.52968909894146, 39.69608809509357], [118.5288491926887, 39.70304284187017], [118.52684485500207, 39.70306846806758], [118.52555113109695, 39.69450122961566], [118.52166792474233, 39.698811839145], [118.51938951032288, 39.69591984304162], [118.51885936862078, 39.70454406227077], [118.51348128617641, 39.70362367196221], [118.51311622631013, 39.70841091990655], [118.50580333897103, 39.71108792332462], [118.5051468900101, 39.71718412950745], [118.5004053485514, 39.718183810306805], [118.48955594388215, 39.71054051415317], [118.47790592123997, 39.70833925320275], [118.47506161216299, 39.711434945159205], [118.47732068669313, 39.71594856673253], [118.47168827396682, 39.71655611607452], [118.46835229090588, 39.714645602088936], [118.467769735356, 39.71040168417535], [118.45793021093931, 39.70883289719222], [118.4495517732973, 39.698926274952754], [118.4424135009012, 39.69796102587016], [118.44035699614842, 39.69316825734577], [118.44130389318228, 39.688817517424255], [118.44094153451088, 39.67692782164907], [118.43053137773273, 39.67134149759863], [118.43650143920281, 39.66640355077161], [118.43695683651711, 39.66353274274784], [118.44402024444334, 39.662466669730904], [118.46469596469042, 39.6626834503761], [118.46826932090968, 39.65752646093284], [118.46792489973359, 39.6433212454509], [118.46889096392175, 39.63884362808758], [118.47426925117969, 39.628225121502915], [118.47379673496414, 39.61830794151864], [118.46552245360196, 39.611274811223836], [118.45779754669566, 39.60183836809504], [118.45625043735495, 39.5952424133549], [118.44850940297236, 39.58563442138684], [118.43995312152884, 39.57629129410068], [118.43314599809923, 39.57539030751217], [118.42956161869975, 39.5703540194966], [118.4234905943151, 39.537353679971986], [118.41763524390483, 39.53267434521372], [118.40523972314588, 39.52585249539614], [118.40667674814546, 39.51606374514248], [118.40233556357332, 39.51021522845043], [118.40013779156652, 39.503943384483215], [118.40021154641968, 39.49821926309209], [118.40400841138757, 39.49299493976133], [118.40461006122918, 39.48224767089245], [118.40779127897581, 39.47066928119526], [118.41446310533026, 39.460187651441494], [118.41184733353383, 39.44718130722813], [118.39923777322895, 39.44084007521038], [118.38636450015363, 39.43827841080118], [118.38511239625996, 39.43663493157065], [118.38469621075113, 39.42444009730162], [118.38952531780465, 39.42119529423219], [118.40093330970817, 39.39272070222616], [118.41074563698795, 39.39109384123222], [118.4211264206867, 39.38770053599212], [118.42856711471323, 39.38136375491624]]], [[[117.6647314225414, 39.356822727839734], [117.66308634575566, 39.323156014866285], [117.65761527297475, 39.31587584422835], [117.64463912402975, 39.31423630879659], [117.644620288069, 39.321165883302974], [117.64030622456295, 39.32176940849126], [117.63638890623777, 39.33071082235594], [117.6313833245924, 39.33502854855899], [117.6359886185111, 39.33831470609549], [117.63593407058599, 39.34339334763624], [117.62915260103944, 39.34283759637945], [117.61119289532773, 39.337148756623684], [117.61053849513493, 39.34348208653473], [117.60309558592493, 39.34221467075788], [117.60080742307969, 39.34604029355621], [117.5913809513776, 39.34414262822179], [117.58914531515741, 39.34818599310069], [117.56357937328076, 39.34165706455695], [117.52996274728498, 39.33700922530159], [117.5273564549472, 39.347927068439354], [117.52298231415124, 39.346347849325625], [117.5145423307129, 39.35615019515413], [117.5222519339152, 39.36027828322724], [117.51988185799397, 39.364533654468126], [117.52314343589543, 39.365592318631236], [117.52790062199986, 39.36135924697997], [117.53099897829647, 39.3626518396797], [117.52906613456852, 39.37297304952422], [117.53267281476376, 39.37627297423713], [117.53890365315746, 39.376930133156144], [117.53773760995568, 39.38021785626382], [117.54666287084575, 39.38156968115084], [117.5516698706895, 39.38460362967217], [117.54746281833626, 39.39156599391839], [117.55472754739237, 39.392034212447456], [117.55412664842792, 39.395494596565335], [117.56251737198605, 39.39626060821121], [117.56530043893035, 39.39935040933965], [117.5649542416185, 39.40364108817826], [117.5693391429997, 39.40322416672448], [117.58448598965512, 39.40450652947853], [117.59099000232735, 39.41406234893414], [117.59564038717103, 39.41544163056887], [117.59524091301158, 39.41852632763619], [117.60493785368563, 39.41614519662499], [117.60515630106916, 39.41205781593884], [117.60817038000886, 39.410099442658655], [117.60798896133775, 39.406137186226786], [117.6248282295762, 39.4075495076884], [117.62549891511969, 39.40333555095015], [117.62894526534538, 39.403503474473936], [117.62965301031436, 39.39752015666234], [117.63567347989232, 39.39917245085388], [117.63730402317276, 39.404854694717436], [117.65010066464414, 39.406494465135744], [117.6488139921653, 39.40873673976537], [117.6575303801894, 39.41135213766913], [117.66285772750189, 39.4109813584712], [117.6645807453045, 39.40424392518918], [117.66697474925815, 39.38563139931152], [117.69602295067311, 39.38783350275276], [117.69344759988081, 39.40650790905825], [117.73095136362709, 39.40941914408787], [117.77579460026315, 39.39366839455899], [117.77825282108758, 39.37587458774605], [117.7382552578581, 39.35347162049416], [117.69990744841762, 39.35044206640317], [117.6833588037959, 39.35796169106524], [117.6647314225414, 39.356822727839734]]]]}}