{"type": "Feature", "properties": {"unit_id": "tangshan_core", "name": "主城区", "district_codes": [130202, 130203, 130205, 130207]}, "geometry": {"type": "MultiPolygon", "coordinates": [[[[117.69990744841762, 39.35044206640317], [117.6833588037959, 39.35796169106524], [117.6647314225414, 39.356822727839734], [117.66308634575566, 39.323156014866285], [117.65761527297475, 39.31587584422835], [117.64463912402975, 39.31423630879659], [117.644620288069, 39.321165883302974], [117.64030622456295, 39.32176940849126], [117.63638890623777, 39.33071082235594], [117.6313833245924, 39.33502854855899], [117.6359886185111, 39.33831470609549], [117.63593407058599, 39.34339334763624], [117.62915260103944, 39.34283759637945], [117.61119289532773, 39.337148756623684], [117.61053849513493, 39.34348208653473], [117.60309558592493, 39.34221467075788], [117.60080742307969, 39.34604029355621], [117.5913809513776, 39.34414262822179], [117.58914531515741, 39.34818599310069], [117.56357937328076, 39.34165706455695], [117.52996274728498, 39.33700922530159], [117.5273564549472, 39.347927068439354], [117.52298231415124, 39.346347849325625], [117.5145423307129, 39.35615019515413], [117.5222519339152, 39.36027828322724], [117.51988185799397, 39.364533654468126], [117.52314343589543, 39.365592318631236], [117.52790062199986, 39.36135924697997], [117.53099897829647, 39.3626518396797], [117.52906613456852, 39.37297304952422], [117.53267281476376, 39.37627297423713], [117.53890365315746, 39.376930133156144], [117.53773760995568, 39.38021785626382], [117.54666287084575, 39.38156968115084], [117.5516698706895, 39.38460362967217], [117.54746281833626, 39.39156599391839], [117.55472754739237, 39.392034212447456], [117.55412664842792, 39.395494596565335], [117.56251737198605, 39.39626060821121], [117.56530043893035, 39.39935040933965], [117.5649542416185, 39.40364108817826], [117.5693391429997, 39.40322416672448], [117.58448598965512, 39.40450652947853], [117.59099000232735, 39.41406234893414], [117.59564038717103, 39.41544163056887], [117.59524091301158, 39.41852632763619], [117.60493785368563, 39.41614519662499], [117.60515630106916, 39.41205781593884], [117.60817038000886, 39.410099442658655], [117.60798896133775, 39.406137186226786], [117.6248282295762, 39.4075495076884], [117.62549891511969, 39.40333555095015], [117.62894526534538, 39.403503474473936], [117.62965301031436, 39.39752015666234], [117.63567347989232, 39.39917245085388], [117.63730402317276, 39.404854694717436], [117.65010066464414, 39.406494465135744], [117.6488139921653, 39.40873673976537], [117.6575303801894, 39.41135213766913], [117.66285772750189, 39.4109813584712], [117.6645807453045, 39.40424392518918], [117.66697474925815, 39.38563139931152], [117.69602295067311, 39.38783350275276], [117.69344759988081, 39.40650790905825], [117.73095136362709, 39.40941914408787], [117.77579460026315, 39.39366839455899], [117.77825282108758, 39.37587458774605], [117.7382552578581, 39.35347162049416], [117.69990744841762, 39.35044206640317]]], [[[118.3517115818222, 39.653861991178765], [118.36204555315926, 39.651785903700684], [118.38147464523742, 39.63897732576829], [118.38766467291325, 39.633055905574324], [118.40337467806064, 39.62023186921919], [118.40929958426052, 39.60756765655062], [118.42322682672541, 39.60204645495987], [118.43701999913041, 39.59378432269177], [118.43976906986252, 39.588758874790756], [118.44850940297236, 39.58563442138684], [118.43995312152884, 39.57629129410068], [118.43314599809923, 39.57539030751217], [118.42956161869975, 39.5703540194966], [118.4234905943151, 39.537353679971986], [118.41763524390483, 39.53267434521372], [118.40523972314588, 39.52585249539614], [118.40667674814546, 39.51606374514248], [118.40233556357332, 39.51021522845043], [118.40013779156652, 39.503943384483215], [118.40021154641968, 39.49821926309209], [118.40400841138757, 39.49299493976133], [118.40461006122918, 39.48224767089245], [118.40779127897581, 39.47066928119526], [118.41446310533026, 39.460187651441494], [118.41184733353383, 39.44718130722813], [118.39923777322895, 39.44084007521038], [118.38636450015363, 39.43827841080118], [118.38511239625996, 39.43663493157065], [118.38469621075113, 39.42444009730162], [118.38952531780465, 39.42119529423219], [118.40093330970817, 39.39272070222616], [118.39287034551792, 39.39059259399541], [118.3909095094713, 39.38514187626682], [118.3889688350742, 39.372124732707825], [118.3895179824035, 39.338226285594985], [118.38372891493714, 39.33020403313412], [118.38118781240841, 39.32932855728344], [118.36261332205099, 39.32837898133413], [118.36087059308377, 39.33924428107866], [118.35809665368154, 39.34210217191868], [118.35015622369619, 39.34399539274241], [118.33960600466851, 39.348215430707015], [118.32081126069248, 39.356933154453735], [118.31763615133985, 39.37652518074792], [118.32388863775353, 39.38343823818876], [118.32278242159104, 39.38716870604765], [118.31843176085525, 39.39073239770181], [118.31547654537654, 39.39922725429967], [118.30809911149225, 39.40318795203188], [118.29923314831005, 39.40613168340743], [118.2918535313585, 39.404466612415796], [118.28938670273052, 39.40580150269344], [118.29430025296591, 39.418416219543644], [118.28650111063018, 39.423422045618395], [118.28593803821667, 39.42932539010059], [118.29672725707556, 39.43674616908704], [118.29850398040527, 39.44046892572043], [118.29551209083313, 39.44488787120854], [118.28851147360277, 39.448247632093995], [118.28087407726834, 39.44883583978721], [118.27092989460083, 39.447921737773996], [118.25587845454211, 39.44356327962675], [118.24614046179568, 39.44387674773007], [118.24159657527726, 39.44731947328038], [118.22885064184547, 39.44673295914367], [118.22279317474316, 39.44445862700186], [118.21928280934463, 39.43648715963061], [118.21382452365326, 39.43165876722644], [118.21135093347885, 39.41808111196311], [118.20758376223947, 39.41546109183024], [118.21290162692686, 39.39171024961779], [118.2211087752312, 39.392299349847804], [118.22900577029884, 39.368290031829275], [118.23506170262722, 39.36913954723908], [118.23791736504717, 39.357451314909135], [118.23653643432962, 39.35296878085544], [118.23011828660604, 39.345159636054994], [118.22990037344265, 39.342008985500485], [118.23717351069888, 39.34202927157757], [118.25812514439536, 39.34467939396927], [118.26398961555381, 39.34475578908159], [118.26475277266854, 39.34199668081521], [118.25565583714908, 39.33690582514113], [118.2325935149427, 39.330332449702254], [118.21704123816069, 39.32755996798175], [118.21309138280786, 39.33352831715724], [118.2136172711261, 39.34323129436658], [118.21110517455831, 39.34868249633484], [118.19102343686448, 39.35219384960927], [118.17907641123932, 39.35218731103025], [118.16991488134579, 39.34909864056791], [118.17044591182362, 39.329803921241044], [118.17183063168878, 39.32478998099887], [118.18698525152658, 39.31214925025529], [118.18558375910162, 39.308367645583814], [118.1715057902641, 39.30037465840994], [118.16992146526086, 39.297706059955964], [118.17050522422431, 39.28955037786204], [118.1803964344477, 39.28006281895533], [118.18005104708494, 39.275214748696044], [118.17427758261891, 39.27184678659702], [118.1774129896062, 39.25446702635849], [118.17408096489251, 39.248576025122816], [118.17468368665772, 39.233226662233825], [118.1780907281198, 39.22486571739336], [118.17457590340763, 39.221154252914154], [118.15958619459009, 39.220340852823774], [118.15583472398936, 39.21873302834564], [118.14909699360221, 39.212080189355476], [118.14602069338967, 39.205337997307105], [118.14769726488967, 39.19634192232157], [118.15631176371879, 39.1897915253007], [118.15975414095665, 39.18532132835639], [118.15762384986891, 39.17906614675227], [118.13328295969467, 39.1646361002704], [118.11892405506737, 39.18154065936509], [118.11103047822249, 39.18393886777788], [118.07130607142605, 39.20082013026044], [118.06669783142817, 39.204218212482964], [118.06404923669933, 39.212827161111704], [118.04845972446721, 39.209260755229906], [118.044492034369, 39.19890441731156], [118.01993535308931, 39.20066432313957], [118.028568950301, 39.21744256708205], [118.03075908634861, 39.22936795765785], [118.0583528520404, 39.22998078693008], [118.05922288863302, 39.23390408045915], [118.05838660748516, 39.254701050964016], [118.05720752362473, 39.255629638299766], [118.03017533234735, 39.263976462606884], [118.02709552431874, 39.27040134745329], [118.02897858182621, 39.273502571123466], [118.02213381366013, 39.27651794010655], [118.02539185801876, 39.284227722741946], [118.02207835509735, 39.289272392139345], [118.01843853365642, 39.29127479969251], [118.01594122783969, 39.285822930579705], [118.01058408302904, 39.282999303874995], [118.00337962816863, 39.28673908873759], [117.99988646282806, 39.286028076159184], [117.99874590411416, 39.28915291161773], [117.98951495377058, 39.287737556552024], [117.98902597210294, 39.292476553601105], [117.98596562843406, 39.29562203112128], [117.9776024671322, 39.29446988872296], [117.97658820994559, 39.29762612542748], [117.97148236776613, 39.29964719858625], [117.96639281912698, 39.30894493898143], [117.96903583692752, 39.312858044581375], [117.95994427725626, 39.31542076946983], [117.94557481432184, 39.31443334774361], [117.94131528628004, 39.316823920242086], [117.93342724050665, 39.31664846640409], [117.9266965836309, 39.31816225949097], [117.90427513163937, 39.3185989941217], [117.8997694361401, 39.315212782400664], [117.89657071735058, 39.31954015563617], [117.88611648403882, 39.32213836213973], [117.88695302844059, 39.32643476382364], [117.88249632605545, 39.33094645804223], [117.87245515194365, 39.33085788053611], [117.86117127100817, 39.32888421303219], [117.85521831916377, 39.33321703727233], [117.84919107217937, 39.331013185349605], [117.84962857022953, 39.328270269735086], [117.8434923005701, 39.3263785208616], [117.84187123420163, 39.33118826046828], [117.83576963896515, 39.335409050725445], [117.839993681186, 39.34185970234001], [117.84381831172307, 39.34134982970462], [117.8471862678562, 39.35066531403847], [117.85681676941769, 39.36129023252524], [117.8545407816918, 39.3638104778054], [117.84709359926585, 39.36196388208288], [117.8486593344331, 39.36549295404301], [117.84592762302292, 39.36860580451512], [117.84193902940339, 39.366091869144014], [117.84709388173053, 39.35972291923381], [117.83085087373092, 39.34978900591955], [117.82700724079031, 39.35528322092683], [117.81476893063139, 39.355056690336276], [117.81019878773155, 39.35327739060029], [117.8005116370435, 39.35584697069209], [117.7970887849803, 39.36095029190264], [117.7990169283654, 39.3722041027084], [117.81476628286951, 39.37585015253841], [117.83279606288129, 39.37624345681343], [117.84313983691933, 39.37801762422381], [117.84625410334014, 39.37974635373882], [117.85189894530038, 39.37248621869657], [117.85959950649, 39.37727719341793], [117.85437386899522, 39.38366025532362], [117.85637530634588, 39.39614797718635], [117.85324265697598, 39.40226735789272], [117.84197173099614, 39.40091652746173], [117.84091502999996, 39.407038028450934], [117.8657483873785, 39.41055447799199], [117.86423159186808, 39.453933228672035], [117.86798073469554, 39.45390718633991], [117.87196426982256, 39.4661974478974], [117.88024302143654, 39.46576693258075], [117.88224281412316, 39.468162713712275], [117.8921348326812, 39.47151741490796], [117.89366076123213, 39.47588342173626], [117.8904424041048, 39.484706039607076], [117.8863142835181, 39.48604929956297], [117.890968524291, 39.48828904974504], [117.89251155506419, 39.508685925867546], [117.90216136894759, 39.510361129161275], [117.90621218532672, 39.51514613652325], [117.90662961865553, 39.52041539905713], [117.90337741224347, 39.522167354427125], [117.904340163222, 39.526983782519615], [117.89921541455045, 39.52911019527726], [117.8993058478382, 39.53408171758129], [117.90375670472983, 39.53695786810413], [117.90373819802063, 39.54094470650754], [117.90722613883524, 39.541132045040335], [117.91105762852362, 39.547288987660714], [117.91187378571708, 39.553587859886285], [117.91871774388689, 39.56228927925901], [117.92505093847657, 39.56712822564035], [117.92789855737728, 39.57310948938022], [117.93339505568069, 39.574290062580666], [117.9428236853001, 39.57183752134723], [117.94208119711301, 39.570338237840446], [117.96007582390388, 39.56270643364428], [117.96616125887678, 39.564425795613], [117.96694061633215, 39.560125935274684], [117.96943930414186, 39.561432009123834], [117.98039291488331, 39.561338592807815], [117.97669913330888, 39.56433431802315], [117.98149613805815, 39.57119678860555], [117.99168629841853, 39.574275802927595], [117.99150495665538, 39.58168246738144], [117.99338670340651, 39.589081963092994], [117.98585678641967, 39.588573630460424], [117.98560086747628, 39.60232112185057], [117.9828663068242, 39.61369958497446], [117.98547274693568, 39.6143627848494], [117.98809728231335, 39.62082059411457], [117.98706375923221, 39.62813112956836], [117.98809581297127, 39.632328194757925], [117.98353319220065, 39.63682277726033], [117.98110688362604, 39.64560312098118], [117.97755791041257, 39.64711199728183], [117.9833864958671, 39.6537919435807], [117.98633683142906, 39.654048206422395], [117.99634487656361, 39.66586499920678], [118.00695117893694, 39.664989956402074], [118.01084148490344, 39.678195013202924], [118.01884213879757, 39.68027809290416], [118.02621035638415, 39.67946137178754], [118.03390660160684, 39.67515052211488], [118.03443272469279, 39.67071691878451], [118.04093422675308, 39.673338409088615], [118.04580769835567, 39.679209239658555], [118.05865778608992, 39.67987061437779], [118.05878485438642, 39.677716746801714], [118.06603786082405, 39.678829040798064], [118.07696024268306, 39.67692822667469], [118.07641605330198, 39.673667301050656], [118.0801368513892, 39.67319602076138], [118.08828975423097, 39.665200208774266], [118.0921054336143, 39.65488266220701], [118.10498567859071, 39.669834029190056], [118.11767664616325, 39.67673768707014], [118.11927761529913, 39.68134223661888], [118.11392856134961, 39.688453122858085], [118.11561923923543, 39.69405440078244], [118.12051262556496, 39.69699186815627], [118.13263022384318, 39.69878284728248], [118.14950703700346, 39.69983796261572], [118.15420563457582, 39.702871583382006], [118.1543144191788, 39.70686520028284], [118.15957746890372, 39.706624633520114], [118.16456774581296, 39.70873949540891], [118.16385721576462, 39.712153703777915], [118.16150592359476, 39.72305091270304], [118.1589538014562, 39.743938698584735], [118.17716594725671, 39.75519627214794], [118.18993299358416, 39.76104883728276], [118.1948317685778, 39.7584544993953], [118.20146003680236, 39.758667157416674], [118.20672060710908, 39.76084174218437], [118.21520144809142, 39.768115122471364], [118.22266176205297, 39.76760923934051], [118.22662836951031, 39.75992959550376], [118.23541148113586, 39.760075547799005], [118.24579070476996, 39.76286869365371], [118.25029673058145, 39.76659354430241], [118.24715126158536, 39.78088307531583], [118.24593227410276, 39.79040308362087], [118.24318772680601, 39.79467121131674], [118.24173233273947, 39.8038920647017], [118.2437682109052, 39.80224171020054], [118.25383441221182, 39.80231993330342], [118.25650577732296, 39.79583888847406], [118.259284196315, 39.793984155426166], [118.26364229408713, 39.79730089778822], [118.26845297199111, 39.79522608714612], [118.27384374201856, 39.79654565804411], [118.28340671878252, 39.79231398843872], [118.29354498574358, 39.790181577442546], [118.3077409515033, 39.793149203491545], [118.3209909863107, 39.793701766923576], [118.32740563958671, 39.79490439810785], [118.33081314943776, 39.79827857502398], [118.3384604447595, 39.79835703154814], [118.34551203955074, 39.79387342025094], [118.34982589946245, 39.79363181026888], [118.35671413487466, 39.79787294164863], [118.36654207327425, 39.79751640489273], [118.36447668817836, 39.784479398054714], [118.36233741573234, 39.78021286908794], [118.35135286392618, 39.76466290771338], [118.34464654060389, 39.75674156303428], [118.3333745811344, 39.74636577749052], [118.32572875784793, 39.73568569187862], [118.32482348843506, 39.728982256680986], [118.329699006744, 39.72442048621285], [118.33885143386134, 39.72289027848813], [118.34617393885958, 39.723188793593465], [118.34831433283775, 39.7119095087908], [118.35652666270275, 39.703972783137715], [118.35458798784663, 39.696254073187866], [118.35986527395195, 39.68785298042184], [118.36077242494102, 39.68335831799264], [118.35683853713284, 39.67776233939119], [118.34982317866655, 39.67593335479685], [118.34221161105852, 39.66953307631453], [118.33976589192011, 39.65865953001064], [118.3517115818222, 39.653861991178765]]]]}}