{"type": "Feature", "properties": {"unit_id": "tangshan_130204", "name": "古冶区", "district_codes": [130204]}, "geometry": {"type": "MultiPolygon", "coordinates": [[[[118.45625043735495, 39.5952424133549], [118.45779754669566, 39.60183836809504], [118.46552245360196, 39.611274811223836], [118.47379673496414, 39.61830794151864], [118.47426925117969, 39.628225121502915], [118.46889096392175, 39.63884362808758], [118.46792489973359, 39.6433212454509], [118.46826932090968, 39.65752646093284], [118.46469596469042, 39.6626834503761], [118.44402024444334, 39.662466669730904], [118.43695683651711, 39.66353274274784], [118.43650143920281, 39.66640355077161], [118.43053137773273, 39.67134149759863], [118.44094153451088, 39.67692782164907], [118.44130389318228, 39.688817517424255], [118.44035699614842, 39.69316825734577], [118.4424135009012, 39.69796102587016], [118.4495517732973, 39.698926274952754], [118.45793021093931, 39.70883289719222], [118.467769735356, 39.71040168417535], [118.46835229090588, 39.714645602088936], [118.47168827396682, 39.71655611607452], [118.47732068669313, 39.71594856673253], [118.47506161216299, 39.711434945159205], [118.47790592123997, 39.70833925320275], [118.48955594388215, 39.71054051415317], [118.5004053485514, 39.718183810306805], [118.5051468900101, 39.71718412950745], [118.50580333897103, 39.71108792332462], [118.51311622631013, 39.70841091990655], [118.51348128617641, 39.70362367196221], [118.51885936862078, 39.70454406227077], [118.51938951032288, 39.69591984304162], [118.52166792474233, 39.698811839145], [118.52555113109695, 39.69450122961566], [118.52684485500207, 39.70306846806758], [118.5288491926887, 39.70304284187017], [118.52968909894146, 39.69608809509357], [118.53756168413888, 39.69384641126778], [118.54084047398798, 39.701092137134374], [118.54628747661965, 39.6992326433173], [118.54628683331075, 39.70439588608623], [118.55358898733634, 39.70606344570181], [118.5638559915408, 39.70665773630751], [118.56349112745279, 39.715593946340285], [118.56991341271664, 39.7155097196233], [118.57378807495778, 39.72042648560874], [118.57211313474838, 39.73124626054829], [118.56656446030938, 39.73039742301062], [118.5642714904401, 39.733793747209035], [118.55748254070897, 39.73213004591789], [118.54027150191372, 39.73438632466029], [118.53963373580243, 39.73201511237432], [118.53713626580627, 39.74195590106413], [118.55114446517017, 39.74625853834726], [118.55695155257554, 39.753891572590256], [118.55596715658444, 39.76168298235697], [118.54684388060372, 39.765452593845545], [118.53884586885528, 39.766447353883756], [118.53609434656259, 39.769277373938756], [118.52696422356419, 39.767476905968984], [118.52020112568633, 39.763764579886896], [118.51524166843068, 39.764077339112326], [118.51159425151684, 39.77084600297428], [118.50424604357327, 39.773769909761484], [118.49045945814738, 39.77453866838708], [118.48708662684595, 39.77583761768676], [118.48473343229513, 39.78164321483877], [118.46737834558294, 39.78020860656761], [118.46530084983776, 39.781075252971824], [118.46491644582301, 39.78923854930694], [118.4628750451907, 39.791664290395595], [118.45055967849905, 39.79180754819124], [118.43468220815579, 39.79907125688391], [118.4384669106544, 39.80524443854837], [118.43415266698851, 39.80989563834857], [118.43327830018333, 39.81399011531185], [118.42822020853603, 39.81633558999662], [118.41619736655895, 39.81884783650418], [118.41016309412419, 39.815715209967216], [118.40941923522506, 39.81038837687674], [118.40582158419848, 39.80583992742057], [118.40355134872225, 39.799686214532194], [118.3986102397215, 39.79844063647518], [118.38776975448539, 39.800781772413714], [118.38332455278783, 39.79073676999004], [118.37849721636486, 39.79150395983694], [118.36654207327425, 39.79751640489273], [118.36447668817836, 39.784479398054714], [118.36233741573234, 39.78021286908794], [118.35135286392618, 39.76466290771338], [118.34464654060389, 39.75674156303428], [118.3333745811344, 39.74636577749052], [118.32572875784793, 39.73568569187862], [118.32482348843506, 39.728982256680986], [118.329699006744, 39.72442048621285], [118.33885143386134, 39.72289027848813], [118.34617393885958, 39.723188793593465], [118.34831433283775, 39.7119095087908], [118.35652666270275, 39.703972783137715], [118.35458798784663, 39.696254073187866], [118.35986527395195, 39.68785298042184], [118.36077242494102, 39.68335831799264], [118.35683853713284, 39.67776233939119], [118.34982317866655, 39.67593335479685], [118.34221161105852, 39.66953307631453], [118.33976589192011, 39.65865953001064], [118.3517115818222, 39.653861991178765], [118.36204555315926, 39.651785903700684], [118.38147464523742, 39.63897732576829], [118.38766467291325, 39.633055905574324], [118.40337467806064, 39.62023186921919], [118.40929958426052, 39.60756765655062], [118.42322682672541, 39.60204645495987], [118.43701999913041, 39.59378432269177], [118.43976906986252, 39.588758874790756], [118.44850940297236, 39.58563442138684], [118.45625043735495, 39.5952424133549]]]]}}