{"type": "Feature", "properties": {"unit_id": "tangshan_130205", "name": "开平区", "district_codes": [130205]}, "geometry": {"type": "MultiPolygon", "coordinates": [[[[118.16385721576462, 39.712153703777915], [118.19944480089077, 39.71287356749661], [118.20021021521926, 39.70159737671401], [118.20700082603398, 39.7020604690673], [118.20394291323461, 39.69877950718213], [118.20498213389178, 39.693367857057716], [118.21397379909408, 39.69093138178355], [118.21481094038423, 39.68785887980578], [118.22281678302252, 39.69151799510656], [118.22487262469255, 39.68885231094215], [118.2165954546191, 39.68099608090572], [118.21286539408675, 39.675717444456], [118.21659661532648, 39.67194558592761], [118.21805201387964, 39.675645609685084], [118.2254020756916, 39.67649576918497], [118.22389278120994, 39.66692803968386], [118.22107428195605, 39.66330494250257], [118.2165616454129, 39.663347036794065], [118.21634359305241, 39.660334321524466], [118.22062072862435, 39.65331528987259], [118.22518668036453, 39.65333565066694], [118.22937052135748, 39.650560558035494], [118.23142503161814, 39.65357443839117], [118.23782554521932, 39.64756809544219], [118.22380684149108, 39.633977158025054], [118.22278842743188, 39.6312897445684], [118.2227710579865, 39.61826747173824], [118.22058895330295, 39.61192469114718], [118.22586518073776, 39.61102387940584], [118.2291221687072, 39.603389225513894], [118.23479628682658, 39.599128885749174], [118.23617840711177, 39.59516154180705], [118.23437911789962, 39.58861516989795], [118.2383434271573, 39.58199274388649], [118.24047136529305, 39.57527524857018], [118.24612525560616, 39.564009508642755], [118.25435464816643, 39.56611868727005], [118.26270887320958, 39.56661668086385], [118.27545138871879, 39.57065435509265], [118.28446807950135, 39.57661297602514], [118.28769456820376, 39.58968659834402], [118.28845468648099, 39.604759026984226], [118.29014082868309, 39.60983257424731], [118.29945690036789, 39.64904146961026], [118.30436852589162, 39.65696185339084], [118.3103683265059, 39.65865302746733], [118.33976589192011, 39.65865953001064], [118.34221161105852, 39.66953307631453], [118.34982317866655, 39.67593335479685], [118.35683853713284, 39.67776233939119], [118.36077242494102, 39.68335831799264], [118.35986527395195, 39.68785298042184], [118.35458798784663, 39.696254073187866], [118.35652666270275, 39.703972783137715], [118.34831433283775, 39.7119095087908], [118.34617393885958, 39.723188793593465], [118.33885143386134, 39.72289027848813], [118.329699006744, 39.72442048621285], [118.32482348843506, 39.728982256680986], [118.32572875784793, 39.73568569187862], [118.3333745811344, 39.74636577749052], [118.34464654060389, 39.75674156303428], [118.35135286392618, 39.76466290771338], [118.36233741573234, 39.78021286908794], [118.36447668817836, 39.784479398054714], [118.36654207327425, 39.79751640489273], [118.35671413487466, 39.79787294164863], [118.34982589946245, 39.79363181026888], [118.34551203955074, 39.79387342025094], [118.3384604447595, 39.79835703154814], [118.33081314943776, 39.79827857502398], [118.32740563958671, 39.79490439810785], [118.3209909863107, 39.793701766923576], [118.3077409515033, 39.793149203491545], [118.29354498574358, 39.790181577442546], [118.28340671878252, 39.79231398843872], [118.27384374201856, 39.79654565804411], [118.26845297199111, 39.79522608714612], [118.26364229408713, 39.79730089778822], [118.259284196315, 39.793984155426166], [118.25650577732296, 39.79583888847406], [118.25383441221182, 39.80231993330342], [118.2437682109052, 39.80224171020054], [118.24173233273947, 39.8038920647017], [118.24318772680601, 39.79467121131674], [118.24593227410276, 39.79040308362087], [118.24715126158536, 39.78088307531583], [118.25029673058145, 39.76659354430241], [118.24579070476996, 39.76286869365371], [118.23541148113586, 39.760075547799005], [118.22662836951031, 39.75992959550376], [118.22266176205297, 39.76760923934051], [118.21520144809142, 39.768115122471364], [118.20672060710908, 39.76084174218437], [118.20146003680236, 39.758667157416674], [118.1948317685778, 39.7584544993953], [118.18993299358416, 39.76104883728276], [118.17716594725671, 39.75519627214794], [118.1589538014562, 39.743938698584735], [118.16150592359476, 39.72305091270304], [118.16385721576462, 39.712153703777915]]]]}}