{"type": "Feature", "properties": {"unit_id": "tangshan_130208", "name": "丰润区", "district_codes": [130208]}, "geometry": {"type": "MultiPolygon", "coordinates": [[[[118.16385721576462, 39.712153703777915], [118.16150592359476, 39.72305091270304], [118.1589538014562, 39.743938698584735], [118.17716594725671, 39.75519627214794], [118.18993299358416, 39.76104883728276], [118.1948317685778, 39.7584544993953], [118.20146003680236, 39.758667157416674], [118.20672060710908, 39.76084174218437], [118.21520144809142, 39.768115122471364], [118.22266176205297, 39.76760923934051], [118.22662836951031, 39.75992959550376], [118.23541148113586, 39.760075547799005], [118.24579070476996, 39.76286869365371], [118.25029673058145, 39.76659354430241], [118.24715126158536, 39.78088307531583], [118.24593227410276, 39.79040308362087], [118.24318772680601, 39.79467121131674], [118.24173233273947, 39.8038920647017], [118.23591503004126, 39.80717648992893], [118.23762337223815, 39.81150696142793], [118.24665625804981, 39.81756797857535], [118.25495820538922, 39.82163224020167], [118.25733640029945, 39.830724995829506], [118.27187835432433, 39.84065009487051], [118.2767041527098, 39.84668633221277], [118.27828187722686, 39.85395429248809], [118.28120255429225, 39.85832486556863], [118.27989619851324, 39.86326003644876], [118.2738165948511, 39.86795081307691], [118.27192810066447, 39.87352313822934], [118.27666399734305, 39.879260536877055], [118.28575387804995, 39.87917226788298], [118.28992484725319, 39.88506344026216], [118.28972442898935, 39.89038445446109], [118.2949288395922, 39.89185486767599], [118.31149963126944, 39.88796928719075], [118.31383668443576, 39.89120085950658], [118.31124376956144, 39.89840824867184], [118.31320168172105, 39.900784570908996], [118.31940025234793, 39.90153498179895], [118.32045044306909, 39.90674375445972], [118.31927183031026, 39.91449163843728], [118.3305796314674, 39.921452719937356], [118.33991234394145, 39.922553970243946], [118.34121639047703, 39.932783110782445], [118.34549334732736, 39.93750109581433], [118.35238085866779, 39.94201386775322], [118.35379324236838, 39.95038915449898], [118.34947851702313, 39.954687323336145], [118.34358748653224, 39.95724673532867], [118.34235405247932, 39.96391572108622], [118.34603299647547, 39.97040476556985], [118.3388719721748, 39.979740530848424], [118.34356581381181, 39.98562059101819], [118.34597512070468, 39.99319690189128], [118.33885169292817, 39.99746680439858], [118.33129335356435, 40.00419085487566], [118.32819346571893, 40.01432233275377], [118.32447773045477, 40.017668300085866], [118.31066648043871, 40.01693316614341], [118.30780314059281, 40.014795370581595], [118.30666250004587, 40.005090819359154], [118.30421505084936, 40.00394608773199], [118.29467772768983, 40.01155606356642], [118.29420598158096, 40.01503460609728], [118.29853846148603, 40.02106863739076], [118.29563623742908, 40.02723785385839], [118.29685058898032, 40.033119684905266], [118.30167304198582, 40.038017688546056], [118.29936837597023, 40.04977180175752], [118.2870728810515, 40.052381646404335], [118.28124992003012, 40.056408516621616], [118.27669517856617, 40.06344292601094], [118.27124973453539, 40.06534069543315], [118.2639168377596, 40.06425971675822], [118.2531283478332, 40.065132372346845], [118.24417095328339, 40.06261827434101], [118.22919029747199, 40.06206819841988], [118.22298758892488, 40.059828064293676], [118.21962164208233, 40.058443757482145], [118.20879378764411, 40.05914450171391], [118.20524370217294, 40.05688961200362], [118.19719836094515, 40.041092052084714], [118.19075258393224, 40.035337490365144], [118.18396079273668, 40.03127261177906], [118.18141141446436, 40.023334348674325], [118.17696749620198, 40.02210017654975], [118.16367106866026, 40.02193535535664], [118.14733663255551, 40.007961265389234], [118.14107423874725, 39.993926033197745], [118.13777957793201, 39.99069034509661], [118.12680489349421, 39.986901565986116], [118.11690943349338, 39.97899965599281], [118.11218085938731, 39.9778615560653], [118.10060123710201, 39.97851063256949], [118.09440554868858, 39.97523203524862], [118.08289308437827, 39.96429751841937], [118.07479930087976, 39.960264785879815], [118.0704813923134, 39.95988078008952], [118.06186514804088, 39.963062983930556], [118.05479431586068, 39.970364086110784], [118.04805205550822, 39.97151164533738], [118.04290654701104, 39.9678402582999], [118.04162212436464, 39.95724468944268], [118.03872432253908, 39.95123688427049], [118.03856271582237, 39.94390058031141], [118.0368417241843, 39.940514973544424], [118.01100775677003, 39.925257559967974], [118.00072761762821, 39.92370270000615], [117.97931455547722, 39.925803499695824], [117.94294273744089, 39.92414897382116], [117.92990375973478, 39.925739974590535], [117.92146543466353, 39.93184382101598], [117.91422437399818, 39.91776069991066], [117.91580476499428, 39.91133703082079], [117.92205096049207, 39.90116063293024], [117.92439265339509, 39.88991089328202], [117.9197667601095, 39.87441792542709], [117.91561310504711, 39.85412705182458], [117.91713871036433, 39.84517558158853], [117.92752092752472, 39.834236631671004], [117.93822336870943, 39.825128372998535], [117.94114369502418, 39.81621512605068], [117.94076327777451, 39.808896339631715], [117.93855242901118, 39.80485035960871], [117.92394915872964, 39.810072226779496], [117.91625358821186, 39.80931467481407], [117.91545511110736, 39.807197350858914], [117.92373198187398, 39.80491684830017], [117.92474889774147, 39.79916728312836], [117.91507500340045, 39.80101407983842], [117.91415084294198, 39.78830170114587], [117.91151867697691, 39.77682007952316], [117.90950318316759, 39.772987251933934], [117.89198755135614, 39.774342570928525], [117.88571446890138, 39.77183047709404], [117.88000405519954, 39.771717123143695], [117.8739458246222, 39.76899947623312], [117.8852075313461, 39.75805354626564], [117.88606313124416, 39.74659637127513], [117.8853738899922, 39.733329487843434], [117.88204770378184, 39.72080564329068], [117.87950144590465, 39.71489229040817], [117.87460858331183, 39.70971023930016], [117.86248948523213, 39.700523464880376], [117.86028791421064, 39.6959959544067], [117.8582145476317, 39.67541410911747], [117.85688689961178, 39.6706368738624], [117.84980494902581, 39.661370988184515], [117.83780464958836, 39.65652758382568], [117.82086769644413, 39.65452936986241], [117.81347401310008, 39.65532672162406], [117.80127433889736, 39.65346426394505], [117.79488595410838, 39.6469296921239], [117.78868066433446, 39.637194995793564], [117.7810753386403, 39.63446944894234], [117.7575849694902, 39.61107728940918], [117.75991202326531, 39.608673543556904], [117.76116738950904, 39.598536341891325], [117.78300883281622, 39.596008024345], [117.7875932564755, 39.59987165761991], [117.79563766585451, 39.60058559350389], [117.81109639992656, 39.59433133575402], [117.82031144122605, 39.58967715330606], [117.83315112917211, 39.588529423443994], [117.84085467528925, 39.59004324242492], [117.84522596269264, 39.58817650567246], [117.84733728895256, 39.591226449145445], [117.85117950249472, 39.5909670392512], [117.86213895370493, 39.595779915191116], [117.87798982177766, 39.58908149793353], [117.88648339280972, 39.59047884367861], [117.89373771208773, 39.588482821493194], [117.90878323047752, 39.58190559567008], [117.92399654156966, 39.57711371682438], [117.92789855737728, 39.57310948938022], [117.93339505568069, 39.574290062580666], [117.9428236853001, 39.57183752134723], [117.94208119711301, 39.570338237840446], [117.96007582390388, 39.56270643364428], [117.96616125887678, 39.564425795613], [117.96694061633215, 39.560125935274684], [117.96943930414186, 39.561432009123834], [117.98039291488331, 39.561338592807815], [117.97669913330888, 39.56433431802315], [117.98149613805815, 39.57119678860555], [117.99168629841853, 39.574275802927595], [117.99150495665538, 39.58168246738144], [117.99338670340651, 39.589081963092994], [117.98585678641967, 39.588573630460424], [117.98560086747628, 39.60232112185057], [117.9828663068242, 39.61369958497446], [117.98547274693568, 39.6143627848494], [117.98809728231335, 39.62082059411457], [117.98706375923221, 39.62813112956836], [117.98809581297127, 39.632328194757925], [117.98353319220065, 39.63682277726033], [117.98110688362604, 39.64560312098118], [117.97755791041257, 39.64711199728183], [117.9833864958671, 39.6537919435807], [117.98633683142906, 39.654048206422395], [117.99634487656361, 39.66586499920678], [118.00695117893694, 39.664989956402074], [118.01084148490344, 39.678195013202924], [118.01884213879757, 39.68027809290416], [118.02621035638415, 39.67946137178754], [118.03390660160684, 39.67515052211488], [118.03443272469279, 39.67071691878451], [118.04093422675308, 39.673338409088615], [118.04580769835567, 39.679209239658555], [118.05865778608992, 39.67987061437779], [118.05878485438642, 39.677716746801714], [118.06603786082405, 39.678829040798064], [118.07696024268306, 39.67692822667469], [118.07641605330198, 39.673667301050656], [118.0801368513892, 39.67319602076138], [118.08828975423097, 39.665200208774266], [118.0921054336143, 39.65488266220701], [118.10498567859071, 39.669834029190056], [118.11767664616325, 39.67673768707014], [118.11927761529913, 39.68134223661888], [118.11392856134961, 39.688453122858085], [118.11561923923543, 39.69405440078244], [118.12051262556496, 39.69699186815627], [118.13263022384318, 39.69878284728248], [118.14950703700346, 39.69983796261572], [118.15420563457582, 39.702871583382006], [118.1543144191788, 39.70686520028284], [118.15957746890372, 39.706624633520114], [118.16456774581296, 39.70873949540891], [118.16385721576462, 39.712153703777915]]]]}}