{"type": "Feature", "properties": {"unit_id": "tangshan_130207", "name": "丰南区", "district_codes": [130207]}, "geometry": {"type": "MultiPolygon", "coordinates": [[[[117.98809581297127, 39.632328194757925], [117.98706375923221, 39.62813112956836], [117.98809728231335, 39.62082059411457], [117.98547274693568, 39.6143627848494], [117.9828663068242, 39.61369958497446], [117.98560086747628, 39.60232112185057], [117.98585678641967, 39.588573630460424], [117.99338670340651, 39.589081963092994], [117.99150495665538, 39.58168246738144], [117.99168629841853, 39.574275802927595], [117.98149613805815, 39.57119678860555], [117.97669913330888, 39.56433431802315], [117.98039291488331, 39.561338592807815], [117.96943930414186, 39.561432009123834], [117.96694061633215, 39.560125935274684], [117.96616125887678, 39.564425795613], [117.96007582390388, 39.56270643364428], [117.94208119711301, 39.570338237840446], [117.9428236853001, 39.57183752134723], [117.93339505568069, 39.574290062580666], [117.92789855737728, 39.57310948938022], [117.92505093847657, 39.56712822564035], [117.91871774388689, 39.56228927925901], [117.91187378571708, 39.553587859886285], [117.91105762852362, 39.547288987660714], [117.90722613883524, 39.541132045040335], [117.90373819802063, 39.54094470650754], [117.90375670472983, 39.53695786810413], [117.8993058478382, 39.53408171758129], [117.89921541455045, 39.52911019527726], [117.904340163222, 39.526983782519615], [117.90337741224347, 39.522167354427125], [117.90662961865553, 39.52041539905713], [117.90621218532672, 39.51514613652325], [117.90216136894759, 39.510361129161275], [117.89251155506419, 39.508685925867546], [117.890968524291, 39.48828904974504], [117.8863142835181, 39.48604929956297], [117.8904424041048, 39.484706039607076], [117.89366076123213, 39.47588342173626], [117.8921348326812, 39.47151741490796], [117.88224281412316, 39.468162713712275], [117.88024302143654, 39.46576693258075], [117.87196426982256, 39.4661974478974], [117.86798073469554, 39.45390718633991], [117.86423159186808, 39.453933228672035], [117.8657483873785, 39.41055447799199], [117.84091502999996, 39.407038028450934], [117.84197173099614, 39.40091652746173], [117.85324265697598, 39.40226735789272], [117.85637530634588, 39.39614797718635], [117.85437386899522, 39.38366025532362], [117.85959950649, 39.37727719341793], [117.85189894530038, 39.37248621869657], [117.84625410334014, 39.37974635373882], [117.84313983691933, 39.37801762422381], [117.83279606288129, 39.37624345681343], [117.81476628286951, 39.37585015253841], [117.7990169283654, 39.3722041027084], [117.7970887849803, 39.36095029190264], [117.8005116370435, 39.35584697069209], [117.81019878773155, 39.35327739060029], [117.81476893063139, 39.355056690336276], [117.82700724079031, 39.35528322092683], [117.83085087373092, 39.34978900591955], [117.84709388173053, 39.35972291923381], [117.84193902940339, 39.366091869144014], [117.84592762302292, 39.36860580451512], [117.8486593344331, 39.36549295404301], [117.84709359926585, 39.36196388208288], [117.8545407816918, 39.3638104778054], [117.85681676941769, 39.36129023252524], [117.8471862678562, 39.35066531403847], [117.84381831172307, 39.34134982970462], [117.839993681186, 39.34185970234001], [117.83576963896515, 39.335409050725445], [117.84187123420163, 39.33118826046828], [117.8434923005701, 39.3263785208616], [117.84962857022953, 39.328270269735086], [117.84919107217937, 39.331013185349605], [117.85521831916377, 39.33321703727233], [117.86117127100817, 39.32888421303219], [117.87245515194365, 39.33085788053611], [117.88249632605545, 39.33094645804223], [117.88695302844059, 39.32643476382364], [117.88611648403882, 39.32213836213973], [117.89657071735058, 39.31954015563617], [117.8997694361401, 39.315212782400664], [117.90427513163937, 39.3185989941217], [117.9266965836309, 39.31816225949097], [117.93342724050665, 39.31664846640409], [117.94131528628004, 39.316823920242086], [117.94557481432184, 39.31443334774361], [117.95994427725626, 39.31542076946983], [117.96903583692752, 39.312858044581375], [117.96639281912698, 39.30894493898143], [117.97148236776613, 39.29964719858625], [117.97658820994559, 39.29762612542748], [117.9776024671322, 39.29446988872296], [117.98596562843406, 39.29562203112128], [117.98902597210294, 39.292476553601105], [117.98951495377058, 39.287737556552024], [117.99874590411416, 39.28915291161773], [117.99988646282806, 39.286028076159184], [118.00337962816863, 39.28673908873759], [118.01058408302904, 39.282999303874995], [118.01594122783969, 39.285822930579705], [118.01843853365642, 39.29127479969251], [118.02207835509735, 39.289272392139345], [118.02539185801876, 39.284227722741946], [118.02213381366013, 39.27651794010655], [118.02897858182621, 39.273502571123466], [118.02709552431874, 39.27040134745329], [118.03017533234735, 39.263976462606884], [118.05720752362473, 39.255629638299766], [118.05838660748516, 39.254701050964016], [118.05922288863302, 39.23390408045915], [118.0583528520404, 39.22998078693008], [118.03075908634861, 39.22936795765785], [118.028568950301, 39.21744256708205], [118.01993535308931, 39.20066432313957], [118.044492034369, 39.19890441731156], [118.04845972446721, 39.209260755229906], [118.06404923669933, 39.212827161111704], [118.06669783142817, 39.204218212482964], [118.07130607142605, 39.20082013026044], [118.11103047822249, 39.18393886777788], [118.11892405506737, 39.18154065936509], [118.13328295969467, 39.1646361002704], [118.15762384986891, 39.17906614675227], [118.15975414095665, 39.18532132835639], [118.15631176371879, 39.1897915253007], [118.14769726488967, 39.19634192232157], [118.14602069338967, 39.205337997307105], [118.14909699360221, 39.212080189355476], [118.15583472398936, 39.21873302834564], [118.15958619459009, 39.220340852823774], [118.17457590340763, 39.221154252914154], [118.1780907281198, 39.22486571739336], [118.17468368665772, 39.233226662233825], [118.17408096489251, 39.248576025122816], [118.1774129896062, 39.25446702635849], [118.17427758261891, 39.27184678659702], [118.18005104708494, 39.275214748696044], [118.1803964344477, 39.28006281895533], [118.17050522422431, 39.28955037786204], [118.16992146526086, 39.297706059955964], [118.1715057902641, 39.30037465840994], [118.18558375910162, 39.308367645583814], [118.18698525152658, 39.31214925025529], [118.17183063168878, 39.32478998099887], [118.17044591182362, 39.329803921241044], [118.16991488134579, 39.34909864056791], [118.17907641123932, 39.35218731103025], [118.19102343686448, 39.35219384960927], [118.21110517455831, 39.34868249633484], [118.2136172711261, 39.34323129436658], [118.21309138280786, 39.33352831715724], [118.21704123816069, 39.32755996798175], [118.2325935149427, 39.330332449702254], [118.25565583714908, 39.33690582514113], [118.26475277266854, 39.34199668081521], [118.26398961555381, 39.34475578908159], [118.25812514439536, 39.34467939396927], [118.23717351069888, 39.34202927157757], [118.22990037344265, 39.342008985500485], [118.23011828660604, 39.345159636054994], [118.23653643432962, 39.35296878085544], [118.23791736504717, 39.357451314909135], [118.23506170262722, 39.36913954723908], [118.22900577029884, 39.368290031829275], [118.2211087752312, 39.392299349847804], [118.21290162692686, 39.39171024961779], [118.20758376223947, 39.41546109183024], [118.21135093347885, 39.41808111196311], [118.21382452365326, 39.43165876722644], [118.21928280934463, 39.43648715963061], [118.22279317474316, 39.44445862700186], [118.22885064184547, 39.44673295914367], [118.24159657527726, 39.44731947328038], [118.24614046179568, 39.44387674773007], [118.25587845454211, 39.44356327962675], [118.27092989460083, 39.447921737773996], [118.28087407726834, 39.44883583978721], [118.28851147360277, 39.448247632093995], [118.29551209083313, 39.44488787120854], [118.29850398040527, 39.44046892572043], [118.29672725707556, 39.43674616908704], [118.28593803821667, 39.42932539010059], [118.28650111063018, 39.423422045618395], [118.29430025296591, 39.418416219543644], [118.28938670273052, 39.40580150269344], [118.2918535313585, 39.404466612415796], [118.29923314831005, 39.40613168340743], [118.30809911149225, 39.40318795203188], [118.31547654537654, 39.39922725429967], [118.31843176085525, 39.39073239770181], [118.32278242159104, 39.38716870604765], [118.32388863775353, 39.38343823818876], [118.31763615133985, 39.37652518074792], [118.32081126069248, 39.356933154453735], [118.33960600466851, 39.348215430707015], [118.35015622369619, 39.34399539274241], [118.35809665368154, 39.34210217191868], [118.36087059308377, 39.33924428107866], [118.36261332205099, 39.32837898133413], [118.38118781240841, 39.32932855728344], [118.38372891493714, 39.33020403313412], [118.3895179824035, 39.338226285594985], [118.3889688350742, 39.372124732707825], [118.3909095094713, 39.38514187626682], [118.39287034551792, 39.39059259399541], [118.40093330970817, 39.39272070222616], [118.38952531780465, 39.42119529423219], [118.38469621075113, 39.42444009730162], [118.38511239625996, 39.43663493157065], [118.38636450015363, 39.43827841080118], [118.39923777322895, 39.44084007521038], [118.41184733353383, 39.44718130722813], [118.41446310533026, 39.460187651441494], [118.40779127897581, 39.47066928119526], [118.40461006122918, 39.48224767089245], [118.40400841138757, 39.49299493976133], [118.40021154641968, 39.49821926309209], [118.40013779156652, 39.503943384483215], [118.40233556357332, 39.51021522845043], [118.40667674814546, 39.51606374514248], [118.40523972314588, 39.52585249539614], [118.41763524390483, 39.53267434521372], [118.4234905943151, 39.537353679971986], [118.42956161869975, 39.5703540194966], [118.43314599809923, 39.57539030751217], [118.43995312152884, 39.57629129410068], [118.44850940297236, 39.58563442138684], [118.43976906986252, 39.588758874790756], [118.43701999913041, 39.59378432269177], [118.42322682672541, 39.60204645495987], [118.40929958426052, 39.60756765655062], [118.40337467806064, 39.62023186921919], [118.38766467291325, 39.633055905574324], [118.38147464523742, 39.63897732576829], [118.36204555315926, 39.651785903700684], [118.3517115818222, 39.653861991178765], [118.33976589192011, 39.65865953001064], [118.3103683265059, 39.65865302746733], [118.30436852589162, 39.65696185339084], [118.29945690036789, 39.64904146961026], [118.29014082868309, 39.60983257424731], [118.28845468648099, 39.604759026984226], [118.28769456820376, 39.58968659834402], [118.28446807950135, 39.57661297602514], [118.27545138871879, 39.57065435509265], [118.26270887320958, 39.56661668086385], [118.25435464816643, 39.56611868727005], [118.24612525560616, 39.564009508642755], [118.23751003860946, 39.562397475530254], [118.22032260609701, 39.56369723067783], [118.21710166876059, 39.56189620721339], [118.22101461328518, 39.55789951192795], [118.22383455748098, 39.55805920854446], [118.22301674886594, 39.55336973326367], [118.21633927094312, 39.553080745868755], [118.21468322377717, 39.55046851287956], [118.21983233735074, 39.5507872575895], [118.22547252147965, 39.54832338872744], [118.22614664387342, 39.54017930492406], [118.23691293529845, 39.53444910694308], [118.25265135578626, 39.53306026444164], [118.25206986361832, 39.535389638286865], [118.26314890393847, 39.53418256934376], [118.26344029780397, 39.53061748189513], [118.2670533290883, 39.52997453737451], [118.27364301127545, 39.52077525551472], [118.26369603299585, 39.51648268902752], [118.26219017903337, 39.50957164887685], [118.25468887859306, 39.50963618328091], [118.25229226059065, 39.50125327918588], [118.24146135998012, 39.503473512618], [118.23966199276654, 39.50115767249787], [118.2405537019885, 39.494307264331425], [118.237973867513, 39.48870617753265], [118.22731697612925, 39.48899645258563], [118.22186032540671, 39.48555072055494], [118.21188594886182, 39.5059364948279], [118.20074571882762, 39.50532575711147], [118.20192908850768, 39.50224659461424], [118.19725039114407, 39.49993994491835], [118.19291658479094, 39.50160616448972], [118.18175302894976, 39.49428174582394], [118.18020480274009, 39.49994100738663], [118.1816976670662, 39.50365053890493], [118.17754435928157, 39.505097380411826], [118.17694258575149, 39.512931740271014], [118.17969169045638, 39.52031752973088], [118.17284335719415, 39.52185327778197], [118.17450072954814, 39.52589014400386], [118.16599446337922, 39.52718783144223], [118.16606639644243, 39.52934531270669], [118.15535703798217, 39.53240588377775], [118.15533853626032, 39.53587682124685], [118.14661541136961, 39.537659459909676], [118.15125840029528, 39.54177900383889], [118.15160343115606, 39.54886057053124], [118.15520799874514, 39.552618789084285], [118.1602884036949, 39.56127053541158], [118.15074491250033, 39.565504541884955], [118.14391679593896, 39.56516545140811], [118.13277547026466, 39.56946231816497], [118.12105514823885, 39.57816812424842], [118.11539776415624, 39.58099185671085], [118.10577886738045, 39.58276751593701], [118.09502026850048, 39.586250760922326], [118.07942148870558, 39.58754025995727], [118.07668050479596, 39.592760496392906], [118.07007631624693, 39.593173794640926], [118.0694236197453, 39.58867571697087], [118.0633834509393, 39.587824513759294], [118.05085634903168, 39.589581630367725], [118.04873595262046, 39.59650637559222], [118.04469489220207, 39.59817081527791], [118.03641584611333, 39.59772166340871], [118.03100015975195, 39.60337432629855], [118.03280973446655, 39.61325634152463], [118.03170514560813, 39.618741036547725], [118.02216262890987, 39.61897014793058], [118.01843285376843, 39.62318095309783], [118.0125294788266, 39.63512784195646], [117.99882864959106, 39.633482559810986], [117.99457489455722, 39.63438528912305], [117.98809581297127, 39.632328194757925]]]]}}