{"type": "Feature", "properties": {"unit_id": "tangshan_130209", "name": "曹妃甸区", "district_codes": [130209]}, "geometry": {"type": "MultiPolygon", "coordinates": [[[[118.71713145147432, 39.328669985408006], [118.70494880133225, 39.328341629390174], [118.6790366329615, 39.3291084489745], [118.65966998086887, 39.32519425798767], [118.64839946211178, 39.32485360107361], [118.62991183314736, 39.31693216918995], [118.61643644267, 39.30092006845544], [118.61429593246038, 39.2956833537624], [118.6183247944491, 39.291193546545756], [118.62857300405575, 39.29093208297012], [118.63408483427504, 39.29437618892872], [118.63651438897607, 39.28795711850663], [118.63250867303483, 39.28437053135751], [118.63508300081888, 39.27892389784303], [118.62913680658966, 39.27739451083663], [118.63136677201952, 39.27400250980856], [118.63823810792319, 39.27278561652758], [118.64206264948766, 39.274237998121954], [118.64771797600427, 39.26690168354484], [118.6524858062091, 39.25696080199051], [118.65196056854936, 39.252081394795], [118.64768454747353, 39.24634493571923], [118.64076150086127, 39.24688984687836], [118.63075280048317, 39.257010449125026], [118.62103151340263, 39.26114805849377], [118.61223040736712, 39.27166834381511], [118.59810582122716, 39.27300628362477], [118.59570924215413, 39.26674557973464], [118.6014491404112, 39.26141117621353], [118.6030476831938, 39.254741469688824], [118.60110605793396, 39.24584374228569], [118.59952458373061, 39.25877486036431], [118.58640663470734, 39.267810363374224], [118.57133110165279, 39.2798464215634], [118.56812870686558, 39.28690175531826], [118.55280305028492, 39.2899673127322], [118.54883346934102, 39.287825506410506], [118.51677835638274, 39.28608225988055], [118.50733343730053, 39.28854827004978], [118.4725074120032, 39.29894044622304], [118.46886029048368, 39.304967710489606], [118.46377317526824, 39.32996431399362], [118.45274935230086, 39.33106739640939], [118.42442684002576, 39.3289218594367], [118.42022453386069, 39.33043939626787], [118.41904055178976, 39.34948333011587], [118.42922297808828, 39.376146858262146], [118.42856711471323, 39.38136375491624], [118.4211264206867, 39.38770053599212], [118.41074563698795, 39.39109384123222], [118.40093330970817, 39.39272070222616], [118.39287034551792, 39.39059259399541], [118.3909095094713, 39.38514187626682], [118.3889688350742, 39.372124732707825], [118.3895179824035, 39.338226285594985], [118.38372891493714, 39.33020403313412], [118.38118781240841, 39.32932855728344], [118.36261332205099, 39.32837898133413], [118.36087059308377, 39.33924428107866], [118.35809665368154, 39.34210217191868], [118.35015622369619, 39.34399539274241], [118.33960600466851, 39.348215430707015], [118.32081126069248, 39.356933154453735], [118.31763615133985, 39.37652518074792], [118.32388863775353, 39.38343823818876], [118.32278242159104, 39.38716870604765], [118.31843176085525, 39.39073239770181], [118.31547654537654, 39.39922725429967], [118.30809911149225, 39.40318795203188], [118.29923314831005, 39.40613168340743], [118.2918535313585, 39.404466612415796], [118.28938670273052, 39.40580150269344], [118.29430025296591, 39.418416219543644], [118.28650111063018, 39.423422045618395], [118.28593803821667, 39.42932539010059], [118.29672725707556, 39.43674616908704], [118.29850398040527, 39.44046892572043], [118.29551209083313, 39.44488787120854], [118.28851147360277, 39.448247632093995], [118.28087407726834, 39.44883583978721], [118.27092989460083, 39.447921737773996], [118.25587845454211, 39.44356327962675], [118.24614046179568, 39.44387674773007], [118.24159657527726, 39.44731947328038], [118.22885064184547, 39.44673295914367], [118.22279317474316, 39.44445862700186], [118.21928280934463, 39.43648715963061], [118.21382452365326, 39.43165876722644], [118.21135093347885, 39.41808111196311], [118.20758376223947, 39.41546109183024], [118.21290162692686, 39.39171024961779], [118.2211087752312, 39.392299349847804], [118.22900577029884, 39.368290031829275], [118.23506170262722, 39.36913954723908], [118.23791736504717, 39.357451314909135], [118.23653643432962, 39.35296878085544], [118.23011828660604, 39.345159636054994], [118.22990037344265, 39.342008985500485], [118.23717351069888, 39.34202927157757], [118.25812514439536, 39.34467939396927], [118.26398961555381, 39.34475578908159], [118.26475277266854, 39.34199668081521], [118.25565583714908, 39.33690582514113], [118.2325935149427, 39.330332449702254], [118.21704123816069, 39.32755996798175], [118.21309138280786, 39.33352831715724], [118.2136172711261, 39.34323129436658], [118.21110517455831, 39.34868249633484], [118.19102343686448, 39.35219384960927], [118.17907641123932, 39.35218731103025], [118.16991488134579, 39.34909864056791], [118.17044591182362, 39.329803921241044], [118.17183063168878, 39.32478998099887], [118.18698525152658, 39.31214925025529], [118.18558375910162, 39.308367645583814], [118.1715057902641, 39.30037465840994], [118.16992146526086, 39.297706059955964], [118.17050522422431, 39.28955037786204], [118.1803964344477, 39.28006281895533], [118.18005104708494, 39.275214748696044], [118.17427758261891, 39.27184678659702], [118.1774129896062, 39.25446702635849], [118.17408096489251, 39.248576025122816], [118.17468368665772, 39.233226662233825], [118.1780907281198, 39.22486571739336], [118.17457590340763, 39.221154252914154], [118.15958619459009, 39.220340852823774], [118.15583472398936, 39.21873302834564], [118.14909699360221, 39.212080189355476], [118.14602069338967, 39.205337997307105], [118.14769726488967, 39.19634192232157], [118.15631176371879, 39.1897915253007], [118.15975414095665, 39.18532132835639], [118.15762384986891, 39.17906614675227], [118.13328295969467, 39.1646361002704], [118.13832535310863, 39.15873553142589], [118.17634690529472, 39.1832474102498], [118.22465194596178, 39.13723348030096], [118.2073659711414, 39.12411927724575], [118.21563039018034, 39.112605018138886], [118.23440236343728, 39.11795231267808], [118.23376517971349, 39.12117398733752], [118.2404732782668, 39.12254524536964], [118.24709025460929, 39.11496826929839], [118.23620221776217, 39.1119469246453], [118.23492926629082, 39.115781925442064], [118.21674080433623, 39.1110812433211], [118.22756672567577, 39.09599508142831], [118.24172969152214, 39.104117883869904], [118.25130896322537, 39.0857961836022], [118.26974265868401, 39.071331428579875], [118.2832606318673, 39.08173278958885], [118.2911868700729, 39.08216316517429], [118.29992719771397, 39.07820131484137], [118.31617080219415, 39.06882756421041], [118.32053926686464, 39.06757711781282], [118.34656483248558, 39.06862940156734], [118.35281952253911, 39.067375321520764], [118.35989009637545, 39.06404401727951], [118.37060909914557, 39.05602012647058], [118.37706919089698, 39.0476879990079], [118.38431100798923, 39.03611271896753], [118.38325862227799, 39.02865214426981], [118.3673689033345, 39.010957108121595], [118.36483290366749, 38.98305269579927], [118.37179946468342, 38.97067718957866], [118.40020734834584, 38.95940783355203], [118.48502527357368, 38.90814060341487], [118.49458106519285, 38.90427405222618], [118.50822033150945, 38.903589225111986], [118.51936010147452, 38.904047416187616], [118.53390452878187, 38.909038779376516], [118.57733624237359, 38.95257835304264], [118.59874114884053, 38.97073935695109], [118.5972882502581, 38.977341370583034], [118.58800333603644, 38.98001675482656], [118.5837506309403, 38.9831336514125], [118.56911036259825, 38.99735917172286], [118.56472498618686, 38.998423570458094], [118.5455107178817, 39.04990064963371], [118.52697502884996, 39.090147217728315], [118.53054778719584, 39.091006190140114], [118.5409522586773, 39.086926500141644], [118.54559744018218, 39.087408682556536], [118.55431923594317, 39.09820072232161], [118.57391803835097, 39.09841838656093], [118.57797338170066, 39.10012024564652], [118.58284496944428, 39.10682285596643], [118.5838983683471, 39.11168254769537], [118.58231634871468, 39.116005893277645], [118.57416912524806, 39.125729968692184], [118.57298682270404, 39.13006807444406], [118.58004243744315, 39.12845566320816], [118.58605855881954, 39.13348948882236], [118.5869852555281, 39.141772938665284], [118.597159193811, 39.14468361841474], [118.6193392924543, 39.154149894040614], [118.6315267313273, 39.15650907484032], [118.64590144812679, 39.154319004972535], [118.68710274643855, 39.14712399736517], [118.69408871605158, 39.21319875204077], [118.69597267425343, 39.22054334276826], [118.69970508505207, 39.22564025376944], [118.70245838817766, 39.23412808903919], [118.69948501922822, 39.246125183723954], [118.70896096859126, 39.27400960519681], [118.71347417261737, 39.28142457720862], [118.71006510119487, 39.28916207274567], [118.7107889101483, 39.29648627765901], [118.7048972159036, 39.30159113140278], [118.70727017490144, 39.313725451095706], [118.71428503813938, 39.32006672234221], [118.71713145147432, 39.328669985408006]]], [[[118.61231319460738, 39.03190210558384], [118.61831939016076, 39.03723336591821], [118.6114606096001, 39.03331874702992], [118.61231319460738, 39.03190210558384]]], [[[118.62475691554953, 39.05392580401434], [118.634223150787, 39.0414658509896], [118.64319577940572, 39.048015424879544], [118.64792604190806, 39.04807059591208], [118.64785222672452, 39.056127737664006], [118.63400250721817, 39.07487250357188], [118.63305904133267, 39.07520457619076], [118.61508577574257, 39.067451245034896], [118.61684652663001, 39.06474357059169], [118.61381678461387, 39.05934914955437], [118.61630319454954, 39.055019010587095], [118.62475691554953, 39.05392580401434]]]]}}