{"type": "Feature", "properties": {"unit_id": "tangshan_130202", "name": "路南区", "district_codes": [130202]}, "geometry": {"type": "MultiPolygon", "coordinates": [[[[118.11539776415624, 39.58099185671085], [118.12105514823885, 39.57816812424842], [118.13277547026466, 39.56946231816497], [118.14391679593896, 39.56516545140811], [118.15074491250033, 39.565504541884955], [118.1602884036949, 39.56127053541158], [118.15520799874514, 39.552618789084285], [118.15160343115606, 39.54886057053124], [118.15125840029528, 39.54177900383889], [118.14661541136961, 39.537659459909676], [118.15533853626032, 39.53587682124685], [118.15535703798217, 39.53240588377775], [118.16606639644243, 39.52934531270669], [118.16599446337922, 39.52718783144223], [118.17450072954814, 39.52589014400386], [118.17284335719415, 39.52185327778197], [118.17969169045638, 39.52031752973088], [118.17694258575149, 39.512931740271014], [118.17754435928157, 39.505097380411826], [118.1816976670662, 39.50365053890493], [118.18020480274009, 39.49994100738663], [118.18175302894976, 39.49428174582394], [118.19291658479094, 39.50160616448972], [118.19725039114407, 39.49993994491835], [118.20192908850768, 39.50224659461424], [118.20074571882762, 39.50532575711147], [118.21188594886182, 39.5059364948279], [118.22186032540671, 39.48555072055494], [118.22731697612925, 39.48899645258563], [118.237973867513, 39.48870617753265], [118.2405537019885, 39.494307264331425], [118.23966199276654, 39.50115767249787], [118.24146135998012, 39.503473512618], [118.25229226059065, 39.50125327918588], [118.25468887859306, 39.50963618328091], [118.26219017903337, 39.50957164887685], [118.26369603299585, 39.51648268902752], [118.27364301127545, 39.52077525551472], [118.2670533290883, 39.52997453737451], [118.26344029780397, 39.53061748189513], [118.26314890393847, 39.53418256934376], [118.25206986361832, 39.535389638286865], [118.25265135578626, 39.53306026444164], [118.23691293529845, 39.53444910694308], [118.22614664387342, 39.54017930492406], [118.22547252147965, 39.54832338872744], [118.21983233735074, 39.5507872575895], [118.21468322377717, 39.55046851287956], [118.21633927094312, 39.553080745868755], [118.22301674886594, 39.55336973326367], [118.22383455748098, 39.55805920854446], [118.22101461328518, 39.55789951192795], [118.21710166876059, 39.56189620721339], [118.22032260609701, 39.56369723067783], [118.23751003860946, 39.562397475530254], [118.24612525560616, 39.564009508642755], [118.24047136529305, 39.57527524857018], [118.2383434271573, 39.58199274388649], [118.23437911789962, 39.58861516989795], [118.23617840711177, 39.59516154180705], [118.23479628682658, 39.599128885749174], [118.2291221687072, 39.603389225513894], [118.22586518073776, 39.61102387940584], [118.22058895330295, 39.61192469114718], [118.2227710579865, 39.61826747173824], [118.22278842743188, 39.6312897445684], [118.21729306240145, 39.63234577361231], [118.21456382627214, 39.63003204640694], [118.19699805480995, 39.62240236992675], [118.17772955940164, 39.6242578629404], [118.12829076959947, 39.62420689923902], [118.1273293233432, 39.605137997527486], [118.12399895708941, 39.60466555357439], [118.12340133897598, 39.58568547012665], [118.11539776415624, 39.58099185671085]]], [[[117.77825282108758, 39.37587458774605], [117.77579460026315, 39.39366839455899], [117.73095136362709, 39.40941914408787], [117.69344759988081, 39.40650790905825], [117.69602295067311, 39.38783350275276], [117.66697474925815, 39.38563139931152], [117.6645807453045, 39.40424392518918], [117.66285772750189, 39.4109813584712], [117.6575303801894, 39.41135213766913], [117.6488139921653, 39.40873673976537], [117.65010066464414, 39.406494465135744], [117.63730402317276, 39.404854694717436], [117.63567347989232, 39.39917245085388], [117.62965301031436, 39.39752015666234], [117.62894526534538, 39.403503474473936], [117.62549891511969, 39.40333555095015], [117.6248282295762, 39.4075495076884], [117.60798896133775, 39.406137186226786], [117.60817038000886, 39.410099442658655], [117.60515630106916, 39.41205781593884], [117.60493785368563, 39.41614519662499], [117.59524091301158, 39.41852632763619], [117.59564038717103, 39.41544163056887], [117.59099000232735, 39.41406234893414], [117.58448598965512, 39.40450652947853], [117.5693391429997, 39.40322416672448], [117.5649542416185, 39.40364108817826], [117.56530043893035, 39.39935040933965], [117.56251737198605, 39.39626060821121], [117.55412664842792, 39.395494596565335], [117.55472754739237, 39.392034212447456], [117.54746281833626, 39.39156599391839], [117.5516698706895, 39.38460362967217], [117.54666287084575, 39.38156968115084], [117.53773760995568, 39.38021785626382], [117.53890365315746, 39.376930133156144], [117.53267281476376, 39.37627297423713], [117.52906613456852, 39.37297304952422], [117.53099897829647, 39.3626518396797], [117.52790062199986, 39.36135924697997], [117.52314343589543, 39.365592318631236], [117.51988185799397, 39.364533654468126], [117.5222519339152, 39.36027828322724], [117.5145423307129, 39.35615019515413], [117.52298231415124, 39.346347849325625], [117.5273564549472, 39.347927068439354], [117.52996274728498, 39.33700922530159], [117.56357937328076, 39.34165706455695], [117.58914531515741, 39.34818599310069], [117.5913809513776, 39.34414262822179], [117.60080742307969, 39.34604029355621], [117.60309558592493, 39.34221467075788], [117.61053849513493, 39.34348208653473], [117.61119289532773, 39.337148756623684], [117.62915260103944, 39.34283759637945], [117.63593407058599, 39.34339334763624], [117.6359886185111, 39.33831470609549], [117.6313833245924, 39.33502854855899], [117.63638890623777, 39.33071082235594], [117.64030622456295, 39.32176940849126], [117.644620288069, 39.321165883302974], [117.64463912402975, 39.31423630879659], [117.65761527297475, 39.31587584422835], [117.66308634575566, 39.323156014866285], [117.6647314225414, 39.356822727839734], [117.6833588037959, 39.35796169106524], [117.69990744841762, 39.35044206640317], [117.7382552578581, 39.35347162049416], [117.77825282108758, 39.37587458774605]]]]}}