{"type": "Feature", "properties": {"unit_id": "tianjin_120101", "name": "和平区", "district_codes": [120101]}, "geometry": {"type": "MultiPolygon", "coordinates": [[[[117.21622066443665, 39.11648432025507], [117.20784675743442, 39.125417146503764], [117.2069618824709, 39.13100351928306], [117.203467844033, 39.13249651495823], [117.19264517667766, 39.12944791397377], [117.187884374226, 39.13361209297328], [117.18402213469167, 39.13578583736211], [117.17481393828125, 39.13600766633668], [117.17345538226246, 39.12017970392213], [117.1729408540833, 39.10092548168243], [117.183727141637, 39.09990511643623], [117.18999718572391, 39.10128047941855], [117.2069782245141, 39.112621702986644], [117.21622066443665, 39.11648432025507]]]]}}