{"type": "Feature", "properties": {"unit_id": "tianjin_120104", "name": "南开区", "district_codes": [120104]}, "geometry": {"type": "MultiPolygon", "coordinates": [[[[117.18220765385402, 39.065897243161494], [117.17712042197745, 39.071838166756336], [117.17337828445035, 39.088280053791436], [117.1729408540833, 39.10092548168243], [117.17345538226246, 39.12017970392213], [117.17481393828125, 39.13600766633668], [117.18402213469167, 39.13578583736211], [117.187884374226, 39.13361209297328], [117.18811422166515, 39.145927088553314], [117.18268754428583, 39.14479298343031], [117.16531886994014, 39.14535727708884], [117.16546872589308, 39.140827277211294], [117.1534872542736, 39.140464809320754], [117.13770106146373, 39.14290911693984], [117.13790474607157, 39.14742269895159], [117.13033427627161, 39.145300938206844], [117.1220445889398, 39.151064507750284], [117.11998091721823, 39.14649836985369], [117.11450771880767, 39.14531986797715], [117.11568955808255, 39.14176081880195], [117.1071363031469, 39.13472241597753], [117.1033362120721, 39.133324155816254], [117.12321787949314, 39.11601179738506], [117.12533780815167, 39.113474506167705], [117.127404790671, 39.09602842085358], [117.13040942931345, 39.08996466011227], [117.11497678989434, 39.083387864888095], [117.12598077508154, 39.07872647797142], [117.15268097213281, 39.06129078476003], [117.15798508718989, 39.061982728715215], [117.16508423182563, 39.06039271143783], [117.18220765385402, 39.065897243161494]]]]}}