{"type": "Feature", "properties": {"unit_id": "tianjin_120111", "name": "西青区", "district_codes": [120111]}, "geometry": {"type": "MultiPolygon", "coordinates": [[[[117.1220445889398, 39.151064507750284], [117.11988442258249, 39.15773756968117], [117.12346905106924, 39.17071521001004], [117.11735624825793, 39.172701628555856], [117.097658444431, 39.175042765520494], [117.07918992144597, 39.172923268417954], [117.06741632284526, 39.168306208836576], [117.06816281262272, 39.1586509190309], [117.06112052749329, 39.158065801126945], [117.06037584809167, 39.16356676614303], [117.05803330430388, 39.16426837781433], [117.04161930278572, 39.158905554970474], [117.03216615713389, 39.15887713044563], [117.02572968902739, 39.15560844289771], [117.02310582128794, 39.170344034813304], [117.01945542418399, 39.16992869664809], [117.02025381050201, 39.16343924015523], [117.01659076321447, 39.16239448223786], [117.017335331112, 39.155956137153126], [117.02030972619639, 39.15421057082507], [117.00679369668157, 39.149550337198356], [117.00549412437476, 39.16077557330262], [117.00185857221483, 39.159867144735955], [116.99812715201546, 39.16966867896026], [116.98742324479468, 39.16755619712128], [116.98623413089842, 39.17045401443587], [116.96738878522014, 39.16674413255597], [116.96200543925919, 39.16750634524372], [116.96128841931733, 39.17329668537387], [116.95644566479481, 39.17621943183873], [116.95207669465985, 39.1680229571776], [116.94789510248991, 39.169495740331655], [116.94314502822569, 39.165283275762356], [116.94060010737469, 39.15847680236942], [116.9345877344589, 39.159916498825666], [116.93567172546315, 39.16243539070289], [116.92234179051717, 39.15965934323394], [116.9229921393878, 39.1553502947577], [116.9326661489899, 39.153466077059235], [116.93244909817408, 39.149821554318116], [116.9173013364587, 39.148594065982174], [116.92249353486304, 39.13450527349729], [116.917221273389, 39.13340225678785], [116.91631395007326, 39.13040568418603], [116.92025925447876, 39.11883474593515], [116.91784720061659, 39.11781525397329], [116.91344143113156, 39.10844673358829], [116.90526356678842, 39.11025546456128], [116.90371766309299, 39.10228153427149], [116.90021774872754, 39.10231557910705], [116.89606678014664, 39.090197391569916], [116.89088135481443, 39.090895177915726], [116.88837003479703, 39.08354742825832], [116.88481214030088, 39.08407388972333], [116.88077933929165, 39.076502449172686], [116.87698895692758, 39.07716359052528], [116.87564472420073, 39.0709400767074], [116.89236328980124, 39.06590517254614], [116.89135979461581, 39.06200016691954], [116.88094455138102, 39.058634596767206], [116.88317208669125, 39.054306038669544], [116.89518752168802, 39.060569399767964], [116.89917867328485, 39.05666555845138], [116.9028412396391, 39.0604173292419], [116.91582013215096, 39.059355494362414], [116.92884472327071, 39.05366490489502], [116.93504886457775, 39.04932519902988], [116.9396919046867, 39.05625858647655], [116.94307668318652, 39.0534903952943], [116.95644693992502, 39.04995006408347], [116.9546477127014, 39.04587764633441], [116.96242675211468, 39.044666062775214], [116.964347258009, 39.03800936418961], [116.98416869573619, 39.0357541057587], [117.00963294255521, 39.02934930841163], [117.03195340278288, 39.02019342106626], [117.02709967996843, 39.014593900438], [117.03425344563752, 39.01172465897798], [117.03131926122772, 39.00946369378066], [117.02907589575237, 38.996397701361936], [117.05082659122874, 38.99482662666573], [117.05165133717693, 38.99982589284307], [117.05672638907117, 39.003962637268685], [117.07223394805065, 38.992898158011855], [117.10224304947634, 38.98073056407848], [117.11611813948034, 38.97395894649692], [117.13056081291887, 38.96255207794932], [117.15237044395859, 38.93517426352738], [117.16172927982963, 38.92422447038457], [117.17267956104784, 38.90941356666281], [117.18767020156712, 38.89394114169908], [117.24256242701135, 38.850902832861735], [117.25264643377078, 38.84654191843561], [117.2979211683366, 38.83256028791634], [117.30657487035863, 38.83020216348175], [117.32056210653005, 38.822836474513224], [117.32512430592227, 38.82378626943639], [117.32960530584126, 38.827832523166315], [117.32378334616931, 38.82928091138156], [117.32493381971784, 38.83182734720935], [117.32100723104476, 38.83583768348948], [117.33285241396649, 38.842606348023985], [117.32975120310923, 38.84911173271189], [117.33810393522677, 38.85082289410777], [117.3357332454491, 38.860079254557675], [117.33150991521669, 38.860121283134696], [117.33107563137533, 38.86398696141427], [117.33467764274913, 38.864082029541976], [117.32964007689259, 38.86831529094786], [117.3276088237345, 38.87553412251673], [117.32339868596738, 38.874567734267984], [117.32225980648994, 38.88284421186887], [117.3179273763169, 38.88616851701647], [117.30169336620145, 38.88506907320584], [117.26325849816595, 38.919001281435584], [117.2662275922624, 38.92287829588603], [117.2550376747238, 38.928434725020985], [117.25978405927806, 38.942439955731246], [117.2392239213203, 38.95210622342134], [117.24032381389078, 38.95311401686441], [117.25412545189957, 38.951185323139605], [117.26264268806091, 38.96270949541786], [117.26368707548737, 38.96656762148188], [117.26749618721296, 38.96936462605261], [117.26230287057851, 38.97208198097502], [117.26723748199892, 38.977610786754305], [117.27602340239342, 38.97191907642904], [117.27844979303447, 38.967990022041654], [117.27962723507763, 38.979784600351614], [117.28608994823047, 38.987339360156625], [117.28350164968556, 38.99072149829668], [117.2877278436919, 38.993190652732814], [117.28224048328792, 38.995297187293865], [117.28879808368947, 38.997234744183174], [117.28490848511143, 39.00189793065582], [117.27668397158817, 38.9984772171289], [117.2713289103803, 39.001708043272544], [117.2682096719458, 39.01392688032315], [117.26034386289895, 39.01961274990987], [117.25619361404104, 39.01801112276901], [117.2506438653077, 39.01983683846809], [117.25293635611598, 39.0218154135952], [117.25898709264392, 39.0197671788367], [117.2566673696968, 39.0250226766947], [117.25745278291849, 39.0326637372844], [117.26101983485933, 39.03851380671243], [117.24564771512023, 39.03605959300661], [117.22830969234481, 39.032435782423555], [117.21144684871534, 39.0333555345533], [117.21143007559645, 39.05525399768618], [117.2048913628368, 39.05717174548089], [117.20785511420179, 39.05920473642866], [117.19757470468748, 39.07071505979305], [117.18220765385402, 39.065897243161494], [117.16508423182563, 39.06039271143783], [117.15798508718989, 39.061982728715215], [117.15268097213281, 39.06129078476003], [117.12598077508154, 39.07872647797142], [117.11497678989434, 39.083387864888095], [117.13040942931345, 39.08996466011227], [117.127404790671, 39.09602842085358], [117.12533780815167, 39.113474506167705], [117.12321787949314, 39.11601179738506], [117.1033362120721, 39.133324155816254], [117.1071363031469, 39.13472241597753], [117.11568955808255, 39.14176081880195], [117.11450771880767, 39.14531986797715], [117.11998091721823, 39.14649836985369], [117.1220445889398, 39.151064507750284]]]]}}