{"type": "Feature", "properties": {"unit_id": "tianjin_120118", "name": "静海区", "district_codes": [120118]}, "geometry": {"type": "MultiPolygon", "coordinates": [[[[117.25264643377078, 38.84654191843561], [117.24256242701135, 38.850902832861735], [117.18767020156712, 38.89394114169908], [117.17267956104784, 38.90941356666281], [117.16172927982963, 38.92422447038457], [117.15237044395859, 38.93517426352738], [117.13056081291887, 38.96255207794932], [117.11611813948034, 38.97395894649692], [117.10224304947634, 38.98073056407848], [117.07223394805065, 38.992898158011855], [117.05672638907117, 39.003962637268685], [117.05165133717693, 38.99982589284307], [117.05082659122874, 38.99482662666573], [117.02907589575237, 38.996397701361936], [117.03131926122772, 39.00946369378066], [117.03425344563752, 39.01172465897798], [117.02709967996843, 39.014593900438], [117.03195340278288, 39.02019342106626], [117.00963294255521, 39.02934930841163], [116.98416869573619, 39.0357541057587], [116.964347258009, 39.03800936418961], [116.96242675211468, 39.044666062775214], [116.9546477127014, 39.04587764633441], [116.95644693992502, 39.04995006408347], [116.94307668318652, 39.0534903952943], [116.9396919046867, 39.05625858647655], [116.93504886457775, 39.04932519902988], [116.92884472327071, 39.05366490489502], [116.91582013215096, 39.059355494362414], [116.9028412396391, 39.0604173292419], [116.89917867328485, 39.05666555845138], [116.89518752168802, 39.060569399767964], [116.88317208669125, 39.054306038669544], [116.88094455138102, 39.058634596767206], [116.89135979461581, 39.06200016691954], [116.89236328980124, 39.06590517254614], [116.87564472420073, 39.0709400767074], [116.87197656337504, 39.071805565921174], [116.86403940955965, 39.069119187616465], [116.86788693371527, 39.059764048613346], [116.86408168657476, 39.05883758330503], [116.86580831857619, 39.0538949676736], [116.8544572260995, 39.05273595132396], [116.8545937864394, 39.04976900056111], [116.83626273213537, 39.048560725634694], [116.82557173506714, 39.04867667831676], [116.81606442598678, 39.04589679035113], [116.81305851457094, 39.05006879517456], [116.79672696086953, 39.05000769603656], [116.79111295226545, 39.05351245565803], [116.78182990487358, 39.051762010949105], [116.77737342033099, 39.049267928807026], [116.77904408141742, 39.05477718929936], [116.79017454938771, 39.055421005093116], [116.79122038387857, 39.059344006660254], [116.78135334536442, 39.06100278864707], [116.78083718999959, 39.058410827300996], [116.77562014886963, 39.05753618605981], [116.77540360716966, 39.05252308181481], [116.7728635022769, 39.04849638446303], [116.76885643158407, 39.04949877433552], [116.76703720865426, 39.04595079052885], [116.75476331683156, 39.04962976760966], [116.75063778374819, 39.04937359380069], [116.74576788974063, 39.038033027237695], [116.74574144575993, 39.033580777489604], [116.75338199534839, 39.03071524973598], [116.75311134442939, 39.02027465433794], [116.74898635213907, 39.018209851573445], [116.75035740763836, 39.01217051932624], [116.74863545720949, 39.00232463626482], [116.74642374016682, 39.00256374514433], [116.74455317100278, 38.993109897373365], [116.73949379708951, 38.99051711729722], [116.7344095984939, 38.9799541605478], [116.72937924087555, 38.979735782707245], [116.72894619294547, 38.976987797054065], [116.72267039229432, 38.97448399210167], [116.71943219554186, 38.96559281641855], [116.71711553174543, 38.96573138953278], [116.7166965462483, 38.95567495829611], [116.71244373550734, 38.94213742321781], [116.71031773384297, 38.93812667914438], [116.70428932256421, 38.938203389756794], [116.70410061187563, 38.931114892175884], [116.70224503229798, 38.93103281996401], [116.70214142960636, 38.8962273498795], [116.71641919953933, 38.8962413796729], [116.71720998802586, 38.851738524575325], [116.74008004738255, 38.8506428095061], [116.73713899416795, 38.83412110820606], [116.73781767540177, 38.83076757221432], [116.74525022122396, 38.83047419413012], [116.74313562422343, 38.823631345698146], [116.74030005151573, 38.82383818445742], [116.73931093864455, 38.81595073933801], [116.73254574742806, 38.80626847933532], [116.73807854204522, 38.80453721349635], [116.7348248731626, 38.79844605356128], [116.74015430123104, 38.79780975987076], [116.73982894827533, 38.794968331914546], [116.73548945808743, 38.79543320104362], [116.7314089282851, 38.78370968711536], [116.73683340809372, 38.783244588596716], [116.73638628017207, 38.78006039847431], [116.74536524967287, 38.77942343133471], [116.74108071779867, 38.762113018655235], [116.74036340087494, 38.75348236782576], [116.75299436150169, 38.75411421183105], [116.75686294607003, 38.74978187525212], [116.76040673408941, 38.7411839188743], [116.76908347945722, 38.74204511512607], [116.77292762663329, 38.73987199865719], [116.77857954495187, 38.73977420140221], [116.77810442595596, 38.73759871637936], [116.78529188035102, 38.73931885348545], [116.7852912831253, 38.744321563227004], [116.7906192356622, 38.74595565382328], [116.80701671494616, 38.74361706343005], [116.85329844853838, 38.74068591390188], [116.85453489709165, 38.744353230205185], [116.86164475755005, 38.74527164786642], [116.8643379931296, 38.72929267566198], [116.86068389507564, 38.71640114898839], [116.86704472231652, 38.71555330267875], [116.86936959154241, 38.71204373864413], [116.86610834847241, 38.70129311860113], [116.86971121668522, 38.692589269161], [116.8698075403805, 38.68211458453815], [116.87150640471091, 38.680127382032666], [116.8902918890883, 38.67973116086174], [116.89751262188936, 38.68136287714897], [116.90458136474241, 38.68501458218837], [116.91543078687255, 38.686364967537415], [116.91193306638185, 38.67906274842196], [116.92151720865047, 38.67950208125534], [116.92100221941354, 38.68687561328809], [116.92501318678083, 38.68519143729764], [116.93974988941761, 38.68529124260897], [116.9413599960181, 38.689025993665325], [116.94531251346825, 38.68898481881221], [116.98842741455145, 38.695011675914586], [116.9868188905882, 38.69157086560096], [116.99687455909273, 38.689689368273335], [117.0083494283754, 38.68917477454147], [117.00961952955849, 38.69962768452157], [117.0360765236381, 38.70563799963775], [117.0390245687979, 38.704911008058545], [117.03541465039933, 38.70075471373489], [117.03306162708651, 38.69359570176543], [117.0328462048104, 38.68763067503493], [117.03913479775022, 38.69169519645866], [117.0383514791788, 38.685370652155136], [117.04660311464839, 38.68584928366097], [117.04807848302553, 38.68339406811877], [117.05707872810652, 38.682072824383226], [117.05695739203385, 38.67955303555237], [117.06184386010167, 38.679750597510534], [117.0556848618706, 38.67350272121222], [117.04977366420941, 38.65332790849092], [117.05004493115695, 38.644115635820654], [117.04545836317517, 38.64265000745516], [117.0493150028324, 38.63840414487348], [117.0544718614989, 38.63823988543117], [117.0542150580368, 38.63484254033501], [117.05796407302503, 38.634835637802574], [117.06377482383922, 38.61588128682079], [117.0652383412767, 38.60650801747881], [117.07999331420726, 38.605478341450564], [117.08088869474238, 38.59897158235054], [117.09051516107361, 38.59951494896124], [117.09071856710479, 38.59462232264231], [117.08665026823401, 38.59354240347237], [117.09111277634736, 38.5898145816133], [117.0918455483605, 38.586003437523146], [117.10348670333644, 38.58397659461895], [117.1031202809392, 38.58821732324128], [117.11317885245842, 38.588771298320296], [117.11529643859143, 38.596807356161506], [117.11824334990526, 38.599041910578386], [117.13007728885545, 38.59785126683788], [117.13191152797003, 38.603055976494225], [117.14123568246855, 38.60576313282818], [117.14449802788106, 38.60846335138132], [117.14478240222161, 38.61685716448714], [117.15009824931076, 38.620349766132364], [117.15128038312487, 38.626752678847545], [117.15011083015162, 38.631880976519234], [117.1566909921901, 38.647538999988356], [117.15602263178945, 38.657109351034286], [117.15077365929267, 38.65790592170723], [117.15432238393548, 38.6596444146912], [117.1547705043004, 38.664825270807626], [117.15241797440756, 38.669159528192715], [117.14752185603832, 38.67067769034734], [117.14748115081602, 38.67580464800305], [117.14167560416354, 38.67524666924611], [117.14100898906581, 38.68073251760078], [117.143510514817, 38.68092527922777], [117.14197256502217, 38.68687254077974], [117.14303259145264, 38.69074861229817], [117.14821360312021, 38.68936848842994], [117.15237339507495, 38.6971753471458], [117.15271200533087, 38.70482075301941], [117.15147376771246, 38.71419263840138], [117.15415145472225, 38.72867694260756], [117.17074336400032, 38.7303865711266], [117.17048462572971, 38.73240718156609], [117.15387876442553, 38.7304756635915], [117.1496503380999, 38.72575650299356], [117.14011882147483, 38.72815729864719], [117.13999616065084, 38.73209735844381], [117.13533287769775, 38.73481450440958], [117.13079409156293, 38.73278753103548], [117.130657016386, 38.7402219973419], [117.12836073652296, 38.74057909964732], [117.14773021637964, 38.75018221468624], [117.14870771004242, 38.75855889572962], [117.15554825154537, 38.757440197839], [117.15807799608186, 38.75497887771489], [117.18737318637139, 38.7698968701811], [117.20965706162043, 38.78222532460983], [117.20735883894818, 38.78446504215696], [117.18891977519455, 38.79506513113434], [117.19851959439005, 38.80434161894874], [117.19045473341127, 38.80879478452735], [117.2012368670514, 38.81942105781252], [117.2169106357102, 38.81078387881775], [117.24100365108595, 38.833985581310934], [117.2501502846141, 38.8423004173332], [117.25264643377078, 38.84654191843561]]]]}}