{"type": "Feature", "properties": {"unit_id": "tianjin_120102", "name": "河东区", "district_codes": [120102]}, "geometry": {"type": "MultiPolygon", "coordinates": [[[[117.25434432183663, 39.15799395160306], [117.24244304097904, 39.15738085553278], [117.24365199017906, 39.148543426401005], [117.22326782416037, 39.14882023570635], [117.21464056234572, 39.14378792946925], [117.2089169879962, 39.15037059248258], [117.2073543928398, 39.146928484564825], [117.20009434044405, 39.1443122082531], [117.19719939940097, 39.1396403755681], [117.20481348296566, 39.1346452165729], [117.203467844033, 39.13249651495823], [117.2069618824709, 39.13100351928306], [117.20784675743442, 39.125417146503764], [117.21622066443665, 39.11648432025507], [117.22412967652934, 39.10735913266422], [117.23507810022728, 39.09763706245216], [117.23875882379221, 39.08828252508839], [117.24228914057063, 39.08524957208272], [117.25387946229728, 39.07994941704848], [117.2607020743134, 39.07883907182616], [117.26159649760989, 39.08432730137419], [117.26604388885553, 39.08955768900196], [117.27255204275383, 39.08962086264151], [117.27364983998754, 39.08590419302883], [117.27978953948579, 39.086170964015956], [117.27996597660234, 39.08811457770342], [117.29186227741636, 39.08547411175921], [117.29377252785957, 39.08110801428867], [117.2956137505543, 39.0852636931597], [117.29847205086622, 39.084560676544804], [117.30057044705579, 39.08835796445964], [117.30330414305233, 39.099925336536884], [117.26952618159692, 39.107074584060385], [117.26358522172772, 39.12537623742065], [117.2654696902405, 39.128322386970936], [117.28033991189896, 39.13072817228312], [117.27364221867124, 39.14633644546517], [117.2870854031762, 39.14959068411757], [117.28399479505207, 39.15611668005197], [117.27053684005077, 39.161970699034406], [117.25434432183663, 39.15799395160306]]]]}}