{"type": "Feature", "properties": {"unit_id": "tianjin_120105", "name": "河北区", "district_codes": [120105]}, "geometry": {"type": "MultiPolygon", "coordinates": [[[[117.2272019826044, 39.192015197800096], [117.21769261389916, 39.18392168914153], [117.21565460230839, 39.183646503458654], [117.20982308986281, 39.19022629174821], [117.2044667590875, 39.19185277946723], [117.19093821026213, 39.18502288541563], [117.18557897856702, 39.190834010959], [117.1822601254561, 39.18912596965302], [117.165408963001, 39.18517985368747], [117.16116542677703, 39.182857379767654], [117.16671502660205, 39.18029714194664], [117.1712985914887, 39.18083340446217], [117.17369484502906, 39.16730386462978], [117.16976384820211, 39.16390850710742], [117.17081120229713, 39.16094822764397], [117.18014365995145, 39.15401878120052], [117.18811422166515, 39.145927088553314], [117.187884374226, 39.13361209297328], [117.19264517667766, 39.12944791397377], [117.203467844033, 39.13249651495823], [117.20481348296566, 39.1346452165729], [117.19719939940097, 39.1396403755681], [117.20009434044405, 39.1443122082531], [117.2073543928398, 39.146928484564825], [117.2089169879962, 39.15037059248258], [117.21464056234572, 39.14378792946925], [117.22326782416037, 39.14882023570635], [117.24365199017906, 39.148543426401005], [117.24244304097904, 39.15738085553278], [117.25434432183663, 39.15799395160306], [117.25424830714732, 39.166541892766176], [117.25237517212423, 39.16894274856719], [117.24542728346754, 39.167086710281346], [117.24450413879303, 39.16989589335617], [117.23467491811091, 39.16973835542693], [117.24368933877507, 39.177436286640386], [117.2272019826044, 39.192015197800096]]]]}}