{"type": "Feature", "properties": {"unit_id": "tianjin_core", "name": "主城区", "district_codes": [120101, 120102, 120103, 120104, 120105, 120106]}, "geometry": {"type": "MultiPolygon", "coordinates": [[[[117.28613261831799, 39.07644743634712], [117.27969681044051, 39.06950032536117], [117.28216456814862, 39.059232887428394], [117.2767982828889, 39.0580284086438], [117.2805257646933, 39.05006140835583], [117.27416981212232, 39.04797010753035], [117.27175688769472, 39.0525933359192], [117.2614250628801, 39.04941090033051], [117.26619970623581, 39.0418360022801], [117.26023237240823, 39.04028704454236], [117.26101983485933, 39.03851380671243], [117.24564771512023, 39.03605959300661], [117.22830969234481, 39.032435782423555], [117.21144684871534, 39.0333555345533], [117.21143007559645, 39.05525399768618], [117.2048913628368, 39.05717174548089], [117.20785511420179, 39.05920473642866], [117.19757470468748, 39.07071505979305], [117.18220765385402, 39.065897243161494], [117.16508423182563, 39.06039271143783], [117.15798508718989, 39.061982728715215], [117.15268097213281, 39.06129078476003], [117.12598077508154, 39.07872647797142], [117.11497678989434, 39.083387864888095], [117.13040942931345, 39.08996466011227], [117.127404790671, 39.09602842085358], [117.12533780815167, 39.113474506167705], [117.12321787949314, 39.11601179738506], [117.1033362120721, 39.133324155816254], [117.1071363031469, 39.13472241597753], [117.11568955808255, 39.14176081880195], [117.11450771880767, 39.14531986797715], [117.11998091721823, 39.14649836985369], [117.1220445889398, 39.151064507750284], [117.11988442258249, 39.15773756968117], [117.12346905106924, 39.17071521001004], [117.12470408268285, 39.17767836262673], [117.12788293581806, 39.18416701923702], [117.13534310696343, 39.1899469964026], [117.14215433611149, 39.187931036627425], [117.15289602604663, 39.189190913637844], [117.16116542677703, 39.182857379767654], [117.165408963001, 39.18517985368747], [117.1822601254561, 39.18912596965302], [117.18557897856702, 39.190834010959], [117.19093821026213, 39.18502288541563], [117.2044667590875, 39.19185277946723], [117.20982308986281, 39.19022629174821], [117.21565460230839, 39.183646503458654], [117.21769261389916, 39.18392168914153], [117.2272019826044, 39.192015197800096], [117.24368933877507, 39.177436286640386], [117.23467491811091, 39.16973835542693], [117.24450413879303, 39.16989589335617], [117.24542728346754, 39.167086710281346], [117.25237517212423, 39.16894274856719], [117.25424830714732, 39.166541892766176], [117.25434432183663, 39.15799395160306], [117.27053684005077, 39.161970699034406], [117.28399479505207, 39.15611668005197], [117.2870854031762, 39.14959068411757], [117.27364221867124, 39.14633644546517], [117.28033991189896, 39.13072817228312], [117.2654696902405, 39.128322386970936], [117.26358522172772, 39.12537623742065], [117.26952618159692, 39.107074584060385], [117.30330414305233, 39.099925336536884], [117.30057044705579, 39.08835796445964], [117.29847205086622, 39.084560676544804], [117.2956137505543, 39.0852636931597], [117.29377252785957, 39.08110801428867], [117.29186227741636, 39.08547411175921], [117.27996597660234, 39.08811457770342], [117.27978953948579, 39.086170964015956], [117.27364983998754, 39.08590419302883], [117.27255204275383, 39.08962086264151], [117.26604388885553, 39.08955768900196], [117.26159649760989, 39.08432730137419], [117.2607020743134, 39.07883907182616], [117.28613261831799, 39.07644743634712]]], [[[117.1191726554658, 39.199680358027535], [117.12559763913109, 39.202256008017265], [117.1347855958405, 39.19654941246889], [117.13435066389926, 39.19203844415924], [117.1239280825878, 39.188674139216296], [117.11951259887246, 39.19374108064163], [117.12213408097678, 39.19445902462392], [117.1191726554658, 39.199680358027535]]]]}}