{"type": "Feature", "properties": {"unit_id": "tianjin_120119", "name": "蓟州区", "district_codes": [120119]}, "geometry": {"type": "MultiPolygon", "coordinates": [[[[117.53285535107119, 39.759299801009035], [117.53984125194374, 39.76254367448745], [117.54410408037981, 39.761843537543704], [117.54858157203395, 39.770314322178145], [117.53985368140411, 39.77502246282985], [117.54234458211924, 39.779907791906616], [117.54685112720934, 39.78339643873019], [117.54860641355661, 39.78762075596838], [117.54838796382548, 39.79427172478545], [117.55414594298597, 39.79391214937634], [117.56201023154607, 39.798162307271014], [117.55519284585787, 39.79894366659685], [117.55216986712274, 39.81041604124409], [117.54255766323733, 39.822950772147216], [117.53454996933783, 39.82078870922988], [117.53095231821739, 39.83400758276713], [117.5380346886319, 39.83188353312197], [117.5367951031026, 39.83702617586616], [117.54181941473874, 39.83879201198409], [117.54226802968435, 39.84441068678855], [117.53944915151855, 39.84690096069702], [117.53842842489011, 39.843457733703396], [117.53085469478285, 39.85168722021735], [117.527803366963, 39.85080120169974], [117.52345588665675, 39.859813826984], [117.51465229466095, 39.87017622938752], [117.51241429231456, 39.89008268952065], [117.51042426745822, 39.893953652444345], [117.50365163075938, 39.89258458134853], [117.50074714718183, 39.90292640825752], [117.49747653973851, 39.903623582434676], [117.50099244319014, 39.90781392325608], [117.50794331321535, 39.905610772354386], [117.50632064017775, 39.90929678209775], [117.50720520762131, 39.91545014526854], [117.49821092033473, 39.91444630095939], [117.49702495164668, 39.917745608837215], [117.50796849031317, 39.920221208000996], [117.51557228269202, 39.91943556473018], [117.51566709082391, 39.92359766201327], [117.51912725208516, 39.92842638883797], [117.5060455455348, 39.93244797404042], [117.50470845912005, 39.93983968114087], [117.50853733930495, 39.94546084861542], [117.51321079828826, 39.94722654197188], [117.51793965434885, 39.94545429952784], [117.52090978358899, 39.95117350061031], [117.526563954867, 39.9513241173002], [117.52807503024444, 39.96042281449637], [117.52994145121707, 39.96037676725109], [117.53261024253123, 39.96961232653601], [117.541026273048, 39.97571069278819], [117.53997647059033, 39.980288044062135], [117.53136757385167, 39.98881932219911], [117.53114886920208, 39.996224436225624], [117.53798658173707, 39.993312741206694], [117.54075056107922, 39.99779711666331], [117.55675932844088, 39.99456430105921], [117.55586156963746, 39.991768815422695], [117.56039311009633, 39.98989167640013], [117.56435171753063, 39.9940216175752], [117.56954697684262, 39.99534159290192], [117.57267427915049, 39.992769376725725], [117.57841094623151, 39.993061982195336], [117.58301843967942, 39.995791312477984], [117.58630644208036, 39.99360528366399], [117.59342434798775, 39.992681720719744], [117.59681992049738, 39.9866893227779], [117.60470698995488, 39.98155340076057], [117.60911821913051, 39.981467617130825], [117.6094035527148, 39.97771362998677], [117.60521078347087, 39.97421254180423], [117.61378677771296, 39.96959535370882], [117.62565381871896, 39.96763072335114], [117.63180766468085, 39.9711431335915], [117.65122703327427, 39.97104503138733], [117.656929539206, 39.973627694607174], [117.66841588734904, 39.97365707647556], [117.67575760173361, 39.97869378773953], [117.67931966453706, 39.97831701165829], [117.6826377362347, 39.98283956197595], [117.68933016184215, 39.984561168349174], [117.70030454153374, 39.98481133504637], [117.70487165839674, 39.983626237839324], [117.71303266105231, 39.978664933913066], [117.71754771686349, 39.97872634809557], [117.72130440143984, 39.971196482076195], [117.72750380346635, 39.969876637381425], [117.73519580611082, 39.97209405973735], [117.74568899068157, 39.9648323446507], [117.7500209891796, 39.96392293106585], [117.75712348745753, 39.97146742144153], [117.76265441857367, 39.967983498510606], [117.76573943985174, 39.96894502780416], [117.77549987488422, 39.96511337172584], [117.78082980564884, 39.97224135604484], [117.78027079322709, 39.980035437263155], [117.78512514972073, 39.99251540022071], [117.79008991605465, 39.99545059614725], [117.78656543631682, 40.00440064120023], [117.79068642690896, 40.00891580108064], [117.78536716029879, 40.011231859041175], [117.78555712367005, 40.01434494483751], [117.77951865973476, 40.01667703477325], [117.77775102403189, 40.01406738026192], [117.77603617950732, 40.02227736156367], [117.76392448937966, 40.02230171972986], [117.76093530462268, 40.017690614623824], [117.75422442227796, 40.01940476537141], [117.75145349457527, 40.016880650469616], [117.75202440352548, 40.01173091590227], [117.74940383494564, 40.00914002374162], [117.73771392685288, 40.01718675707315], [117.73835048764774, 40.02667599659996], [117.7373053578637, 40.030024330667715], [117.74048115537542, 40.03318577074216], [117.74147029021897, 40.046204718647665], [117.75185718657582, 40.043091341204516], [117.7606872506627, 40.046743031927754], [117.76654356427657, 40.05053067161729], [117.76972346923357, 40.05768032453494], [117.76281836060492, 40.06043413405822], [117.76137745541811, 40.06482224455171], [117.75175928503248, 40.06470208605095], [117.74786174899067, 40.067409034355684], [117.74695196763417, 40.07206684751201], [117.75201641832918, 40.07203263506977], [117.74913660735649, 40.07828722493231], [117.74519861959193, 40.080741570916004], [117.73812683778472, 40.07736518489528], [117.72743481424901, 40.07614534416387], [117.72409830491434, 40.07930915666303], [117.71558201157983, 40.078662551189225], [117.70534654904928, 40.08462716255627], [117.70148318542377, 40.092785549720475], [117.69755369745232, 40.09102708518415], [117.69008824204634, 40.093728829291265], [117.68456109091493, 40.09299997825879], [117.6818934170514, 40.081675773547346], [117.67298004426331, 40.08449955778768], [117.66857850373019, 40.080978246555716], [117.6682110264285, 40.09099724131528], [117.66178936681173, 40.09978277989761], [117.65738769213031, 40.095303307105056], [117.65450181375626, 40.09630048298343], [117.65150876642538, 40.09161615818128], [117.64331236857828, 40.09016806188656], [117.63860936292923, 40.0950999763821], [117.6420378179377, 40.09749753966961], [117.64397428517009, 40.104132934004696], [117.65126313796479, 40.10803631712878], [117.64685991904038, 40.1096397375605], [117.64223682650088, 40.12528990180959], [117.64387648462036, 40.12706812124562], [117.62975402154467, 40.13100208060309], [117.63068902320715, 40.13575444738138], [117.62607898580502, 40.139690587692115], [117.62424740194254, 40.14674587013771], [117.61528285038638, 40.14547812027752], [117.61221653848435, 40.15024970347728], [117.61235163114715, 40.156529932675284], [117.6068965839174, 40.156700730200896], [117.60373430095844, 40.159001542987646], [117.594948833052, 40.17013396536488], [117.58238465266615, 40.16722440633335], [117.57785827962995, 40.17067948359558], [117.57341251118412, 40.17686938206194], [117.5701353270565, 40.17750354856915], [117.56689721883451, 40.188929885800185], [117.56927616010884, 40.19079573631763], [117.56597087022261, 40.193811940864244], [117.56655525088864, 40.19921598427455], [117.56297782019364, 40.20305325457438], [117.55769823796992, 40.20411850174282], [117.55817357148392, 40.20989145471085], [117.56289437977013, 40.21278465873147], [117.5653695595439, 40.218139460581305], [117.56320650283239, 40.224343282223465], [117.55796774305696, 40.22792420869509], [117.54815489195873, 40.228542355622395], [117.54457398327412, 40.22689092698989], [117.54028451747811, 40.23176231390275], [117.52072368650127, 40.22777001924536], [117.51758905875337, 40.22841499849754], [117.50785956730535, 40.226473870763975], [117.49851071134913, 40.22594302859693], [117.49267688554832, 40.229665985228166], [117.48242938232856, 40.231212727147664], [117.47749727704876, 40.233966301500665], [117.47451197006563, 40.240380933852364], [117.46749756389146, 40.2397414520723], [117.46623021243465, 40.24181784521968], [117.45479160870606, 40.24695579672328], [117.45193404274815, 40.24678170578952], [117.44360459810191, 40.25105772746959], [117.43215221253799, 40.251559836256035], [117.42747631292467, 40.24667507541056], [117.4232627133989, 40.24509407141352], [117.42002852532926, 40.24663402530614], [117.40943407512312, 40.247467115473434], [117.40593153793232, 40.2420663131158], [117.40864859957817, 40.235410065988994], [117.4048466841771, 40.23415158207036], [117.39864511857505, 40.22873373138036], [117.3962978999361, 40.23197169832791], [117.39084370945348, 40.233718497564816], [117.38331793167853, 40.226527593220794], [117.38702136511708, 40.22021795272533], [117.37091691469362, 40.21718069365285], [117.3717584871993, 40.208874964044846], [117.37899671444426, 40.20645154009476], [117.38645349177767, 40.20194813166512], [117.3767609504272, 40.20091657048281], [117.37566244484178, 40.203132399651466], [117.37288499792116, 40.19749730713975], [117.37486411487484, 40.19336665621236], [117.37769642997934, 40.19383362766959], [117.37741288824803, 40.18639992404751], [117.38165556395575, 40.1868149141213], [117.39101232982568, 40.19147395734618], [117.40098504807582, 40.18605087387644], [117.39804081758498, 40.18178782524077], [117.39452683417474, 40.18217472840166], [117.3849247929176, 40.17617069590778], [117.38649832519904, 40.17346692800785], [117.37391817419073, 40.175476062897964], [117.37454170402103, 40.17102691546126], [117.37035372721532, 40.17489335337488], [117.36536763514482, 40.17511787703949], [117.36218495603646, 40.171579860987414], [117.35737545560886, 40.17528076350925], [117.35623877688523, 40.17075013856265], [117.3471245453092, 40.172293443247675], [117.3445117557573, 40.17028338165347], [117.35071452105467, 40.16286828401846], [117.35399229211463, 40.15557657027202], [117.34511100054412, 40.14917669191234], [117.34865792670296, 40.14720558270637], [117.34391996615308, 40.14343545115314], [117.3502702505205, 40.14365914344958], [117.34972919570855, 40.139528498649696], [117.34478729860035, 40.13854636891773], [117.34247199685316, 40.13514092857132], [117.3240610235559, 40.1323541446623], [117.32438582493123, 40.134419324787075], [117.31674969919092, 40.13938931143024], [117.31205198077879, 40.13719720057475], [117.30725870797983, 40.138650625783505], [117.30112498704194, 40.135671348067994], [117.29652177701648, 40.124641730471474], [117.29060406214369, 40.11998087402395], [117.29064429126733, 40.11757802743763], [117.2789794304409, 40.120062243893], [117.2690042561368, 40.112207867551824], [117.27023808318053, 40.10805628676282], [117.26794768514723, 40.104546240211064], [117.2635129047717, 40.10594383187633], [117.26042047983327, 40.11091888686106], [117.25399048794465, 40.112903618211234], [117.24913326957618, 40.112030090007025], [117.24286261084143, 40.11523901257832], [117.23896618893583, 40.11197804185148], [117.23182481411786, 40.110495431562114], [117.2295972911022, 40.10713316760124], [117.22261551278113, 40.10220363293283], [117.22220861362453, 40.0989934860754], [117.21798310602244, 40.09729119905308], [117.2180236625377, 40.093358538135305], [117.20483956733298, 40.09532429741595], [117.20460900804018, 40.08949238596864], [117.20870132941158, 40.08381661468967], [117.20335933024153, 40.08095112381213], [117.20660929349822, 40.078131073803114], [117.20870283357648, 40.07240137937886], [117.2133248052097, 40.069851603132015], [117.21650583233044, 40.06538270613703], [117.21146350813092, 40.063123649148714], [117.20288580065771, 40.06450747106646], [117.19610030584938, 40.06367277183148], [117.18591436639036, 40.06496706944765], [117.18557537899936, 40.060173749214414], [117.17760431258255, 40.061252056023214], [117.17530640206226, 40.05768298046325], [117.17693930953051, 40.051698373390266], [117.182258049129, 40.04646150362166], [117.18035425605184, 40.04055432014319], [117.18186532390376, 40.03123758216449], [117.18134924040814, 40.0245399649114], [117.18764740740708, 40.020261576095855], [117.18677746612464, 40.0154642504689], [117.191239221115, 40.00929638684924], [117.18930869907494, 40.002645317621976], [117.19169035392878, 39.99143894665146], [117.18445620886513, 39.98516439779305], [117.18470127163505, 39.98051803426168], [117.18166904052451, 39.977481628034035], [117.1721611816368, 39.9759489939527], [117.1732097266004, 39.96426543209015], [117.16947043926955, 39.957774686943644], [117.16593320321475, 39.9617259245784], [117.15838521406135, 39.96177907102208], [117.15992303458607, 39.954018166468025], [117.15803304073599, 39.95071288098932], [117.15214389780076, 39.949405555579304], [117.144530442944, 39.94348119093727], [117.14043719077026, 39.94588380129329], [117.15036459810497, 39.93666803290564], [117.14854313283858, 39.93277313760291], [117.14421814118683, 39.93465305629917], [117.13988229784654, 39.93174855242639], [117.14336342944432, 39.92285820583622], [117.13089892871857, 39.920245823961366], [117.13019246654514, 39.91823904622494], [117.1359961286812, 39.917404602855456], [117.13825396675499, 39.91017809278946], [117.15233972116746, 39.90784062515521], [117.15108922260397, 39.90322068703275], [117.14406039663412, 39.900681263525954], [117.14261903536762, 39.89489728587887], [117.15192063515296, 39.88794982044456], [117.14565406242006, 39.87608698119668], [117.14717667889136, 39.87425154348628], [117.15126993407068, 39.87737722951746], [117.15637002381106, 39.875228240586516], [117.15816573078978, 39.87145465153579], [117.16168813106617, 39.87168004213518], [117.16405394045151, 39.876169167459544], [117.16737377910444, 39.87172456947821], [117.1603692419925, 39.86759684824949], [117.16196046840501, 39.86533988066135], [117.1691289290604, 39.86550518221594], [117.17139972531986, 39.86955621786406], [117.17459704680424, 39.867893296716964], [117.17365877432876, 39.8639447542701], [117.17930334944423, 39.86511921684966], [117.18595427165462, 39.86081461139823], [117.19271421269356, 39.861011466266255], [117.20522418523682, 39.858248538289835], [117.20680078171341, 39.85499599569927], [117.21366526543966, 39.85529212173616], [117.22142534975124, 39.85152205957431], [117.22448214982869, 39.85565773498786], [117.23052675282919, 39.854549646083655], [117.23343223739289, 39.859206256902574], [117.24109017644624, 39.85981670589187], [117.25359216751674, 39.84215772820269], [117.24919562934137, 39.84143210556294], [117.24587185141185, 39.83336839023381], [117.25086651186865, 39.828559908898065], [117.25982039704756, 39.82552010688052], [117.26245155661258, 39.82710483569822], [117.26696774073967, 39.82362649266323], [117.27157635038783, 39.82413006751422], [117.27975066665935, 39.81818170073275], [117.27923641909474, 39.81185372533943], [117.28320690633672, 39.81250818203908], [117.2895062903022, 39.80971530931479], [117.29539970355223, 39.803917235312525], [117.29962512997001, 39.806796386231355], [117.30710013306461, 39.80587286622048], [117.31315219488802, 39.803296215850224], [117.3127199176432, 39.79917834093656], [117.31641658903526, 39.79272305140772], [117.32280701682706, 39.79026318590645], [117.32763868196581, 39.79543648862675], [117.33359569039035, 39.79696194759514], [117.33626262012005, 39.79410411778836], [117.33910547862139, 39.79620858653985], [117.34257240789736, 39.79336639377929], [117.34961311615028, 39.791479945426524], [117.35960768766483, 39.79267842619812], [117.35966199141912, 39.78947062026717], [117.36814296089224, 39.78920556977765], [117.36892882105946, 39.78623381499003], [117.37624677280537, 39.78614027895973], [117.38326981959436, 39.78407398145336], [117.38215869601031, 39.780951172510456], [117.38614478708519, 39.78071216091658], [117.38587375974356, 39.77576481130256], [117.39245317834349, 39.769445708813315], [117.40064833029999, 39.770828450146766], [117.4057659271209, 39.76675900105505], [117.40567166852419, 39.761253550428286], [117.40899818148802, 39.75887250341229], [117.42010889207, 39.75688566614381], [117.42459350230156, 39.754491896265804], [117.43056109646365, 39.75414360073906], [117.43330607030373, 39.763048246537814], [117.44267686498036, 39.767503410524014], [117.44799688882689, 39.76697331616174], [117.45067783899093, 39.77155522814457], [117.45696623017196, 39.77400056378039], [117.45380844026099, 39.76776219192566], [117.45756579921817, 39.767365578027224], [117.46647081897332, 39.773026537543245], [117.46365155211323, 39.77646414944264], [117.47686350483944, 39.773645175659205], [117.48338934801956, 39.77734529926346], [117.4857750475662, 39.77014190474355], [117.49708526786961, 39.772640145000906], [117.50076519507184, 39.76596482607843], [117.50516820989152, 39.764508144173476], [117.50976023754721, 39.767865450832005], [117.51356213538722, 39.763469068153995], [117.51741796142277, 39.76741483302583], [117.52300463957667, 39.76464490172311], [117.52672473419076, 39.765094055738516], [117.52558035469158, 39.76022644997943], [117.53285535107119, 39.759299801009035]]]]}}