{"type": "Feature", "properties": {"unit_id": "tianjin_120110", "name": "东丽区", "district_codes": [120110]}, "geometry": {"type": "MultiPolygon", "coordinates": [[[[117.2607020743134, 39.07883907182616], [117.28613261831799, 39.07644743634712], [117.29882530808925, 39.07579850526706], [117.30700391851661, 39.07407985981288], [117.32237203699326, 39.06728374385359], [117.33121346120143, 39.05845225224033], [117.34140918640439, 39.052805474395235], [117.35226938116347, 39.05051857981485], [117.36492044245145, 39.05104460263483], [117.37371453996572, 39.052516538703884], [117.37826849302287, 39.0500902315169], [117.38188952944215, 39.04082664907518], [117.38664979685838, 39.032551158607696], [117.39222509614508, 39.027890948922405], [117.40579618537042, 39.021627748655135], [117.413848097995, 39.019634583672484], [117.43098440388896, 39.01937696477714], [117.44221687618358, 39.02171440342272], [117.45299429318275, 39.02751769653766], [117.4578669152513, 39.03179284502135], [117.46174706026532, 39.03231465306787], [117.46534252709468, 39.0280411444297], [117.46343702921892, 39.01754487690007], [117.46888565501777, 39.01313939445453], [117.47527399856385, 39.012354981571505], [117.4833118659429, 39.01553367428223], [117.48907503577928, 39.0147319756227], [117.496421536183, 39.00659781985019], [117.5026093141649, 38.995558129888224], [117.50545822445706, 38.99440635264721], [117.5171757013093, 39.00379202856651], [117.52073141475981, 39.005133330725286], [117.51861864754031, 39.01420475716866], [117.5200891890356, 39.02038512905786], [117.51913509963241, 39.025500267662686], [117.51571494400582, 39.022881064795904], [117.51109544626757, 39.02578477930079], [117.51429606714098, 39.035925896879476], [117.51253841170134, 39.03699510137177], [117.51744238313937, 39.04584487118676], [117.52086283955789, 39.04529094364442], [117.52388612476304, 39.0569811614304], [117.5318415572197, 39.05536546305464], [117.55338161383456, 39.054101063814315], [117.55165192306289, 39.064925037142274], [117.5576247378067, 39.077688240702535], [117.5466960865113, 39.0781437027134], [117.54718284349882, 39.09885401820802], [117.52995677531811, 39.099084633651586], [117.52926059847937, 39.1056437817594], [117.51116660157722, 39.10578071909039], [117.49687148400886, 39.10691338968308], [117.50335425913553, 39.13650783055419], [117.50801326189631, 39.149158119374704], [117.511788256273, 39.15051446279756], [117.53456862694088, 39.141824537662025], [117.54644185495609, 39.14634760474029], [117.54690429899624, 39.15304158680647], [117.54957185906039, 39.15829202556411], [117.5600086415327, 39.16088175416762], [117.56090508723462, 39.172614260698246], [117.5626461795668, 39.17663462793654], [117.54363362600793, 39.18025830134855], [117.54122363212481, 39.17940130136096], [117.53092663776175, 39.1816735288738], [117.51142885171166, 39.190384858717294], [117.50735440266934, 39.191428195397975], [117.50740703272884, 39.203749227555846], [117.50356414448886, 39.206460206101134], [117.50435476989719, 39.20152840542932], [117.49587903482583, 39.1985927244644], [117.49642463938092, 39.194339817438426], [117.48495051703316, 39.19747108968347], [117.4954562193578, 39.20031046925592], [117.49726811322604, 39.207751610001445], [117.48659874121186, 39.20375526592015], [117.48027589173701, 39.2036521060854], [117.47654353953712, 39.205666483002254], [117.48084811707265, 39.20995011990643], [117.48158253157456, 39.2193438666257], [117.46632477598104, 39.22821648864693], [117.45927055852515, 39.227825494045035], [117.45028617397138, 39.2301704998575], [117.44474755760655, 39.23522795854148], [117.44121068761537, 39.23069725831221], [117.43547117149754, 39.22937895459078], [117.41952615862495, 39.23010980521559], [117.41877996070637, 39.227284835604145], [117.41092963501536, 39.2224152627708], [117.40160236935006, 39.22472742059275], [117.4036775257613, 39.23537646269247], [117.39656561273401, 39.239068160423884], [117.3891723641966, 39.23854350576389], [117.37806908930644, 39.232360596502076], [117.3798448588671, 39.229263639011506], [117.36176767132534, 39.23222797653727], [117.34150769546841, 39.23301077896814], [117.32712925658365, 39.234671133312524], [117.32037431413755, 39.233458713273656], [117.31811316290435, 39.23679712299117], [117.29291186804932, 39.24326952125563], [117.28398321619706, 39.247431198357944], [117.27668003410854, 39.24327254495111], [117.27737116286924, 39.240941143627616], [117.28613852295447, 39.24261516491004], [117.28871259035984, 39.239278629672896], [117.29155958484985, 39.22217925079537], [117.28515261080997, 39.21827403882335], [117.26623184744244, 39.214703027540786], [117.25344235197385, 39.20989278195836], [117.24072634234315, 39.203442358845436], [117.2272019826044, 39.192015197800096], [117.24368933877507, 39.177436286640386], [117.23467491811091, 39.16973835542693], [117.24450413879303, 39.16989589335617], [117.24542728346754, 39.167086710281346], [117.25237517212423, 39.16894274856719], [117.25424830714732, 39.166541892766176], [117.25434432183663, 39.15799395160306], [117.27053684005077, 39.161970699034406], [117.28399479505207, 39.15611668005197], [117.2870854031762, 39.14959068411757], [117.27364221867124, 39.14633644546517], [117.28033991189896, 39.13072817228312], [117.2654696902405, 39.128322386970936], [117.26358522172772, 39.12537623742065], [117.26952618159692, 39.107074584060385], [117.30330414305233, 39.099925336536884], [117.30057044705579, 39.08835796445964], [117.29847205086622, 39.084560676544804], [117.2956137505543, 39.0852636931597], [117.29377252785957, 39.08110801428867], [117.29186227741636, 39.08547411175921], [117.27996597660234, 39.08811457770342], [117.27978953948579, 39.086170964015956], [117.27364983998754, 39.08590419302883], [117.27255204275383, 39.08962086264151], [117.26604388885553, 39.08955768900196], [117.26159649760989, 39.08432730137419], [117.2607020743134, 39.07883907182616]]]]}}