{"type": "Feature", "properties": {"unit_id": "tianjin_120117", "name": "宁河区", "district_codes": [120117]}, "geometry": {"type": "Polygon", "coordinates": [[[117.79901492342026, 39.372205099138974], [117.79709780678544, 39.36094530786241], [117.80050060894635, 39.3558559490056], [117.81020580683185, 39.35327440429235], [117.81477895927587, 39.35504771264337], [117.82700523622671, 39.35527422137615], [117.83084485572758, 39.34979599135527], [117.847084857013, 39.35972690174272], [117.84193802536988, 39.36610186276041], [117.84592662043777, 39.36860480321665], [117.84860919381148, 39.36555284085923], [117.84709861221368, 39.361967888923026], [117.85454378877209, 39.363814480782175], [117.85681676979453, 39.36128723391184], [117.84719529293157, 39.35065833296179], [117.8438203156989, 39.34136182751571], [117.83999468549382, 39.34184770991151], [117.83576161707181, 39.3354030387816], [117.84182008694948, 39.33123514548663], [117.84071850483444, 39.32749598517443], [117.83897599269287, 39.324757160331416], [117.84453077656727, 39.32130187247502], [117.84374147041633, 39.31453784583039], [117.83971242721489, 39.31379995747561], [117.83802358817488, 39.322666447995005], [117.83297313724918, 39.31623429108696], [117.83666323571347, 39.310973784966464], [117.83148987139548, 39.30872129962932], [117.83072816874052, 39.3050497374038], [117.84460171707615, 39.29941604457737], [117.84652122923464, 39.296903705803956], [117.82112167402042, 39.259560691810925], [117.8197879638758, 39.25932035207069], [117.79983120107137, 39.26765125578795], [117.8074931414255, 39.27847609764312], [117.80283827564156, 39.27814548485112], [117.78240144254605, 39.28673440741529], [117.7836244782305, 39.28850388025807], [117.78339282424972, 39.29807265711268], [117.78501063593737, 39.30007953128293], [117.7782651453264, 39.30318252812728], [117.76771545237102, 39.30089606431614], [117.75943971592588, 39.29791856992], [117.75472608762598, 39.29404241188584], [117.7257466445721, 39.28937899141244], [117.71537285223665, 39.289763934634564], [117.71431631797796, 39.281368649912416], [117.70298370169175, 39.28211530863542], [117.7026741728377, 39.266934859400955], [117.70413770777705, 39.266558797880094], [117.70952042161767, 39.25587269202183], [117.71168917869942, 39.256192551421194], [117.71522823869357, 39.249045895027315], [117.71912032545023, 39.250163688217484], [117.71916093654954, 39.24501047552794], [117.73691961166095, 39.236815371029806], [117.71482714674353, 39.20680811602915], [117.70958226044998, 39.193558704824184], [117.71336493557415, 39.19249823641872], [117.71248573047089, 39.1722602362183], [117.67649738140237, 39.17242284657363], [117.67376068941977, 39.17079404853652], [117.67386730174378, 39.187850830662974], [117.66037537901428, 39.187859518643165], [117.64639255748561, 39.20410298053544], [117.63958946131683, 39.21049415191375], [117.63750163580582, 39.214173160805515], [117.62901621223556, 39.211733961009735], [117.62897653158947, 39.20962421517045], [117.6222514679914, 39.20661939241095], [117.61127845211614, 39.20417849963671], [117.61168747433945, 39.18586587212878], [117.61453638367452, 39.18640868911942], [117.61711474039473, 39.18220218974697], [117.61025088041676, 39.173507943802534], [117.60912649972896, 39.16537133829668], [117.58570435263562, 39.16935483962758], [117.5626461795668, 39.17663462793654], [117.54363362600793, 39.18025830134855], [117.54122363212481, 39.17940130136096], [117.53092663776175, 39.1816735288738], [117.51142885171166, 39.190384858717294], [117.50735440266934, 39.191428195397975], [117.50740703272884, 39.203749227555846], [117.50356414448886, 39.206460206101134], [117.50435476989719, 39.20152840542932], [117.49587903482583, 39.1985927244644], [117.49642463938092, 39.194339817438426], [117.48495051703316, 39.19747108968347], [117.4954562193578, 39.20031046925592], [117.49726811322604, 39.207751610001445], [117.48659874121186, 39.20375526592015], [117.48027589173701, 39.2036521060854], [117.47654353953712, 39.205666483002254], [117.48084811707265, 39.20995011990643], [117.48158253157456, 39.2193438666257], [117.46632477598104, 39.22821648864693], [117.45927055852515, 39.227825494045035], [117.45028617397138, 39.2301704998575], [117.44474755760655, 39.23522795854148], [117.44121068761537, 39.23069725831221], [117.43547117149754, 39.22937895459078], [117.41952615862495, 39.23010980521559], [117.41877996070637, 39.227284835604145], [117.41092963501536, 39.2224152627708], [117.40160236935006, 39.22472742059275], [117.4036775257613, 39.23537646269247], [117.39656561273401, 39.239068160423884], [117.39333593134029, 39.24514085857933], [117.38734114634273, 39.24681003917482], [117.3874208553142, 39.256026947760034], [117.39382290530033, 39.25789469718943], [117.4005233495637, 39.273211908615146], [117.3988669309696, 39.281286841052925], [117.39493141352457, 39.286353145466876], [117.3906591875213, 39.282785794724006], [117.37749290642799, 39.27880090846454], [117.36250449130299, 39.290361501342915], [117.35810290338314, 39.28613538096815], [117.34969258674113, 39.291979278169755], [117.35590792229853, 39.294790383310314], [117.34566973886815, 39.30152048059319], [117.33666503664818, 39.30918424121527], [117.33126361628727, 39.30481074732554], [117.32605076376177, 39.30845689769693], [117.3318440152763, 39.312370813196104], [117.33261516692214, 39.31773865136376], [117.32825579215624, 39.322232774608544], [117.32550784310158, 39.319638332764534], [117.3177762954076, 39.328469673395894], [117.32157938752188, 39.3387225049602], [117.31635276844182, 39.34753115549033], [117.32206571488487, 39.34887873633956], [117.32377048414314, 39.35239082851974], [117.32863080564019, 39.35261940361592], [117.33124277830906, 39.35804785978802], [117.34398255630582, 39.36024890747964], [117.36404030038364, 39.358483726365705], [117.37585600162359, 39.35901273518861], [117.37787549242843, 39.36137057275267], [117.38291863838872, 39.35914206398306], [117.38290644635335, 39.3531128849537], [117.38597094683843, 39.35136140942521], [117.40912059811156, 39.34923452287944], [117.40859104698401, 39.34522627442448], [117.42731187297393, 39.34583287486078], [117.4299346485552, 39.35103346705959], [117.42653584114571, 39.354086137084785], [117.42631796755379, 39.35875572834064], [117.43197288476424, 39.35655445924402], [117.43515447890007, 39.36036306997957], [117.44229631250671, 39.357589717208235], [117.44825519732136, 39.3607082951177], [117.45510155032201, 39.36119734165036], [117.4588724204106, 39.35835319689861], [117.46671578071319, 39.360852174361575], [117.46484952184404, 39.36400501128293], [117.47093686420972, 39.36536207971759], [117.47964099756155, 39.371108340861795], [117.47740677660282, 39.37386882397817], [117.47919046417874, 39.378338816786005], [117.50166036728857, 39.38247905255934], [117.49949380571908, 39.3850024473498], [117.49468273463681, 39.383714622145035], [117.49120669436822, 39.39117301181336], [117.49147930533434, 39.394348443621645], [117.48856219936445, 39.403792786982045], [117.49057865702603, 39.40422255508489], [117.48856094221276, 39.41346573352065], [117.48478616136252, 39.41248710988573], [117.47678443028325, 39.44442660353006], [117.4769204596727, 39.44783567633042], [117.4826970332289, 39.447411167680166], [117.48602173778725, 39.45064356223624], [117.49293013694265, 39.453241950354766], [117.49057163983301, 39.45820409869527], [117.49652675160632, 39.46083285754049], [117.50313661929724, 39.45517175168307], [117.5129483309769, 39.45808376559135], [117.51163891735536, 39.4620484611494], [117.51683117270315, 39.46252140233305], [117.51805732129091, 39.465288910123064], [117.53507257325467, 39.463316548959654], [117.54514881686093, 39.46671501741712], [117.550838842647, 39.47059254657183], [117.55874479182418, 39.47974590296791], [117.55602192337909, 39.48467443290706], [117.55188464251464, 39.48554735608566], [117.54966484818907, 39.493510212237325], [117.56102760111332, 39.49666688458361], [117.56135476125705, 39.49293865543578], [117.5662112023239, 39.4939115524899], [117.56667354987201, 39.4899455287785], [117.57122916949413, 39.490765029389856], [117.57401718189185, 39.48408940631608], [117.59051466444096, 39.48645678825492], [117.6013494425529, 39.48874673644597], [117.59959798402862, 39.49320445683048], [117.60274698063384, 39.49874709596755], [117.6044690565688, 39.51089768634019], [117.62447711195678, 39.51498435757605], [117.63091656582091, 39.521042888231214], [117.62718624220886, 39.533771584769916], [117.62797287186523, 39.53614296053477], [117.65206892473415, 39.53007540378109], [117.65358619030692, 39.52654877313311], [117.66142985618426, 39.52917657633745], [117.6622018792358, 39.53125950010848], [117.67038342583257, 39.53209066653642], [117.67483896464444, 39.535487110832165], [117.68165305299141, 39.53378065510156], [117.68445662418524, 39.5364176321511], [117.6841031144854, 39.546328423120926], [117.68831568491959, 39.54996164859262], [117.69456191179276, 39.55059440830865], [117.70238078999768, 39.54705850765333], [117.70086410615897, 39.54225028872437], [117.70251785531032, 39.53692921626489], [117.7096072761027, 39.52892208410416], [117.71714423755239, 39.5339438557791], [117.726583350023, 39.534916815219326], [117.7316701726237, 39.539232524123605], [117.73850817475082, 39.54742720874654], [117.72971378247374, 39.55962722679319], [117.72941510731191, 39.566434633132275], [117.73136700052503, 39.572850494723504], [117.74180323102844, 39.5732179283111], [117.74675913783453, 39.57480833547809], [117.748780874524, 39.57992181839985], [117.74150331987242, 39.588201265492756], [117.76134363880267, 39.59779958550466], [117.76906283073464, 39.59792276291376], [117.78300081819627, 39.596006015672735], [117.78759726475649, 39.59987066295921], [117.79563866726451, 39.60059259335841], [117.81110040982352, 39.59433834115226], [117.8203174573999, 39.58968316298171], [117.83314310734936, 39.58852141043994], [117.84086169497141, 39.59004225537521], [117.84521794147837, 39.58817149278233], [117.84732826521022, 39.5912224345065], [117.85118050625489, 39.590958043097366], [117.86213494418868, 39.59578190899692], [117.87799783550487, 39.58908050572331], [117.88649540876435, 39.590475851928005], [117.89373971406204, 39.58848182240405], [117.90877622884935, 39.58191359591606], [117.92399054651608, 39.57711172335228], [117.92791154409147, 39.57311147358454], [117.9250499381896, 39.56713722431233], [117.9187147460832, 39.56228328317498], [117.91186178539118, 39.55359886234914], [117.91104862763933, 39.547298988631574], [117.90723414000408, 39.54113404244717], [117.90374419976868, 39.54094870476658], [117.90374469898374, 39.536967866336354], [117.8993168539246, 39.53408771686437], [117.89922241931389, 39.52910719688533], [117.90434316361868, 39.52698878063186], [117.90337941391091, 39.52216035642267], [117.90662561793413, 39.52041440026662], [117.90621918709714, 39.51514513539247], [117.90298765333043, 39.510993889196996], [117.89251255592696, 39.50868692593041], [117.89096652115148, 39.48829704611555], [117.88631828999124, 39.48603930553741], [117.89045041111513, 39.4847200385264], [117.89365875875212, 39.47588841929298], [117.89212382209665, 39.47151341193825], [117.88224181211962, 39.46816671147669], [117.88022999969054, 39.46577491844914], [117.87197429023591, 39.46619046189894], [117.86797672613856, 39.453908180891126], [117.86422156894757, 39.45393721342346], [117.86575039087444, 39.41056147773654], [117.84091202101028, 39.40704302090401], [117.8419747390598, 39.40091853201981], [117.85324566327402, 39.40227835811209], [117.85637731017472, 39.3961569764438], [117.8543638436672, 39.38366023923259], [117.85959048386802, 39.37728617594803], [117.85190195307598, 39.372486223667664], [117.84625209628841, 39.37975934444507], [117.84314886108533, 39.37802263809905], [117.83278803869918, 39.37625443690916], [117.81476327487236, 39.375848148007606], [117.79901492342026, 39.372205099138974]], [[117.75920949819087, 39.39951150944834], [117.73094037153476, 39.40941115542824], [117.69344161189944, 39.40650691990028], [117.69603193338538, 39.38783348751587], [117.66696078084031, 39.38562942685722], [117.66457475968137, 39.40423593992956], [117.66286670819025, 39.410976343611125], [117.65752938133947, 39.41136013617566], [117.64880600939249, 39.408727757184046], [117.65009268208505, 39.406485482751904], [117.63730202582555, 39.40486069509351], [117.6356754759617, 39.39917744589531], [117.62965800288221, 39.3975221496196], [117.6289382760878, 39.40349648594147], [117.62550790417548, 39.403331542705516], [117.62481624349621, 39.4075575173112], [117.60798296306588, 39.406145185552624], [117.60815938511918, 39.41009944767702], [117.6051603005878, 39.41205181710525], [117.60494185299909, 39.41614119698188], [117.59523491277422, 39.41851733073461], [117.5956433871599, 39.415446628746864], [117.59099900537997, 39.41407134779141], [117.58449299660663, 39.40449753733732], [117.56935016092056, 39.403228178816576], [117.56495724886145, 39.40362909758301], [117.5653114614973, 39.39933643101326], [117.56251035785503, 39.39625959783997], [117.55412865282797, 39.39549859859524], [117.5547275470129, 39.392037211144654], [117.54747284601518, 39.391565015556814], [117.55167989724823, 39.38459665245184], [117.54665785753211, 39.38156467262856], [117.5377386127146, 39.38022085736096], [117.53889663147062, 39.376930116368705], [117.53267281310752, 39.376285968404176], [117.52906312520568, 39.37296604470567], [117.53099897880611, 39.362647841523035], [117.52789359695441, 39.36136622493929], [117.5231384172844, 39.36559830195782], [117.51988185760997, 39.36453665309056], [117.52225293711984, 39.36028128463966], [117.51455537913817, 39.356150233085856], [117.52299134501573, 39.346357869664615], [117.52736348072635, 39.347915093013285], [117.52996675970363, 39.337018231510946], [117.56357837117486, 39.34165806257927], [117.58914631560042, 39.3481869929971], [117.59137394790089, 39.34414562490562], [117.60081142389889, 39.346031297246256], [117.60309158521994, 39.34222666599567], [117.61052850110012, 39.34348109253433], [117.6111938952114, 39.33714475797487], [117.62914960553726, 39.34283560099857], [117.63594005925674, 39.34340433388055], [117.63599560764493, 39.338308699047985], [117.63138731972293, 39.335019547759686], [117.63638890786824, 39.33069782869651], [117.64029324737349, 39.32177342638316], [117.64463027033861, 39.321154872498724], [117.64463113894286, 39.31423932029891], [117.65762325494296, 39.315881826555035], [117.66309532746091, 39.32314300433297], [117.66471645606708, 39.35682175671591], [117.68128229597994, 39.358166492728365], [117.68592942384639, 39.356900414603636], [117.6998994632197, 39.350440080294646], [117.73826225593476, 39.35347161725213], [117.77825582541831, 39.37587958848623], [117.7760369989234, 39.39349769094504], [117.75920949819087, 39.39951150944834]]]}}