{"type": "Feature", "properties": {"unit_id": "tianjin_120115", "name": "宝坻区", "district_codes": [120115]}, "geometry": {"type": "MultiPolygon", "coordinates": [[[[117.25086651186865, 39.828559908898065], [117.23101880807083, 39.83267034406227], [117.21986584784186, 39.829707835644335], [117.21429478569254, 39.82593875390328], [117.21373671823544, 39.82937983249871], [117.20608392445973, 39.83104046362277], [117.2020462504578, 39.83012352439716], [117.20095814260154, 39.83371560497209], [117.19426772575054, 39.831308916541225], [117.19345208917511, 39.83329840630457], [117.18574067854581, 39.831783000896856], [117.18866594514327, 39.824195735684185], [117.1841095655044, 39.82506450965647], [117.16068776680461, 39.82238921900677], [117.16072943691685, 39.817866619824386], [117.15605118728256, 39.81647429139415], [117.15260968511488, 39.8205009666195], [117.14984964198409, 39.81612557362569], [117.15519610194207, 39.805671599212985], [117.15066740374728, 39.805393774295204], [117.15102231188557, 39.79536819382456], [117.16130305507367, 39.798323183942], [117.17229433042671, 39.79402199008902], [117.17418662257698, 39.781144671605304], [117.18583031860419, 39.774496768418054], [117.19951217438732, 39.76258025231105], [117.19535200129542, 39.75862190109576], [117.18855230233619, 39.7585422259617], [117.18641709541292, 39.75369094409691], [117.18051508921785, 39.75449110960385], [117.17831144551064, 39.75060245305296], [117.16662724798734, 39.750546611758935], [117.15540719585249, 39.746776569042595], [117.15966613213106, 39.73668137936193], [117.15389876396533, 39.737667974308216], [117.15403533384132, 39.735117519019305], [117.1472631327226, 39.73495405171541], [117.14881453871945, 39.72787748767922], [117.1467080412324, 39.72136785352167], [117.15239123093032, 39.72203730281379], [117.15424174112263, 39.71945485906444], [117.15985855245316, 39.72085071238974], [117.16275547899448, 39.71625962305583], [117.15711143577383, 39.71447460723665], [117.15783324687928, 39.71048744774203], [117.16270190945836, 39.71220307514527], [117.16425348143841, 39.70696666933755], [117.16184602848084, 39.70682725063224], [117.16391533358023, 39.68793287011319], [117.1612637343631, 39.68554436508982], [117.16367295409219, 39.672039002180384], [117.1596876669318, 39.67164276388544], [117.15820580712183, 39.665366161732116], [117.15314690768251, 39.66551018010605], [117.1524404380474, 39.659893948686914], [117.15701070088447, 39.657466420977656], [117.15756861500498, 39.65041471791789], [117.16281917712327, 39.6504752620592], [117.16262929906318, 39.64683759846853], [117.17125286787454, 39.64431614246888], [117.1714706272325, 39.64166106454162], [117.1665745775478, 39.639892251861085], [117.16639782337464, 39.63544280453243], [117.15149205358898, 39.635263987569076], [117.14852786914227, 39.6300310481782], [117.14380992980519, 39.627282992777936], [117.14769924110864, 39.624699783714306], [117.14140423456342, 39.621255552803945], [117.14321361901283, 39.61526761980946], [117.1402366864802, 39.61299559119291], [117.15916686451833, 39.601450823648506], [117.16740995557252, 39.595237472540646], [117.18258986030318, 39.58583602660363], [117.19377079659658, 39.57769582801441], [117.20585942165326, 39.56994287013101], [117.22132714000091, 39.5585650181957], [117.23238554270999, 39.552273850589536], [117.22676356104009, 39.54668031302724], [117.23552334472426, 39.545195650746486], [117.23890544331447, 39.54020063340937], [117.2392029888804, 39.54385969489851], [117.24774158828721, 39.54423450222284], [117.26853746280506, 39.531590385487505], [117.26959569045697, 39.52642217028835], [117.2593166704266, 39.52507235961875], [117.25559952665523, 39.52668300036006], [117.2480688227651, 39.52586993882], [117.24881596438492, 39.52246500723064], [117.25724192762002, 39.52143017133272], [117.26409213925285, 39.51453042129402], [117.26569290013342, 39.50959806148047], [117.25998334984696, 39.50716072074639], [117.2592250568755, 39.499314573250366], [117.26394421074582, 39.499685291031014], [117.26553166809889, 39.49732816132038], [117.27247314688006, 39.49832279546556], [117.27601105325265, 39.49445487740244], [117.28233975710282, 39.494635063298894], [117.28813865887071, 39.49025428333812], [117.28881706635319, 39.483659630859286], [117.2918116996735, 39.48226494448801], [117.29312539322267, 39.47717682143734], [117.28879108006618, 39.4762172667127], [117.28716605486619, 39.4719459444355], [117.29314045342961, 39.46868282626872], [117.29801703344155, 39.46073929518358], [117.30110557381104, 39.45978467120455], [117.30390912562682, 39.45486181957595], [117.31244064094423, 39.446790818372925], [117.31429601729911, 39.44346369017958], [117.31888514596987, 39.4450155260528], [117.32079413873483, 39.442568855092624], [117.3158531144157, 39.44059391407475], [117.31902200775508, 39.435430989825484], [117.31918513416925, 39.430952451475854], [117.32343646320572, 39.421545151126246], [117.3279991924309, 39.41727814944962], [117.33070947444223, 39.40271302668546], [117.33370149441184, 39.399754563168486], [117.32593104337732, 39.393879976554054], [117.31780795624927, 39.40009075887676], [117.31864811690055, 39.39628680757954], [117.31254230949125, 39.39307353358989], [117.31390863044949, 39.40052182923627], [117.3066375176392, 39.40489602500868], [117.3069222347575, 39.40131504546572], [117.30153238861978, 39.39864235236695], [117.30705856037653, 39.388262438238414], [117.30286176834701, 39.38523196096703], [117.29924651839525, 39.379397478907954], [117.29315210399616, 39.37786252936858], [117.29671511652747, 39.3677557195524], [117.30852467018819, 39.36520618391213], [117.31021764519258, 39.36148387575985], [117.30990635845313, 39.35464161241496], [117.31433506880477, 39.34936903069753], [117.32206571488487, 39.34887873633956], [117.32377048414314, 39.35239082851974], [117.32863080564019, 39.35261940361592], [117.33124277830906, 39.35804785978802], [117.34398255630582, 39.36024890747964], [117.36404030038364, 39.358483726365705], [117.37585600162359, 39.35901273518861], [117.37787549242843, 39.36137057275267], [117.38291863838872, 39.35914206398306], [117.38290644635335, 39.3531128849537], [117.38597094683843, 39.35136140942521], [117.40912059811156, 39.34923452287944], [117.40859104698401, 39.34522627442448], [117.42731187297393, 39.34583287486078], [117.4299346485552, 39.35103346705959], [117.42653584114571, 39.354086137084785], [117.42631796755379, 39.35875572834064], [117.43197288476424, 39.35655445924402], [117.43515447890007, 39.36036306997957], [117.44229631250671, 39.357589717208235], [117.44825519732136, 39.3607082951177], [117.45510155032201, 39.36119734165036], [117.4588724204106, 39.35835319689861], [117.46671578071319, 39.360852174361575], [117.46484952184404, 39.36400501128293], [117.47093686420972, 39.36536207971759], [117.47964099756155, 39.371108340861795], [117.47740677660282, 39.37386882397817], [117.47919046417874, 39.378338816786005], [117.50166036728857, 39.38247905255934], [117.49949380571908, 39.3850024473498], [117.49468273463681, 39.383714622145035], [117.49120669436822, 39.39117301181336], [117.49147930533434, 39.394348443621645], [117.48856219936445, 39.403792786982045], [117.49057865702603, 39.40422255508489], [117.48856094221276, 39.41346573352065], [117.48478616136252, 39.41248710988573], [117.47678443028325, 39.44442660353006], [117.4769204596727, 39.44783567633042], [117.4826970332289, 39.447411167680166], [117.48602173778725, 39.45064356223624], [117.49293013694265, 39.453241950354766], [117.49057163983301, 39.45820409869527], [117.49652675160632, 39.46083285754049], [117.50313661929724, 39.45517175168307], [117.5129483309769, 39.45808376559135], [117.51163891735536, 39.4620484611494], [117.51683117270315, 39.46252140233305], [117.51805732129091, 39.465288910123064], [117.53507257325467, 39.463316548959654], [117.54514881686093, 39.46671501741712], [117.550838842647, 39.47059254657183], [117.55874479182418, 39.47974590296791], [117.55602192337909, 39.48467443290706], [117.55188464251464, 39.48554735608566], [117.54966484818907, 39.493510212237325], [117.56102760111332, 39.49666688458361], [117.56135476125705, 39.49293865543578], [117.5662112023239, 39.4939115524899], [117.56667354987201, 39.4899455287785], [117.57122916949413, 39.490765029389856], [117.57401718189185, 39.48408940631608], [117.59051466444096, 39.48645678825492], [117.6013494425529, 39.48874673644597], [117.59959798402862, 39.49320445683048], [117.60274698063384, 39.49874709596755], [117.6044690565688, 39.51089768634019], [117.62447711195678, 39.51498435757605], [117.63091656582091, 39.521042888231214], [117.62718624220886, 39.533771584769916], [117.62797287186523, 39.53614296053477], [117.65206892473415, 39.53007540378109], [117.65358619030692, 39.52654877313311], [117.66142985618426, 39.52917657633745], [117.6622018792358, 39.53125950010848], [117.67038342583257, 39.53209066653642], [117.67483896464444, 39.535487110832165], [117.68165305299141, 39.53378065510156], [117.68445662418524, 39.5364176321511], [117.6841031144854, 39.546328423120926], [117.68831568491959, 39.54996164859262], [117.69456191179276, 39.55059440830865], [117.70238078999768, 39.54705850765333], [117.70210938298946, 39.55391901133733], [117.69736575711714, 39.5563480511977], [117.68946648896429, 39.55617584210057], [117.68330229962478, 39.558388557938116], [117.67938725468483, 39.563307604312214], [117.68250179472552, 39.56809345623803], [117.69098340689438, 39.56364110308444], [117.69774402708414, 39.56422228754416], [117.70191696229007, 39.56756862456557], [117.70224173578694, 39.5726307896886], [117.6995312662979, 39.57532743678444], [117.68729597837026, 39.579903531336306], [117.6795867633328, 39.5870621338072], [117.67536095220336, 39.58886475030662], [117.66753170887722, 39.587914993370354], [117.66539240953516, 39.580943800832266], [117.65458299169852, 39.5743095914994], [117.64943477797976, 39.57384479037739], [117.64448901160762, 39.57817097276683], [117.64948734422019, 39.584257068317434], [117.64955484424488, 39.58710125110238], [117.64479851541329, 39.593101788261215], [117.6331850842701, 39.59206941552021], [117.63096091228094, 39.59664324436551], [117.63063463374172, 39.60265225839944], [117.62601223251002, 39.60130410434962], [117.62033194642096, 39.59325283167863], [117.6157616167239, 39.59064931226231], [117.61288338260314, 39.602178609925375], [117.6138602577315, 39.60544421061567], [117.61832290857156, 39.601649645339805], [117.62414011141962, 39.605080280246995], [117.62595685812606, 39.61269358740927], [117.63514742366645, 39.61178516488379], [117.63391354866279, 39.61865736662492], [117.63841250843606, 39.62262809857446], [117.63578239338314, 39.6273529246611], [117.63759815615389, 39.62863604184201], [117.64467245474076, 39.62686543926545], [117.64670422944913, 39.62892565678207], [117.64528139729522, 39.63376702604213], [117.6469745264034, 39.63807835178589], [117.6557537040258, 39.63523753891122], [117.66022312492126, 39.64181000134824], [117.65908520880306, 39.64507748586238], [117.66148223707873, 39.6504179981366], [117.65733654301268, 39.656649547434675], [117.66127740286333, 39.66046454130792], [117.66206295209267, 39.66597609207239], [117.65760591944971, 39.66475060406374], [117.65079103407258, 39.66755234950559], [117.6539606527721, 39.673363748516856], [117.64698351812746, 39.67713024853941], [117.65119638184922, 39.68172127215331], [117.64457075831801, 39.68083663076031], [117.6436899973394, 39.68432149684208], [117.63775336720539, 39.68761012807251], [117.64275355987526, 39.69375552727085], [117.64074765338431, 39.69855994879481], [117.63638309095704, 39.70025619830752], [117.63070468150127, 39.69571756129309], [117.62827763969976, 39.699895935811305], [117.62094139722896, 39.70259043043554], [117.61477029812049, 39.70190268960857], [117.60871883253213, 39.70493188909078], [117.59625798006226, 39.70432668073092], [117.58733453417469, 39.70969868257281], [117.58615193477162, 39.715698294168874], [117.58225226973423, 39.71843361959859], [117.57385221653705, 39.718392336173125], [117.57897648750736, 39.7210328087745], [117.57196192336846, 39.7222087612742], [117.57141761079377, 39.725875662361524], [117.57724975729484, 39.726269637348985], [117.57780588605247, 39.73061258622504], [117.58165223594494, 39.72978773884645], [117.5837442889979, 39.736885249053884], [117.58722234386128, 39.7341504373891], [117.59124344264221, 39.735536737982855], [117.58533296177733, 39.741971563251994], [117.58970746478765, 39.74508113882783], [117.57522136350894, 39.74787612036944], [117.56880311250926, 39.751044481403525], [117.5673201595734, 39.753846236431414], [117.56136232045138, 39.755712313310795], [117.55357860706245, 39.754448885914535], [117.54919536881762, 39.76144948703811], [117.54249815737354, 39.755692566376226], [117.53702284481655, 39.75949621377434], [117.53285535107119, 39.759299801009035], [117.52558035469158, 39.76022644997943], [117.52672473419076, 39.765094055738516], [117.52300463957667, 39.76464490172311], [117.51741796142277, 39.76741483302583], [117.51356213538722, 39.763469068153995], [117.50976023754721, 39.767865450832005], [117.50516820989152, 39.764508144173476], [117.50076519507184, 39.76596482607843], [117.49708526786961, 39.772640145000906], [117.4857750475662, 39.77014190474355], [117.48338934801956, 39.77734529926346], [117.47686350483944, 39.773645175659205], [117.46365155211323, 39.77646414944264], [117.46647081897332, 39.773026537543245], [117.45756579921817, 39.767365578027224], [117.45380844026099, 39.76776219192566], [117.45696623017196, 39.77400056378039], [117.45067783899093, 39.77155522814457], [117.44799688882689, 39.76697331616174], [117.44267686498036, 39.767503410524014], [117.43330607030373, 39.763048246537814], [117.43056109646365, 39.75414360073906], [117.42459350230156, 39.754491896265804], [117.42010889207, 39.75688566614381], [117.40899818148802, 39.75887250341229], [117.40567166852419, 39.761253550428286], [117.4057659271209, 39.76675900105505], [117.40064833029999, 39.770828450146766], [117.39245317834349, 39.769445708813315], [117.38587375974356, 39.77576481130256], [117.38614478708519, 39.78071216091658], [117.38215869601031, 39.780951172510456], [117.38326981959436, 39.78407398145336], [117.37624677280537, 39.78614027895973], [117.36892882105946, 39.78623381499003], [117.36814296089224, 39.78920556977765], [117.35966199141912, 39.78947062026717], [117.35960768766483, 39.79267842619812], [117.34961311615028, 39.791479945426524], [117.34257240789736, 39.79336639377929], [117.33910547862139, 39.79620858653985], [117.33626262012005, 39.79410411778836], [117.33359569039035, 39.79696194759514], [117.32763868196581, 39.79543648862675], [117.32280701682706, 39.79026318590645], [117.31641658903526, 39.79272305140772], [117.3127199176432, 39.79917834093656], [117.31315219488802, 39.803296215850224], [117.30710013306461, 39.80587286622048], [117.29962512997001, 39.806796386231355], [117.29539970355223, 39.803917235312525], [117.2895062903022, 39.80971530931479], [117.28320690633672, 39.81250818203908], [117.27923641909474, 39.81185372533943], [117.27975066665935, 39.81818170073275], [117.27157635038783, 39.82413006751422], [117.26696774073967, 39.82362649266323], [117.26245155661258, 39.82710483569822], [117.25982039704756, 39.82552010688052], [117.25086651186865, 39.828559908898065]]]]}}