{"type": "Feature", "properties": {"unit_id": "tianjin_120103", "name": "河西区", "district_codes": [120103]}, "geometry": {"type": "MultiPolygon", "coordinates": [[[[117.26101983485933, 39.03851380671243], [117.26023237240823, 39.04028704454236], [117.26619970623581, 39.0418360022801], [117.2614250628801, 39.04941090033051], [117.27175688769472, 39.0525933359192], [117.27416981212232, 39.04797010753035], [117.2805257646933, 39.05006140835583], [117.2767982828889, 39.0580284086438], [117.28216456814862, 39.059232887428394], [117.27969681044051, 39.06950032536117], [117.28613261831799, 39.07644743634712], [117.2607020743134, 39.07883907182616], [117.25387946229728, 39.07994941704848], [117.24228914057063, 39.08524957208272], [117.23875882379221, 39.08828252508839], [117.23507810022728, 39.09763706245216], [117.22412967652934, 39.10735913266422], [117.21622066443665, 39.11648432025507], [117.2069782245141, 39.112621702986644], [117.18999718572391, 39.10128047941855], [117.183727141637, 39.09990511643623], [117.1729408540833, 39.10092548168243], [117.17337828445035, 39.088280053791436], [117.17712042197745, 39.071838166756336], [117.18220765385402, 39.065897243161494], [117.19757470468748, 39.07071505979305], [117.20785511420179, 39.05920473642866], [117.2048913628368, 39.05717174548089], [117.21143007559645, 39.05525399768618], [117.21144684871534, 39.0333555345533], [117.22830969234481, 39.032435782423555], [117.24564771512023, 39.03605959300661], [117.26101983485933, 39.03851380671243]]]]}}