{"type": "Feature", "properties": {"unit_id": "tianjin_120113", "name": "北辰区", "district_codes": [120113]}, "geometry": {"type": "Polygon", "coordinates": [[[116.94314502822569, 39.165283275762356], [116.93492563178607, 39.17043776820727], [116.93854098050721, 39.173037618041924], [116.9345322262007, 39.17358848870966], [116.93304206928319, 39.17997386802911], [116.9355060972285, 39.187731759789], [116.95189777896876, 39.18877416302152], [116.95864947804914, 39.186870068877916], [116.95836396796805, 39.19134713652574], [116.96123053511069, 39.2069962373903], [116.96520629869333, 39.20793976833893], [116.96216232241562, 39.212915569137245], [116.96608394809316, 39.21561114229658], [116.96171410930279, 39.22848287140907], [116.97131518230763, 39.23102662750194], [116.97392460681125, 39.2297951819442], [116.98331951014275, 39.23856252398349], [116.98402172675033, 39.244394241863915], [116.99007725283812, 39.24226743290139], [116.9996732209555, 39.24196555926529], [117.00460529394233, 39.24773340011534], [117.00533403560924, 39.25562188150868], [117.0167822345912, 39.2557916144069], [117.01916021109086, 39.26149761047271], [117.0179026402074, 39.26952694265477], [117.01144131009966, 39.26713128464292], [117.01064331419173, 39.27145236066605], [117.01344185845902, 39.27191977206404], [117.00960190467067, 39.27981904769818], [117.01150741774539, 39.279899300258464], [117.01043931680304, 39.286666944238725], [117.03095928613872, 39.29102818414164], [117.02909321900415, 39.287837833050936], [117.04202222663726, 39.29003201451047], [117.04724527406134, 39.27988954288317], [117.05784208483507, 39.280072517225435], [117.0692036765985, 39.28183907376687], [117.06463937079974, 39.283341674456125], [117.06345997065614, 39.2864538396866], [117.07016467254634, 39.28853533874972], [117.06868746314616, 39.292650111931124], [117.0824126724672, 39.29848306321304], [117.07318295793633, 39.306563466873975], [117.09861731188421, 39.31157868198735], [117.11353533699727, 39.30949354933846], [117.12080231896574, 39.31036567259628], [117.12809863644132, 39.30464704879696], [117.13421414684342, 39.303720101573234], [117.14027668756974, 39.304901050747894], [117.13980079411861, 39.30680338001913], [117.1466254618373, 39.30897188424899], [117.15124816631744, 39.31468872000206], [117.14908467940225, 39.3220084205174], [117.15361306538469, 39.323170584477516], [117.154389073452, 39.317922544876616], [117.15891772094764, 39.320564306743904], [117.15803239209237, 39.32633885894527], [117.1532451400937, 39.3254808051153], [117.15421037827228, 39.32870990551888], [117.16110536235253, 39.33088021373109], [117.16180002900423, 39.32780698865784], [117.16613806457762, 39.327916958854004], [117.16660130353708, 39.32502924024171], [117.17333395252163, 39.325585570223545], [117.17784860839649, 39.33243965523493], [117.18630925714444, 39.332387181471844], [117.18502863109423, 39.342593954869166], [117.18940825619627, 39.34429995085944], [117.18908117657318, 39.348239505929115], [117.19297131271745, 39.3450707518515], [117.1985734632183, 39.345164985719975], [117.19860002157452, 39.348952233371406], [117.21636659091986, 39.35500521478463], [117.22738577424748, 39.35223139805399], [117.22676114134042, 39.35431990863636], [117.2322615296718, 39.35637898050959], [117.24464394695454, 39.35269878849547], [117.24821455808559, 39.34740069001714], [117.25735912544995, 39.3469577322647], [117.25879731042264, 39.34374678830842], [117.26243171588052, 39.34430598909936], [117.2630952580618, 39.35018187228116], [117.2679363645729, 39.351045555121395], [117.27322442304568, 39.346608522476615], [117.27918739578215, 39.34772320276163], [117.28570515008917, 39.34645918663613], [117.29000145479013, 39.33612644015721], [117.29845305055812, 39.335774021942214], [117.29979441467705, 39.33081228272905], [117.29554188955387, 39.328728978038626], [117.29761441608251, 39.325294459382775], [117.31034366431352, 39.327651756630566], [117.31152195613743, 39.324115368799596], [117.3177762954076, 39.328469673395894], [117.32550784310158, 39.319638332764534], [117.32825579215624, 39.322232774608544], [117.33261516692214, 39.31773865136376], [117.3318440152763, 39.312370813196104], [117.32605076376177, 39.30845689769693], [117.33126361628727, 39.30481074732554], [117.33666503664818, 39.30918424121527], [117.34566973886815, 39.30152048059319], [117.35590792229853, 39.294790383310314], [117.34969258674113, 39.291979278169755], [117.35810290338314, 39.28613538096815], [117.36250449130299, 39.290361501342915], [117.37749290642799, 39.27880090846454], [117.3906591875213, 39.282785794724006], [117.39493141352457, 39.286353145466876], [117.3988669309696, 39.281286841052925], [117.4005233495637, 39.273211908615146], [117.39382290530033, 39.25789469718943], [117.3874208553142, 39.256026947760034], [117.38734114634273, 39.24681003917482], [117.39333593134029, 39.24514085857933], [117.39656561273401, 39.239068160423884], [117.3891723641966, 39.23854350576389], [117.37806908930644, 39.232360596502076], [117.3798448588671, 39.229263639011506], [117.36176767132534, 39.23222797653727], [117.34150769546841, 39.23301077896814], [117.32712925658365, 39.234671133312524], [117.32037431413755, 39.233458713273656], [117.31811316290435, 39.23679712299117], [117.29291186804932, 39.24326952125563], [117.28398321619706, 39.247431198357944], [117.27668003410854, 39.24327254495111], [117.27737116286924, 39.240941143627616], [117.28613852295447, 39.24261516491004], [117.28871259035984, 39.239278629672896], [117.29155958484985, 39.22217925079537], [117.28515261080997, 39.21827403882335], [117.26623184744244, 39.214703027540786], [117.25344235197385, 39.20989278195836], [117.24072634234315, 39.203442358845436], [117.2272019826044, 39.192015197800096], [117.21769261389916, 39.18392168914153], [117.21565460230839, 39.183646503458654], [117.20982308986281, 39.19022629174821], [117.2044667590875, 39.19185277946723], [117.19093821026213, 39.18502288541563], [117.18557897856702, 39.190834010959], [117.1822601254561, 39.18912596965302], [117.165408963001, 39.18517985368747], [117.16116542677703, 39.182857379767654], [117.15289602604663, 39.189190913637844], [117.14215433611149, 39.187931036627425], [117.13534310696343, 39.1899469964026], [117.12788293581806, 39.18416701923702], [117.12470408268285, 39.17767836262673], [117.12346905106924, 39.17071521001004], [117.11735624825793, 39.172701628555856], [117.097658444431, 39.175042765520494], [117.07918992144597, 39.172923268417954], [117.06741632284526, 39.168306208836576], [117.06816281262272, 39.1586509190309], [117.06112052749329, 39.158065801126945], [117.06037584809167, 39.16356676614303], [117.05803330430388, 39.16426837781433], [117.04161930278572, 39.158905554970474], [117.03216615713389, 39.15887713044563], [117.02572968902739, 39.15560844289771], [117.02310582128794, 39.170344034813304], [117.01945542418399, 39.16992869664809], [117.02025381050201, 39.16343924015523], [117.01659076321447, 39.16239448223786], [117.017335331112, 39.155956137153126], [117.02030972619639, 39.15421057082507], [117.00679369668157, 39.149550337198356], [117.00549412437476, 39.16077557330262], [117.00185857221483, 39.159867144735955], [116.99812715201546, 39.16966867896026], [116.98742324479468, 39.16755619712128], [116.98623413089842, 39.17045401443587], [116.96738878522014, 39.16674413255597], [116.96200543925919, 39.16750634524372], [116.96128841931733, 39.17329668537387], [116.95644566479481, 39.17621943183873], [116.95207669465985, 39.1680229571776], [116.94789510248991, 39.169495740331655], [116.94314502822569, 39.165283275762356]], [[117.1239280825878, 39.188674139216296], [117.13435066389926, 39.19203844415924], [117.1347855958405, 39.19654941246889], [117.12559763913109, 39.202256008017265], [117.1191726554658, 39.199680358027535], [117.12213408097678, 39.19445902462392], [117.11951259887246, 39.19374108064163], [117.1239280825878, 39.188674139216296]]]}}