{"type": "Feature", "properties": {"unit_id": "tianjin_urban", "name": "全部市辖区联合区域", "district_codes": [120101, 120102, 120103, 120104, 120105, 120106, 120110, 120111, 120112, 120113, 120114, 120115, 120116, 120117, 120118, 120119]}, "geometry": {"type": "Polygon", "coordinates": [[[117.14449802788106, 38.60846335138132], [117.14123568246855, 38.60576313282818], [117.13191152797003, 38.603055976494225], [117.13007728885545, 38.59785126683788], [117.11824334990526, 38.599041910578386], [117.11529643859143, 38.596807356161506], [117.11317885245842, 38.588771298320296], [117.1031202809392, 38.58821732324128], [117.10348670333644, 38.58397659461895], [117.0918455483605, 38.586003437523146], [117.09111277634736, 38.5898145816133], [117.08665026823401, 38.59354240347237], [117.09071856710479, 38.59462232264231], [117.09051516107361, 38.59951494896124], [117.08088869474238, 38.59897158235054], [117.07999331420726, 38.605478341450564], [117.0652383412767, 38.60650801747881], [117.06377482383922, 38.61588128682079], [117.05796407302503, 38.634835637802574], [117.0542150580368, 38.63484254033501], [117.0544718614989, 38.63823988543117], [117.0493150028324, 38.63840414487348], [117.04545836317517, 38.64265000745516], [117.05004493115695, 38.644115635820654], [117.04977366420941, 38.65332790849092], [117.0556848618706, 38.67350272121222], [117.06184386010167, 38.679750597510534], [117.05695739203385, 38.67955303555237], [117.05707872810652, 38.682072824383226], [117.04807848302553, 38.68339406811877], [117.04660311464839, 38.68584928366097], [117.0383514791788, 38.685370652155136], [117.03913479775022, 38.69169519645866], [117.0328462048104, 38.68763067503493], [117.03306162708651, 38.69359570176543], [117.03541465039933, 38.70075471373489], [117.0390245687979, 38.704911008058545], [117.0360765236381, 38.70563799963775], [117.00961952955849, 38.69962768452157], [117.0083494283754, 38.68917477454147], [116.99687455909273, 38.689689368273335], [116.9868188905882, 38.69157086560096], [116.98842741455145, 38.695011675914586], [116.94531251346825, 38.68898481881221], [116.9413599960181, 38.689025993665325], [116.93974988941761, 38.68529124260897], [116.92501318678083, 38.68519143729764], [116.92100221941354, 38.68687561328809], [116.92151720865047, 38.67950208125534], [116.91193306638185, 38.67906274842196], [116.91543078687255, 38.686364967537415], [116.90458136474241, 38.68501458218837], [116.89751262188936, 38.68136287714897], [116.8902918890883, 38.67973116086174], [116.87150640471091, 38.680127382032666], [116.8698075403805, 38.68211458453815], [116.86971121668522, 38.692589269161], [116.86610834847241, 38.70129311860113], [116.86936959154241, 38.71204373864413], [116.86704472231652, 38.71555330267875], [116.86068389507564, 38.71640114898839], [116.8643379931296, 38.72929267566198], [116.86164475755005, 38.74527164786642], [116.85453489709165, 38.744353230205185], [116.85329844853838, 38.74068591390188], [116.80701671494616, 38.74361706343005], [116.7906192356622, 38.74595565382328], [116.7852912831253, 38.744321563227004], [116.78529188035102, 38.73931885348545], [116.77810442595596, 38.73759871637936], [116.77857954495187, 38.73977420140221], [116.77292762663329, 38.73987199865719], [116.76908347945722, 38.74204511512607], [116.76040673408941, 38.7411839188743], [116.75686294607003, 38.74978187525212], [116.75299436150169, 38.75411421183105], [116.74036340087494, 38.75348236782576], [116.74108071779867, 38.762113018655235], [116.74536524967287, 38.77942343133471], [116.73638628017207, 38.78006039847431], [116.73683340809372, 38.783244588596716], [116.7314089282851, 38.78370968711536], [116.73548945808743, 38.79543320104362], [116.73982894827533, 38.794968331914546], [116.74015430123104, 38.79780975987076], [116.7348248731626, 38.79844605356128], [116.73807854204522, 38.80453721349635], [116.73254574742806, 38.80626847933532], [116.73931093864455, 38.81595073933801], [116.74030005151573, 38.82383818445742], [116.74313562422343, 38.823631345698146], [116.74525022122396, 38.83047419413012], [116.73781767540177, 38.83076757221432], [116.73713899416795, 38.83412110820606], [116.74008004738255, 38.8506428095061], [116.71720998802586, 38.851738524575325], [116.71641919953933, 38.8962413796729], [116.70214142960636, 38.8962273498795], [116.70224503229798, 38.93103281996401], [116.70410061187563, 38.931114892175884], [116.70428932256421, 38.938203389756794], [116.71031773384297, 38.93812667914438], [116.71244373550734, 38.94213742321781], [116.7166965462483, 38.95567495829611], [116.71711553174543, 38.96573138953278], [116.71943219554186, 38.96559281641855], [116.72267039229432, 38.97448399210167], [116.72894619294547, 38.976987797054065], [116.72937924087555, 38.979735782707245], [116.7344095984939, 38.9799541605478], [116.73949379708951, 38.99051711729722], [116.74455317100278, 38.993109897373365], [116.74642374016682, 39.00256374514433], [116.74863545720949, 39.00232463626482], [116.75035740763836, 39.01217051932624], [116.74898635213907, 39.018209851573445], [116.75311134442939, 39.02027465433794], [116.75338199534839, 39.03071524973598], [116.74574144575993, 39.033580777489604], [116.74576788974063, 39.038033027237695], [116.75063778374819, 39.04937359380069], [116.75476331683156, 39.04962976760966], [116.76703720865426, 39.04595079052885], [116.76885643158407, 39.04949877433552], [116.7728635022769, 39.04849638446303], [116.77540360716966, 39.05252308181481], [116.77562014886963, 39.05753618605981], [116.78083718999959, 39.058410827300996], [116.78135334536442, 39.06100278864707], [116.79122038387857, 39.059344006660254], [116.79017454938771, 39.055421005093116], [116.77904408141742, 39.05477718929936], [116.77737342033099, 39.049267928807026], [116.78182990487358, 39.051762010949105], [116.79111295226545, 39.05351245565803], [116.79672696086953, 39.05000769603656], [116.81305851457094, 39.05006879517456], [116.81606442598678, 39.04589679035113], [116.82557173506714, 39.04867667831676], [116.83626273213537, 39.048560725634694], [116.8545937864394, 39.04976900056111], [116.8544572260995, 39.05273595132396], [116.86580831857619, 39.0538949676736], [116.86408168657476, 39.05883758330503], [116.86788693371527, 39.059764048613346], [116.86403940955965, 39.069119187616465], [116.87197656337504, 39.071805565921174], [116.87564472420073, 39.0709400767074], [116.87698895692758, 39.07716359052528], [116.88077933929165, 39.076502449172686], [116.88481214030088, 39.08407388972333], [116.88837003479703, 39.08354742825832], [116.89088135481443, 39.090895177915726], [116.89606678014664, 39.090197391569916], [116.90021774872754, 39.10231557910705], [116.90371766309299, 39.10228153427149], [116.90526356678842, 39.11025546456128], [116.91344143113156, 39.10844673358829], [116.91784720061659, 39.11781525397329], [116.92025925447876, 39.11883474593515], [116.9139425148077, 39.11914594692031], [116.91261274643585, 39.12274145893434], [116.91795439408762, 39.12319790665951], [116.91315328746087, 39.13776510264481], [116.90951945438376, 39.13745986893219], [116.90816185810276, 39.145346566817686], [116.90341418145307, 39.14994570132165], [116.88813060669534, 39.15390958151495], [116.86422063230903, 39.15281250218298], [116.8599516902713, 39.156672102902014], [116.859854649541, 39.172608515112884], [116.85724382111924, 39.174102679803255], [116.85846670713143, 39.18118539366545], [116.85733765552703, 39.18494546783143], [116.85730874948356, 39.20048440953497], [116.8549017022491, 39.204718196610884], [116.85117594572372, 39.204490247781784], [116.84991066672129, 39.21478224398504], [116.86580283531337, 39.216814303336506], [116.86977126426157, 39.21561203220653], [116.8687365773089, 39.229186101499906], [116.8735471330933, 39.22917473460982], [116.8744584172854, 39.22475320059908], [116.87770473746019, 39.22533414676418], [116.878806035526, 39.22036797558965], [116.88201137312032, 39.223585902025675], [116.88679207738512, 39.22307956658149], [116.88465905441146, 39.22666714733385], [116.88609804539327, 39.23029107876865], [116.88005438581375, 39.23186862306866], [116.87907588447787, 39.239675412026685], [116.87657646703931, 39.2377850908468], [116.87077431937207, 39.24004052646285], [116.86991592849502, 39.25294740621868], [116.872905543898, 39.25448204239926], [116.86578261840307, 39.268381818404706], [116.87047149477736, 39.26944216583024], [116.86889336504223, 39.282257458342755], [116.86652782570715, 39.29036321143486], [116.86100911228667, 39.28984484424808], [116.85733881688832, 39.291743353714345], [116.85667127182384, 39.29655183594167], [116.86103527273548, 39.297102130982566], [116.86206807947272, 39.301590320477914], [116.87836165971389, 39.304482274208546], [116.87622720121307, 39.312806005495275], [116.881226209075, 39.313422274385005], [116.88357519413788, 39.32219174535703], [116.88121105447708, 39.33126144376264], [116.88399519844845, 39.331773352005655], [116.88374944876793, 39.337242524456464], [116.87573559417818, 39.3397322853912], [116.86990565451451, 39.338248492905926], [116.8665077870815, 39.340299229309366], [116.86509447251677, 39.34593566250897], [116.86679271655692, 39.351831128863815], [116.87020332409533, 39.351733439887056], [116.86873539180955, 39.35538293835838], [116.86487493303422, 39.356533383964845], [116.85435397942945, 39.35322328869912], [116.85570056397809, 39.348588612771884], [116.85186590826744, 39.34664633097086], [116.8432594494719, 39.33849638382848], [116.84121830805886, 39.34277266837033], [116.83701604267532, 39.33972445081346], [116.82325144939456, 39.33784765264952], [116.81718283988296, 39.35685743156936], [116.82757397885779, 39.35940756006509], [116.82898797518027, 39.364945660764924], [116.82092307557008, 39.36258767126782], [116.8146661872297, 39.36558083490317], [116.81217688430631, 39.37247024608199], [116.81779312981286, 39.37190265018627], [116.83166703290064, 39.37308298003607], [116.8310273698754, 39.376868083434054], [116.83524281480227, 39.38050832010592], [116.83199157453498, 39.39009404890405], [116.83379960632651, 39.39301615410947], [116.82916152387928, 39.39601219003014], [116.82816796180016, 39.4016449206847], [116.83329537566198, 39.403605684877576], [116.83221965316291, 39.40940723994332], [116.8341508779555, 39.41261850553571], [116.83838083014236, 39.4115237772573], [116.84605128536528, 39.412843996118895], [116.84660887271198, 39.41584772910523], [116.85487529230286, 39.42324253633776], [116.85870875036208, 39.424215101211125], [116.85842270565948, 39.42952553949243], [116.86509775137846, 39.42639637267276], [116.87000323640713, 39.433578784672505], [116.86301701978545, 39.43623260784124], [116.85695384209544, 39.43583379226813], [116.84959765328311, 39.44233530377465], [116.84126053641486, 39.44037043393398], [116.84134301634481, 39.437639645522275], [116.83431101240417, 39.43861035552769], [116.82655892397237, 39.43443948625205], [116.82111729700587, 39.437551108888016], [116.82080384878519, 39.44460679638584], [116.80976007968472, 39.450641543502485], [116.8043340364451, 39.449699655950745], [116.8014380385326, 39.44452190251345], [116.79387846725199, 39.44852984771493], [116.78996373560936, 39.44572647786766], [116.786320603501, 39.45276011460983], [116.79196180049018, 39.44951076423216], [116.7920420795067, 39.456227353292114], [116.78841209865718, 39.46007204549417], [116.78561297345594, 39.459711657346595], [116.78413084986163, 39.46425521764946], [116.77907607564946, 39.464758481589726], [116.78283873628666, 39.47088333019926], [116.79310050022225, 39.47228698863309], [116.7924884223782, 39.47445635347597], [116.80524124615154, 39.47644239075251], [116.80472405494125, 39.479205556744844], [116.8147471883524, 39.481308278699736], [116.81129126592873, 39.49547328044416], [116.8050210243944, 39.49971708597849], [116.81042011686938, 39.500506080678385], [116.80799786088302, 39.5091790598796], [116.81970765094512, 39.511216388090375], [116.81712201795625, 39.52624096797789], [116.81966474892359, 39.5260766902463], [116.81601912072242, 39.53335482493818], [116.8123877391126, 39.531891726267226], [116.81362650909135, 39.52740428489959], [116.80968239525697, 39.52846498624936], [116.80020390017069, 39.52772041065887], [116.7970089380895, 39.529240012909675], [116.79590657502551, 39.53557447782089], [116.79245388213702, 39.53531556408484], [116.78924467956722, 39.544610500683746], [116.7814709714483, 39.54758225445753], [116.78305962880651, 39.55459607602167], [116.78634802419336, 39.55507486258067], [116.78553269579989, 39.55859589934111], [116.79208266318491, 39.56556458815634], [116.79085994821709, 39.56673159490499], [116.8012182206236, 39.570337049193974], [116.8024555546909, 39.57535075129411], [116.80563767879882, 39.57582989020384], [116.7942561794658, 39.58493772443961], [116.79187597809104, 39.593212343182486], [116.79846875951424, 39.59674318526241], [116.80228971105934, 39.59625834833478], [116.79765312044047, 39.60022911928395], [116.79921620502829, 39.60222806880371], [116.79384540478307, 39.60284687132676], [116.80381076360496, 39.607533237869866], [116.80124217339224, 39.60343299388043], [116.80215311800754, 39.5993054132946], [116.8079467159642, 39.599010159083484], [116.80605497572368, 39.603390924369755], [116.80974102163515, 39.60542778912093], [116.80638011484862, 39.614780925494884], [116.81353320838616, 39.617872742519594], [116.81799458649951, 39.616054231800085], [116.8190559629305, 39.612755905203436], [116.8294341466203, 39.61590557290849], [116.82815417144073, 39.62038820786563], [116.83248025674513, 39.62112315004984], [116.82038707508269, 39.63201428792458], [116.82294363077663, 39.63403263024979], [116.82091644130993, 39.63709024992049], [116.82858748927498, 39.640741862068055], [116.82759432802118, 39.64300756024207], [116.83480290468371, 39.64315600539031], [116.8331844702516, 39.64643436515691], [116.84546512173974, 39.651767715980846], [116.84400777926507, 39.6664625061225], [116.8545602005197, 39.66619344269741], [116.85790475822832, 39.66927614993338], [116.86725653572019, 39.670337183204175], [116.8773251308174, 39.674322898986304], [116.88525722944821, 39.6730436336529], [116.90075916069034, 39.67639765992781], [116.89930635943263, 39.68062487487227], [116.9031190767848, 39.68184173101594], [116.90005224005864, 39.68689693706524], [116.9066855480594, 39.688198196471454], [116.90538288519669, 39.694351513098326], [116.91095704030238, 39.698322281861245], [116.91101011902906, 39.705354240519284], [116.92648961300976, 39.70562929579142], [116.92888796157227, 39.70249994426639], [116.93173221524614, 39.70535289039916], [116.9448659102851, 39.705754606701376], [116.9466802231278, 39.69858417133863], [116.94240270802744, 39.701752693050935], [116.93861228089871, 39.6940853017046], [116.93818047050918, 39.68575128761694], [116.94547759189697, 39.677081839652196], [116.93950812162038, 39.675553757268894], [116.9397262371587, 39.66973637078204], [116.95151473321759, 39.66516569266437], [116.94935079671886, 39.65759355129407], [116.9517468321073, 39.6499939418174], [116.9583496553765, 39.642502548778616], [116.96534160360837, 39.647780357894], [116.96929042512666, 39.6437268329763], [116.96850757709694, 39.63567648636119], [116.97096866497415, 39.63524700502602], [116.98379647260401, 39.64033675679087], [116.99821749373392, 39.64330491910011], [117.00167630259838, 39.647370625680146], [117.00952817166566, 39.65282684913234], [117.02681652905176, 39.64939444965847], [117.03452478786147, 39.64665048739413], [117.05066328961547, 39.64322976415511], [117.07213740635726, 39.63653020010607], [117.08180034318784, 39.63210480510421], [117.09443901344142, 39.62825877117559], [117.09678587116579, 39.62377441148095], [117.10587822718239, 39.62301469322777], [117.1061635806101, 39.61998542954658], [117.12057252101667, 39.61559427008693], [117.11861580677525, 39.620534529904575], [117.12959354607857, 39.61670446073172], [117.13360244853429, 39.61958586235], [117.14140423456342, 39.621255552803945], [117.14769924110864, 39.624699783714306], [117.14380992980519, 39.627282992777936], [117.14852786914227, 39.6300310481782], [117.15149205358898, 39.635263987569076], [117.16639782337464, 39.63544280453243], [117.1665745775478, 39.639892251861085], [117.1714706272325, 39.64166106454162], [117.17125286787454, 39.64431614246888], [117.16262929906318, 39.64683759846853], [117.16281917712327, 39.6504752620592], [117.15756861500498, 39.65041471791789], [117.15701070088447, 39.657466420977656], [117.1524404380474, 39.659893948686914], [117.15314690768251, 39.66551018010605], [117.15820580712183, 39.665366161732116], [117.1596876669318, 39.67164276388544], [117.16367295409219, 39.672039002180384], [117.1612637343631, 39.68554436508982], [117.16391533358023, 39.68793287011319], [117.16184602848084, 39.70682725063224], [117.16425348143841, 39.70696666933755], [117.16270190945836, 39.71220307514527], [117.15783324687928, 39.71048744774203], [117.15711143577383, 39.71447460723665], [117.16275547899448, 39.71625962305583], [117.15985855245316, 39.72085071238974], [117.15424174112263, 39.71945485906444], [117.15239123093032, 39.72203730281379], [117.1467080412324, 39.72136785352167], [117.14881453871945, 39.72787748767922], [117.1472631327226, 39.73495405171541], [117.15403533384132, 39.735117519019305], [117.15389876396533, 39.737667974308216], [117.15966613213106, 39.73668137936193], [117.15540719585249, 39.746776569042595], [117.16662724798734, 39.750546611758935], [117.17831144551064, 39.75060245305296], [117.18051508921785, 39.75449110960385], [117.18641709541292, 39.75369094409691], [117.18855230233619, 39.7585422259617], [117.19535200129542, 39.75862190109576], [117.19951217438732, 39.76258025231105], [117.18583031860419, 39.774496768418054], [117.17418662257698, 39.781144671605304], [117.17229433042671, 39.79402199008902], [117.16130305507367, 39.798323183942], [117.15102231188557, 39.79536819382456], [117.15066740374728, 39.805393774295204], [117.15519610194207, 39.805671599212985], [117.14984964198409, 39.81612557362569], [117.15260968511488, 39.8205009666195], [117.15605118728256, 39.81647429139415], [117.16072943691685, 39.817866619824386], [117.16068776680461, 39.82238921900677], [117.1841095655044, 39.82506450965647], [117.18866594514327, 39.824195735684185], [117.18574067854581, 39.831783000896856], [117.19345208917511, 39.83329840630457], [117.19426772575054, 39.831308916541225], [117.20095814260154, 39.83371560497209], [117.2020462504578, 39.83012352439716], [117.20608392445973, 39.83104046362277], [117.21373671823544, 39.82937983249871], [117.21429478569254, 39.82593875390328], [117.21986584784186, 39.829707835644335], [117.23101880807083, 39.83267034406227], [117.25086651186865, 39.828559908898065], [117.24587185141185, 39.83336839023381], [117.24919562934137, 39.84143210556294], [117.25359216751674, 39.84215772820269], [117.24109017644624, 39.85981670589187], [117.23343223739289, 39.859206256902574], [117.23052675282919, 39.854549646083655], [117.22448214982869, 39.85565773498786], [117.22142534975124, 39.85152205957431], [117.21366526543966, 39.85529212173616], [117.20680078171341, 39.85499599569927], [117.20522418523682, 39.858248538289835], [117.19271421269356, 39.861011466266255], [117.18595427165462, 39.86081461139823], [117.17930334944423, 39.86511921684966], [117.17365877432876, 39.8639447542701], [117.17459704680424, 39.867893296716964], [117.17139972531986, 39.86955621786406], [117.1691289290604, 39.86550518221594], [117.16196046840501, 39.86533988066135], [117.1603692419925, 39.86759684824949], [117.16737377910444, 39.87172456947821], [117.16405394045151, 39.876169167459544], [117.16168813106617, 39.87168004213518], [117.15816573078978, 39.87145465153579], [117.15637002381106, 39.875228240586516], [117.15126993407068, 39.87737722951746], [117.14717667889136, 39.87425154348628], [117.14565406242006, 39.87608698119668], [117.15192063515296, 39.88794982044456], [117.14261903536762, 39.89489728587887], [117.14406039663412, 39.900681263525954], [117.15108922260397, 39.90322068703275], [117.15233972116746, 39.90784062515521], [117.13825396675499, 39.91017809278946], [117.1359961286812, 39.917404602855456], [117.13019246654514, 39.91823904622494], [117.13089892871857, 39.920245823961366], [117.14336342944432, 39.92285820583622], [117.13988229784654, 39.93174855242639], [117.14421814118683, 39.93465305629917], [117.14854313283858, 39.93277313760291], [117.15036459810497, 39.93666803290564], [117.14043719077026, 39.94588380129329], [117.144530442944, 39.94348119093727], [117.15214389780076, 39.949405555579304], [117.15803304073599, 39.95071288098932], [117.15992303458607, 39.954018166468025], [117.15838521406135, 39.96177907102208], [117.16593320321475, 39.9617259245784], [117.16947043926955, 39.957774686943644], [117.1732097266004, 39.96426543209015], [117.1721611816368, 39.9759489939527], [117.18166904052451, 39.977481628034035], [117.18470127163505, 39.98051803426168], [117.18445620886513, 39.98516439779305], [117.19169035392878, 39.99143894665146], [117.18930869907494, 40.002645317621976], [117.191239221115, 40.00929638684924], [117.18677746612464, 40.0154642504689], [117.18764740740708, 40.020261576095855], [117.18134924040814, 40.0245399649114], [117.18186532390376, 40.03123758216449], [117.18035425605184, 40.04055432014319], [117.182258049129, 40.04646150362166], [117.17693930953051, 40.051698373390266], [117.17530640206226, 40.05768298046325], [117.17760431258255, 40.061252056023214], [117.18557537899936, 40.060173749214414], [117.18591436639036, 40.06496706944765], [117.19610030584938, 40.06367277183148], [117.20288580065771, 40.06450747106646], [117.21146350813092, 40.063123649148714], [117.21650583233044, 40.06538270613703], [117.2133248052097, 40.069851603132015], [117.20870283357648, 40.07240137937886], [117.20660929349822, 40.078131073803114], [117.20335933024153, 40.08095112381213], [117.20870132941158, 40.08381661468967], [117.20460900804018, 40.08949238596864], [117.20483956733298, 40.09532429741595], [117.2180236625377, 40.093358538135305], [117.21798310602244, 40.09729119905308], [117.22220861362453, 40.0989934860754], [117.22261551278113, 40.10220363293283], [117.2295972911022, 40.10713316760124], [117.23182481411786, 40.110495431562114], [117.23896618893583, 40.11197804185148], [117.24286261084143, 40.11523901257832], [117.24913326957618, 40.112030090007025], [117.25399048794465, 40.112903618211234], [117.26042047983327, 40.11091888686106], [117.2635129047717, 40.10594383187633], [117.26794768514723, 40.104546240211064], [117.27023808318053, 40.10805628676282], [117.2690042561368, 40.112207867551824], [117.2789794304409, 40.120062243893], [117.29064429126733, 40.11757802743763], [117.29060406214369, 40.11998087402395], [117.29652177701648, 40.124641730471474], [117.30112498704194, 40.135671348067994], [117.30725870797983, 40.138650625783505], [117.31205198077879, 40.13719720057475], [117.31674969919092, 40.13938931143024], [117.32438582493123, 40.134419324787075], [117.3240610235559, 40.1323541446623], [117.34247199685316, 40.13514092857132], [117.34478729860035, 40.13854636891773], [117.34972919570855, 40.139528498649696], [117.3502702505205, 40.14365914344958], [117.34391996615308, 40.14343545115314], [117.34865792670296, 40.14720558270637], [117.34511100054412, 40.14917669191234], [117.35399229211463, 40.15557657027202], [117.35071452105467, 40.16286828401846], [117.3445117557573, 40.17028338165347], [117.3471245453092, 40.172293443247675], [117.35623877688523, 40.17075013856265], [117.35737545560886, 40.17528076350925], [117.36218495603646, 40.171579860987414], [117.36536763514482, 40.17511787703949], [117.37035372721532, 40.17489335337488], [117.37454170402103, 40.17102691546126], [117.37391817419073, 40.175476062897964], [117.38649832519904, 40.17346692800785], [117.3849247929176, 40.17617069590778], [117.39452683417474, 40.18217472840166], [117.39804081758498, 40.18178782524077], [117.40098504807582, 40.18605087387644], [117.39101232982568, 40.19147395734618], [117.38165556395575, 40.1868149141213], [117.37741288824803, 40.18639992404751], [117.37769642997934, 40.19383362766959], [117.37486411487484, 40.19336665621236], [117.37288499792116, 40.19749730713975], [117.37566244484178, 40.203132399651466], [117.3767609504272, 40.20091657048281], [117.38645349177767, 40.20194813166512], [117.37899671444426, 40.20645154009476], [117.3717584871993, 40.208874964044846], [117.37091691469362, 40.21718069365285], [117.38702136511708, 40.22021795272533], [117.38331793167853, 40.226527593220794], [117.39084370945348, 40.233718497564816], [117.3962978999361, 40.23197169832791], [117.39864511857505, 40.22873373138036], [117.4048466841771, 40.23415158207036], [117.40864859957817, 40.235410065988994], [117.40593153793232, 40.2420663131158], [117.40943407512312, 40.247467115473434], [117.42002852532926, 40.24663402530614], [117.4232627133989, 40.24509407141352], [117.42747631292467, 40.24667507541056], [117.43215221253799, 40.251559836256035], [117.44360459810191, 40.25105772746959], [117.45193404274815, 40.24678170578952], [117.45479160870606, 40.24695579672328], [117.46623021243465, 40.24181784521968], [117.46749756389146, 40.2397414520723], [117.47451197006563, 40.240380933852364], [117.47749727704876, 40.233966301500665], [117.48242938232856, 40.231212727147664], [117.49267688554832, 40.229665985228166], [117.49851071134913, 40.22594302859693], [117.50785956730535, 40.226473870763975], [117.51758905875337, 40.22841499849754], [117.52072368650127, 40.22777001924536], [117.54028451747811, 40.23176231390275], [117.54457398327412, 40.22689092698989], [117.54815489195873, 40.228542355622395], [117.55796774305696, 40.22792420869509], [117.56320650283239, 40.224343282223465], [117.5653695595439, 40.218139460581305], [117.56289437977013, 40.21278465873147], [117.55817357148392, 40.20989145471085], [117.55769823796992, 40.20411850174282], [117.56297782019364, 40.20305325457438], [117.56655525088864, 40.19921598427455], [117.56597087022261, 40.193811940864244], [117.56927616010884, 40.19079573631763], [117.56689721883451, 40.188929885800185], [117.5701353270565, 40.17750354856915], [117.57341251118412, 40.17686938206194], [117.57785827962995, 40.17067948359558], [117.58238465266615, 40.16722440633335], [117.594948833052, 40.17013396536488], [117.60373430095844, 40.159001542987646], [117.6068965839174, 40.156700730200896], [117.61235163114715, 40.156529932675284], [117.61221653848435, 40.15024970347728], [117.61528285038638, 40.14547812027752], [117.62424740194254, 40.14674587013771], [117.62607898580502, 40.139690587692115], [117.63068902320715, 40.13575444738138], [117.62975402154467, 40.13100208060309], [117.64387648462036, 40.12706812124562], [117.64223682650088, 40.12528990180959], [117.64685991904038, 40.1096397375605], [117.65126313796479, 40.10803631712878], [117.64397428517009, 40.104132934004696], [117.6420378179377, 40.09749753966961], [117.63860936292923, 40.0950999763821], [117.64331236857828, 40.09016806188656], [117.65150876642538, 40.09161615818128], [117.65450181375626, 40.09630048298343], [117.65738769213031, 40.095303307105056], [117.66178936681173, 40.09978277989761], [117.6682110264285, 40.09099724131528], [117.66857850373019, 40.080978246555716], [117.67298004426331, 40.08449955778768], [117.6818934170514, 40.081675773547346], [117.68456109091493, 40.09299997825879], [117.69008824204634, 40.093728829291265], [117.69755369745232, 40.09102708518415], [117.70148318542377, 40.092785549720475], [117.70534654904928, 40.08462716255627], [117.71558201157983, 40.078662551189225], [117.72409830491434, 40.07930915666303], [117.72743481424901, 40.07614534416387], [117.73812683778472, 40.07736518489528], [117.74519861959193, 40.080741570916004], [117.74913660735649, 40.07828722493231], [117.75201641832918, 40.07203263506977], [117.74695196763417, 40.07206684751201], [117.74786174899067, 40.067409034355684], [117.75175928503248, 40.06470208605095], [117.76137745541811, 40.06482224455171], [117.76281836060492, 40.06043413405822], [117.76972346923357, 40.05768032453494], [117.76654356427657, 40.05053067161729], [117.7606872506627, 40.046743031927754], [117.75185718657582, 40.043091341204516], [117.74147029021897, 40.046204718647665], [117.74048115537542, 40.03318577074216], [117.7373053578637, 40.030024330667715], [117.73835048764774, 40.02667599659996], [117.73771392685288, 40.01718675707315], [117.74940383494564, 40.00914002374162], [117.75202440352548, 40.01173091590227], [117.75145349457527, 40.016880650469616], [117.75422442227796, 40.01940476537141], [117.76093530462268, 40.017690614623824], [117.76392448937966, 40.02230171972986], [117.77603617950732, 40.02227736156367], [117.77775102403189, 40.01406738026192], [117.77951865973476, 40.01667703477325], [117.78555712367005, 40.01434494483751], [117.78536716029879, 40.011231859041175], [117.79068642690896, 40.00891580108064], [117.78656543631682, 40.00440064120023], [117.79008991605465, 39.99545059614725], [117.78512514972073, 39.99251540022071], [117.78027079322709, 39.980035437263155], [117.78082980564884, 39.97224135604484], [117.77549987488422, 39.96511337172584], [117.76573943985174, 39.96894502780416], [117.76265441857367, 39.967983498510606], [117.75712348745753, 39.97146742144153], [117.7500209891796, 39.96392293106585], [117.74568899068157, 39.9648323446507], [117.73519580611082, 39.97209405973735], [117.72750380346635, 39.969876637381425], [117.72130440143984, 39.971196482076195], [117.71754771686349, 39.97872634809557], [117.71303266105231, 39.978664933913066], [117.70487165839674, 39.983626237839324], [117.70030454153374, 39.98481133504637], [117.68933016184215, 39.984561168349174], [117.6826377362347, 39.98283956197595], [117.67931966453706, 39.97831701165829], [117.67575760173361, 39.97869378773953], [117.66841588734904, 39.97365707647556], [117.656929539206, 39.973627694607174], [117.65122703327427, 39.97104503138733], [117.63180766468085, 39.9711431335915], [117.62565381871896, 39.96763072335114], [117.61378677771296, 39.96959535370882], [117.60521078347087, 39.97421254180423], [117.6094035527148, 39.97771362998677], [117.60911821913051, 39.981467617130825], [117.60470698995488, 39.98155340076057], [117.59681992049738, 39.9866893227779], [117.59342434798775, 39.992681720719744], [117.58630644208036, 39.99360528366399], [117.58301843967942, 39.995791312477984], [117.57841094623151, 39.993061982195336], [117.57267427915049, 39.992769376725725], [117.56954697684262, 39.99534159290192], [117.56435171753063, 39.9940216175752], [117.56039311009633, 39.98989167640013], [117.55586156963746, 39.991768815422695], [117.55675932844088, 39.99456430105921], [117.54075056107922, 39.99779711666331], [117.53798658173707, 39.993312741206694], [117.53114886920208, 39.996224436225624], [117.53136757385167, 39.98881932219911], [117.53997647059033, 39.980288044062135], [117.541026273048, 39.97571069278819], [117.53261024253123, 39.96961232653601], [117.52994145121707, 39.96037676725109], [117.52807503024444, 39.96042281449637], [117.526563954867, 39.9513241173002], [117.52090978358899, 39.95117350061031], [117.51793965434885, 39.94545429952784], [117.51321079828826, 39.94722654197188], [117.50853733930495, 39.94546084861542], [117.50470845912005, 39.93983968114087], [117.5060455455348, 39.93244797404042], [117.51912725208516, 39.92842638883797], [117.51566709082391, 39.92359766201327], [117.51557228269202, 39.91943556473018], [117.50796849031317, 39.920221208000996], [117.49702495164668, 39.917745608837215], [117.49821092033473, 39.91444630095939], [117.50720520762131, 39.91545014526854], [117.50632064017775, 39.90929678209775], [117.50794331321535, 39.905610772354386], [117.50099244319014, 39.90781392325608], [117.49747653973851, 39.903623582434676], [117.50074714718183, 39.90292640825752], [117.50365163075938, 39.89258458134853], [117.51042426745822, 39.893953652444345], [117.51241429231456, 39.89008268952065], [117.51465229466095, 39.87017622938752], [117.52345588665675, 39.859813826984], [117.527803366963, 39.85080120169974], [117.53085469478285, 39.85168722021735], [117.53842842489011, 39.843457733703396], [117.53944915151855, 39.84690096069702], [117.54226802968435, 39.84441068678855], [117.54181941473874, 39.83879201198409], [117.5367951031026, 39.83702617586616], [117.5380346886319, 39.83188353312197], [117.53095231821739, 39.83400758276713], [117.53454996933783, 39.82078870922988], [117.54255766323733, 39.822950772147216], [117.55216986712274, 39.81041604124409], [117.55519284585787, 39.79894366659685], [117.56201023154607, 39.798162307271014], [117.55414594298597, 39.79391214937634], [117.54838796382548, 39.79427172478545], [117.54860641355661, 39.78762075596838], [117.54685112720934, 39.78339643873019], [117.54234458211924, 39.779907791906616], [117.53985368140411, 39.77502246282985], [117.54858157203395, 39.770314322178145], [117.54410408037981, 39.761843537543704], [117.53984125194374, 39.76254367448745], [117.53285535107119, 39.759299801009035], [117.53702284481655, 39.75949621377434], [117.54249815737354, 39.755692566376226], [117.54919536881762, 39.76144948703811], [117.55357860706245, 39.754448885914535], [117.56136232045138, 39.755712313310795], [117.5673201595734, 39.753846236431414], [117.56880311250926, 39.751044481403525], [117.57522136350894, 39.74787612036944], [117.58970746478765, 39.74508113882783], [117.58533296177733, 39.741971563251994], [117.59124344264221, 39.735536737982855], [117.58722234386128, 39.7341504373891], [117.5837442889979, 39.736885249053884], [117.58165223594494, 39.72978773884645], [117.57780588605247, 39.73061258622504], [117.57724975729484, 39.726269637348985], [117.57141761079377, 39.725875662361524], [117.57196192336846, 39.7222087612742], [117.57897648750736, 39.7210328087745], [117.57385221653705, 39.718392336173125], [117.58225226973423, 39.71843361959859], [117.58615193477162, 39.715698294168874], [117.58733453417469, 39.70969868257281], [117.59625798006226, 39.70432668073092], [117.60871883253213, 39.70493188909078], [117.61477029812049, 39.70190268960857], [117.62094139722896, 39.70259043043554], [117.62827763969976, 39.699895935811305], [117.63070468150127, 39.69571756129309], [117.63638309095704, 39.70025619830752], [117.64074765338431, 39.69855994879481], [117.64275355987526, 39.69375552727085], [117.63775336720539, 39.68761012807251], [117.6436899973394, 39.68432149684208], [117.64457075831801, 39.68083663076031], [117.65119638184922, 39.68172127215331], [117.64698351812746, 39.67713024853941], [117.6539606527721, 39.673363748516856], [117.65079103407258, 39.66755234950559], [117.65760591944971, 39.66475060406374], [117.66206295209267, 39.66597609207239], [117.66127740286333, 39.66046454130792], [117.65733654301268, 39.656649547434675], [117.66148223707873, 39.6504179981366], [117.65908520880306, 39.64507748586238], [117.66022312492126, 39.64181000134824], [117.6557537040258, 39.63523753891122], [117.6469745264034, 39.63807835178589], [117.64528139729522, 39.63376702604213], [117.64670422944913, 39.62892565678207], [117.64467245474076, 39.62686543926545], [117.63759815615389, 39.62863604184201], [117.63578239338314, 39.6273529246611], [117.63841250843606, 39.62262809857446], [117.63391354866279, 39.61865736662492], [117.63514742366645, 39.61178516488379], [117.62595685812606, 39.61269358740927], [117.62414011141962, 39.605080280246995], [117.61832290857156, 39.601649645339805], [117.6138602577315, 39.60544421061567], [117.61288338260314, 39.602178609925375], [117.6157616167239, 39.59064931226231], [117.62033194642096, 39.59325283167863], [117.62601223251002, 39.60130410434962], [117.63063463374172, 39.60265225839944], [117.63096091228094, 39.59664324436551], [117.6331850842701, 39.59206941552021], [117.64479851541329, 39.593101788261215], [117.64955484424488, 39.58710125110238], [117.64948734422019, 39.584257068317434], [117.64448901160762, 39.57817097276683], [117.64943477797976, 39.57384479037739], [117.65458299169852, 39.5743095914994], [117.66539240953516, 39.580943800832266], [117.66753170887722, 39.587914993370354], [117.67536095220336, 39.58886475030662], [117.6795867633328, 39.5870621338072], [117.68729597837026, 39.579903531336306], [117.6995312662979, 39.57532743678444], [117.70224173578694, 39.5726307896886], [117.70191696229007, 39.56756862456557], [117.69774402708414, 39.56422228754416], [117.69098340689438, 39.56364110308444], [117.68250179472552, 39.56809345623803], [117.67938725468483, 39.563307604312214], [117.68330229962478, 39.558388557938116], [117.68946648896429, 39.55617584210057], [117.69736575711714, 39.5563480511977], [117.70210938298946, 39.55391901133733], [117.70238078999768, 39.54705850765333], [117.70086410615897, 39.54225028872437], [117.70251785531032, 39.53692921626489], [117.7096072761027, 39.52892208410416], [117.71714423755239, 39.5339438557791], [117.726583350023, 39.534916815219326], [117.7316701726237, 39.539232524123605], [117.73850817475082, 39.54742720874654], [117.72971378247374, 39.55962722679319], [117.72941510731191, 39.566434633132275], [117.73136700052503, 39.572850494723504], [117.74180323102844, 39.5732179283111], [117.74675913783453, 39.57480833547809], [117.748780874524, 39.57992181839985], [117.74150331987242, 39.588201265492756], [117.76134363880267, 39.59779958550466], [117.76906283073464, 39.59792276291376], [117.78300081819627, 39.596006015672735], [117.78759726475649, 39.59987066295921], [117.79563866726451, 39.60059259335841], [117.81110040982352, 39.59433834115226], [117.8203174573999, 39.58968316298171], [117.83314310734936, 39.58852141043994], [117.84086169497141, 39.59004225537521], [117.84521794147837, 39.58817149278233], [117.84732826521022, 39.5912224345065], [117.85118050625489, 39.590958043097366], [117.86213494418868, 39.59578190899692], [117.87799783550487, 39.58908050572331], [117.88649540876435, 39.590475851928005], [117.89373971406204, 39.58848182240405], [117.90877622884935, 39.58191359591606], [117.92399054651608, 39.57711172335228], [117.92791154409147, 39.57311147358454], [117.9250499381896, 39.56713722431233], [117.9187147460832, 39.56228328317498], [117.91186178539118, 39.55359886234914], [117.91104862763933, 39.547298988631574], [117.90723414000408, 39.54113404244717], [117.90374419976868, 39.54094870476658], [117.90374469898374, 39.536967866336354], [117.8993168539246, 39.53408771686437], [117.89922241931389, 39.52910719688533], [117.90434316361868, 39.52698878063186], [117.90337941391091, 39.52216035642267], [117.90662561793413, 39.52041440026662], [117.90621918709714, 39.51514513539247], [117.90298765333043, 39.510993889196996], [117.89251255592696, 39.50868692593041], [117.89096652115148, 39.48829704611555], [117.88631828999124, 39.48603930553741], [117.89045041111513, 39.4847200385264], [117.89365875875212, 39.47588841929298], [117.89212382209665, 39.47151341193825], [117.88224181211962, 39.46816671147669], [117.88022999969054, 39.46577491844914], [117.87197429023591, 39.46619046189894], [117.86797672613856, 39.453908180891126], [117.86422156894757, 39.45393721342346], [117.86575039087444, 39.41056147773654], [117.84091202101028, 39.40704302090401], [117.8419747390598, 39.40091853201981], [117.85324566327402, 39.40227835811209], [117.85637731017472, 39.3961569764438], [117.8543638436672, 39.38366023923259], [117.85959048386802, 39.37728617594803], [117.85190195307598, 39.372486223667664], [117.84625209628841, 39.37975934444507], [117.84314886108533, 39.37802263809905], [117.83278803869918, 39.37625443690916], [117.81476327487236, 39.375848148007606], [117.79901492342026, 39.372205099138974], [117.79709780678544, 39.36094530786241], [117.80050060894635, 39.3558559490056], [117.81020580683185, 39.35327440429235], [117.81477895927587, 39.35504771264337], [117.82700523622671, 39.35527422137615], [117.83084485572758, 39.34979599135527], [117.847084857013, 39.35972690174272], [117.84193802536988, 39.36610186276041], [117.84592662043777, 39.36860480321665], [117.84860919381148, 39.36555284085923], [117.84709861221368, 39.361967888923026], [117.85454378877209, 39.363814480782175], [117.85681676979453, 39.36128723391184], [117.84719529293157, 39.35065833296179], [117.8438203156989, 39.34136182751571], [117.83999468549382, 39.34184770991151], [117.83576161707181, 39.3354030387816], [117.84182008694948, 39.33123514548663], [117.84071850483444, 39.32749598517443], [117.84349530868882, 39.326379525727674], [117.84962055263016, 39.328242269886736], [117.84918505666295, 39.331010176586894], [117.85522834500814, 39.33321105610432], [117.86116224946457, 39.32888819798214], [117.87245415013844, 39.330856879894135], [117.88249031650827, 39.33095145092241], [117.88696304101778, 39.3264357694184], [117.88610747235462, 39.32213735685913], [117.89657271864084, 39.31954215507004], [117.89969739354271, 39.31520977825272], [117.90427413228845, 39.318590998226185], [117.92737294790359, 39.318100520299176], [117.93342124831489, 39.31664847487816], [117.94131029497603, 39.316822929423346], [117.94557980432296, 39.314436336730694], [117.95993729462151, 39.315424784227204], [117.96615293718091, 39.313336343757776], [117.96639680711931, 39.30895192513939], [117.97148835062555, 39.29964318443766], [117.97652340781788, 39.297641300022825], [117.97760645386528, 39.29447687381117], [117.98595566272823, 39.29560806781605], [117.98901500895134, 39.29247158895973], [117.98951595160503, 39.28772855826252], [118.00017817927768, 39.28840994452143], [118.01058408417038, 39.282990308600134], [118.01594222589634, 39.28581293288505], [118.01844451413378, 39.291278780281026], [118.02211225344367, 39.28924530999072], [118.02538886781218, 39.28422173418696], [118.0221278305423, 39.276530950193006], [118.02899054692467, 39.27350253885373], [118.02709552495645, 39.27039635012348], [118.0305073925591, 39.26385864068745], [118.05727241324021, 39.25560253642636], [118.0583965908096, 39.254699034573214], [118.05922684344534, 39.23420390622507], [118.05835983940764, 39.229986771322146], [118.0307560947792, 39.229368965039434], [118.02856496121058, 39.217448574471376], [118.02653380054194, 39.21874738331809], [117.97129677406807, 39.204974387043634], [117.96715682279945, 39.18784830083576], [117.95851979807819, 39.17176620487763], [117.91967547748513, 39.15056308040751], [117.86558300270971, 39.121743077038104], [117.85294294149581, 39.10565700365968], [117.84031239986398, 39.08755318557227], [117.83428333722408, 39.072917098751475], [117.83123580757366, 39.0561517578462], [117.83291356129419, 39.032022798878614], [117.8413027862714, 39.009910879885076], [117.84461304750963, 38.99211772709729], [117.84644066987515, 38.96224713257559], [117.8492588140898, 38.95687323405662], [117.89190336197626, 38.94790539373323], [117.89308638473244, 38.94085207663558], [117.88641492087767, 38.924364567926965], [117.86953923114666, 38.91965053586193], [117.85344607322943, 38.88826866139367], [117.8550119255424, 38.88080144636108], [117.85384320054881, 38.87098612743969], [117.84128088593964, 38.85490846711479], [117.82793851496218, 38.854507963448654], [117.81578130079888, 38.85646832225875], [117.77221504831199, 38.868240937804956], [117.76240238384725, 38.863139700583886], [117.74591498297994, 38.84666857688732], [117.68301420078454, 38.83634343530752], [117.65159994566544, 38.8354779130211], [117.63997518909507, 38.82843186194027], [117.64033250122998, 38.788198160001365], [117.64834265864795, 38.777640419818496], [117.66537124579176, 38.77130851210802], [117.72281580114907, 38.7640050190194], [117.73011422502911, 38.760591218274115], [117.73499949832946, 38.753154463651896], [117.73449045591215, 38.69926861366905], [117.73252479883676, 38.68835032550609], [117.72281237278267, 38.679322073066906], [117.65060556866912, 38.65987661791166], [117.64312687062667, 38.653903318986586], [117.63614950626446, 38.6426778941188], [117.63295262854919, 38.62614194920552], [117.57608226510244, 38.618005711068285], [117.55169475269736, 38.6132152226235], [117.5484138096098, 38.616418563036554], [117.54074896302805, 38.61724233807712], [117.53611948204504, 38.611173120373266], [117.5324017834313, 38.60910338401631], [117.53528986341065, 38.60294859121164], [117.52294869475932, 38.600117770873695], [117.51798891092643, 38.60058462602079], [117.52069999830917, 38.605947706113234], [117.51700772076217, 38.605680265237595], [117.51760624320605, 38.6109513542334], [117.51019412709374, 38.60965914962781], [117.50534253357664, 38.61323261544053], [117.49907395680411, 38.61326483872629], [117.49662025683473, 38.61717124875658], [117.48907148036787, 38.614762567141184], [117.47254503608916, 38.61643216287855], [117.47513445241543, 38.610740995202875], [117.46967266928642, 38.60808315335055], [117.46510997001141, 38.61042271735042], [117.42594062398655, 38.600428980815146], [117.4090559011957, 38.589722821540015], [117.40354348825394, 38.59303494700213], [117.39470989441723, 38.587112950013896], [117.4027167608607, 38.58424443161785], [117.38981449205095, 38.57366978965213], [117.36259759667577, 38.56389041012967], [117.36241973865924, 38.581596971694026], [117.34833420022336, 38.57990329859744], [117.35162623703837, 38.56969633420035], [117.34438228722627, 38.5649863156275], [117.34408460821295, 38.5606919427795], [117.34003594197765, 38.5641005393182], [117.31859105279663, 38.56383242218556], [117.3091004629418, 38.556927581863235], [117.3020048716934, 38.554826317777064], [117.29935024904847, 38.55586140203633], [117.29780496189028, 38.56386886333202], [117.29365973159099, 38.57072841542906], [117.28534241127991, 38.57094574299922], [117.28596630851027, 38.561687336804255], [117.27271292489812, 38.5593650897606], [117.25918054484313, 38.55602422934776], [117.25733542877306, 38.56157246920745], [117.24698300868113, 38.55547604666052], [117.24028978402359, 38.566158905541144], [117.23887773903223, 38.566226364589085], [117.23322823252798, 38.578005421372715], [117.23610695027737, 38.57802400274286], [117.25613872017324, 38.58302312145262], [117.25509411067192, 38.586011529521635], [117.23215458396331, 38.58032312003381], [117.23161086080225, 38.58454659486725], [117.2391462635546, 38.59459467478996], [117.25046542342027, 38.59763575820025], [117.2489186102241, 38.601738548365134], [117.25332826560266, 38.60233908458418], [117.25272997818304, 38.607608558691055], [117.24975785103167, 38.613084056760584], [117.24032441101272, 38.617939947401574], [117.23103645268162, 38.61848400242167], [117.22890389191524, 38.623218935210865], [117.22447523541118, 38.6232672386184], [117.2303967018351, 38.63047861792948], [117.21883586203933, 38.63003937250693], [117.22345507210262, 38.63491740486747], [117.22411980521025, 38.6409569405927], [117.21888829629923, 38.64311394474559], [117.21067967627225, 38.6421603762758], [117.20673806197492, 38.63892908398779], [117.20404755796062, 38.629282445443046], [117.19697794994627, 38.628911506111066], [117.19754925827777, 38.625668514273436], [117.19398704879805, 38.62111509934098], [117.18303894968366, 38.62056395214935], [117.17981662158964, 38.61573557315212], [117.17757224470083, 38.61737888003819], [117.17030862621422, 38.6174172671908], [117.16080245136548, 38.61429260726694], [117.15901998963768, 38.616400694987604], [117.14478240222161, 38.61685716448714], [117.14449802788106, 38.60846335138132]], [[117.66696078084031, 39.38562942685722], [117.66457475968137, 39.40423593992956], [117.66286670819025, 39.410976343611125], [117.65752938133947, 39.41136013617566], [117.64880600939249, 39.408727757184046], [117.65009268208505, 39.406485482751904], [117.63730202582555, 39.40486069509351], [117.6356754759617, 39.39917744589531], [117.62965800288221, 39.3975221496196], [117.6289382760878, 39.40349648594147], [117.62550790417548, 39.403331542705516], [117.62481624349621, 39.4075575173112], [117.60798296306588, 39.406145185552624], [117.60815938511918, 39.41009944767702], [117.6051603005878, 39.41205181710525], [117.60494185299909, 39.41614119698188], [117.59523491277422, 39.41851733073461], [117.5956433871599, 39.415446628746864], [117.59099900537997, 39.41407134779141], [117.58449299660663, 39.40449753733732], [117.56935016092056, 39.403228178816576], [117.56495724886145, 39.40362909758301], [117.5653114614973, 39.39933643101326], [117.56251035785503, 39.39625959783997], [117.55412865282797, 39.39549859859524], [117.5547275470129, 39.392037211144654], [117.54747284601518, 39.391565015556814], [117.55167989724823, 39.38459665245184], [117.54665785753211, 39.38156467262856], [117.5377386127146, 39.38022085736096], [117.53889663147062, 39.376930116368705], [117.53267281310752, 39.376285968404176], [117.52906312520568, 39.37296604470567], [117.53099897880611, 39.362647841523035], [117.52789359695441, 39.36136622493929], [117.5231384172844, 39.36559830195782], [117.51988185760997, 39.36453665309056], [117.52225293711984, 39.36028128463966], [117.51455537913817, 39.356150233085856], [117.52299134501573, 39.346357869664615], [117.52736348072635, 39.347915093013285], [117.52996675970363, 39.337018231510946], [117.56357837117486, 39.34165806257927], [117.58914631560042, 39.3481869929971], [117.59137394790089, 39.34414562490562], [117.60081142389889, 39.346031297246256], [117.60309158521994, 39.34222666599567], [117.61052850110012, 39.34348109253433], [117.6111938952114, 39.33714475797487], [117.62914960553726, 39.34283560099857], [117.63594005925674, 39.34340433388055], [117.63599560764493, 39.338308699047985], [117.63138731972293, 39.335019547759686], [117.63638890786824, 39.33069782869651], [117.64029324737349, 39.32177342638316], [117.64463027033861, 39.321154872498724], [117.64463113894286, 39.31423932029891], [117.65762325494296, 39.315881826555035], [117.66309532746091, 39.32314300433297], [117.66471645606708, 39.35682175671591], [117.68128229597994, 39.358166492728365], [117.68592942384639, 39.356900414603636], [117.6998994632197, 39.350440080294646], [117.73826225593476, 39.35347161725213], [117.77825582541831, 39.37587958848623], [117.7760369989234, 39.39349769094504], [117.75920949819087, 39.39951150944834], [117.73094037153476, 39.40941115542824], [117.69344161189944, 39.40650691990028], [117.69603193338538, 39.38783348751587], [117.66696078084031, 39.38562942685722]]]}}