{"type": "Feature", "properties": {"unit_id": "tianjin_120114", "name": "武清区", "district_codes": [120114]}, "geometry": {"type": "MultiPolygon", "coordinates": [[[[117.3177762954076, 39.328469673395894], [117.32157938752188, 39.3387225049602], [117.31635276844182, 39.34753115549033], [117.32206571488487, 39.34887873633956], [117.31433506880477, 39.34936903069753], [117.30990635845313, 39.35464161241496], [117.31021764519258, 39.36148387575985], [117.30852467018819, 39.36520618391213], [117.29671511652747, 39.3677557195524], [117.29315210399616, 39.37786252936858], [117.29924651839525, 39.379397478907954], [117.30286176834701, 39.38523196096703], [117.30705856037653, 39.388262438238414], [117.30153238861978, 39.39864235236695], [117.3069222347575, 39.40131504546572], [117.3066375176392, 39.40489602500868], [117.31390863044949, 39.40052182923627], [117.31254230949125, 39.39307353358989], [117.31864811690055, 39.39628680757954], [117.31780795624927, 39.40009075887676], [117.32593104337732, 39.393879976554054], [117.33370149441184, 39.399754563168486], [117.33070947444223, 39.40271302668546], [117.3279991924309, 39.41727814944962], [117.32343646320572, 39.421545151126246], [117.31918513416925, 39.430952451475854], [117.31902200775508, 39.435430989825484], [117.3158531144157, 39.44059391407475], [117.32079413873483, 39.442568855092624], [117.31888514596987, 39.4450155260528], [117.31429601729911, 39.44346369017958], [117.31244064094423, 39.446790818372925], [117.30390912562682, 39.45486181957595], [117.30110557381104, 39.45978467120455], [117.29801703344155, 39.46073929518358], [117.29314045342961, 39.46868282626872], [117.28716605486619, 39.4719459444355], [117.28879108006618, 39.4762172667127], [117.29312539322267, 39.47717682143734], [117.2918116996735, 39.48226494448801], [117.28881706635319, 39.483659630859286], [117.28813865887071, 39.49025428333812], [117.28233975710282, 39.494635063298894], [117.27601105325265, 39.49445487740244], [117.27247314688006, 39.49832279546556], [117.26553166809889, 39.49732816132038], [117.26394421074582, 39.499685291031014], [117.2592250568755, 39.499314573250366], [117.25998334984696, 39.50716072074639], [117.26569290013342, 39.50959806148047], [117.26409213925285, 39.51453042129402], [117.25724192762002, 39.52143017133272], [117.24881596438492, 39.52246500723064], [117.2480688227651, 39.52586993882], [117.25559952665523, 39.52668300036006], [117.2593166704266, 39.52507235961875], [117.26959569045697, 39.52642217028835], [117.26853746280506, 39.531590385487505], [117.24774158828721, 39.54423450222284], [117.2392029888804, 39.54385969489851], [117.23890544331447, 39.54020063340937], [117.23552334472426, 39.545195650746486], [117.22676356104009, 39.54668031302724], [117.23238554270999, 39.552273850589536], [117.22132714000091, 39.5585650181957], [117.20585942165326, 39.56994287013101], [117.19377079659658, 39.57769582801441], [117.18258986030318, 39.58583602660363], [117.16740995557252, 39.595237472540646], [117.15916686451833, 39.601450823648506], [117.1402366864802, 39.61299559119291], [117.14321361901283, 39.61526761980946], [117.14140423456342, 39.621255552803945], [117.13360244853429, 39.61958586235], [117.12959354607857, 39.61670446073172], [117.11861580677525, 39.620534529904575], [117.12057252101667, 39.61559427008693], [117.1061635806101, 39.61998542954658], [117.10587822718239, 39.62301469322777], [117.09678587116579, 39.62377441148095], [117.09443901344142, 39.62825877117559], [117.08180034318784, 39.63210480510421], [117.07213740635726, 39.63653020010607], [117.05066328961547, 39.64322976415511], [117.03452478786147, 39.64665048739413], [117.02681652905176, 39.64939444965847], [117.00952817166566, 39.65282684913234], [117.00167630259838, 39.647370625680146], [116.99821749373392, 39.64330491910011], [116.98379647260401, 39.64033675679087], [116.97096866497415, 39.63524700502602], [116.96850757709694, 39.63567648636119], [116.96929042512666, 39.6437268329763], [116.96534160360837, 39.647780357894], [116.9583496553765, 39.642502548778616], [116.9517468321073, 39.6499939418174], [116.94935079671886, 39.65759355129407], [116.95151473321759, 39.66516569266437], [116.9397262371587, 39.66973637078204], [116.93950812162038, 39.675553757268894], [116.94547759189697, 39.677081839652196], [116.93818047050918, 39.68575128761694], [116.93861228089871, 39.6940853017046], [116.94240270802744, 39.701752693050935], [116.9466802231278, 39.69858417133863], [116.9448659102851, 39.705754606701376], [116.93173221524614, 39.70535289039916], [116.92888796157227, 39.70249994426639], [116.92648961300976, 39.70562929579142], [116.91101011902906, 39.705354240519284], [116.91095704030238, 39.698322281861245], [116.90538288519669, 39.694351513098326], [116.9066855480594, 39.688198196471454], [116.90005224005864, 39.68689693706524], [116.9031190767848, 39.68184173101594], [116.89930635943263, 39.68062487487227], [116.90075916069034, 39.67639765992781], [116.88525722944821, 39.6730436336529], [116.8773251308174, 39.674322898986304], [116.86725653572019, 39.670337183204175], [116.85790475822832, 39.66927614993338], [116.8545602005197, 39.66619344269741], [116.84400777926507, 39.6664625061225], [116.84546512173974, 39.651767715980846], [116.8331844702516, 39.64643436515691], [116.83480290468371, 39.64315600539031], [116.82759432802118, 39.64300756024207], [116.82858748927498, 39.640741862068055], [116.82091644130993, 39.63709024992049], [116.82294363077663, 39.63403263024979], [116.82038707508269, 39.63201428792458], [116.83248025674513, 39.62112315004984], [116.82815417144073, 39.62038820786563], [116.8294341466203, 39.61590557290849], [116.8190559629305, 39.612755905203436], [116.81799458649951, 39.616054231800085], [116.81353320838616, 39.617872742519594], [116.80638011484862, 39.614780925494884], [116.80974102163515, 39.60542778912093], [116.80605497572368, 39.603390924369755], [116.8079467159642, 39.599010159083484], [116.80215311800754, 39.5993054132946], [116.80124217339224, 39.60343299388043], [116.80381076360496, 39.607533237869866], [116.79384540478307, 39.60284687132676], [116.79921620502829, 39.60222806880371], [116.79765312044047, 39.60022911928395], [116.80228971105934, 39.59625834833478], [116.79846875951424, 39.59674318526241], [116.79187597809104, 39.593212343182486], [116.7942561794658, 39.58493772443961], [116.80563767879882, 39.57582989020384], [116.8024555546909, 39.57535075129411], [116.8012182206236, 39.570337049193974], [116.79085994821709, 39.56673159490499], [116.79208266318491, 39.56556458815634], [116.78553269579989, 39.55859589934111], [116.78634802419336, 39.55507486258067], [116.78305962880651, 39.55459607602167], [116.7814709714483, 39.54758225445753], [116.78924467956722, 39.544610500683746], [116.79245388213702, 39.53531556408484], [116.79590657502551, 39.53557447782089], [116.7970089380895, 39.529240012909675], [116.80020390017069, 39.52772041065887], [116.80968239525697, 39.52846498624936], [116.81362650909135, 39.52740428489959], [116.8123877391126, 39.531891726267226], [116.81601912072242, 39.53335482493818], [116.81966474892359, 39.5260766902463], [116.81712201795625, 39.52624096797789], [116.81970765094512, 39.511216388090375], [116.80799786088302, 39.5091790598796], [116.81042011686938, 39.500506080678385], [116.8050210243944, 39.49971708597849], [116.81129126592873, 39.49547328044416], [116.8147471883524, 39.481308278699736], [116.80472405494125, 39.479205556744844], [116.80524124615154, 39.47644239075251], [116.7924884223782, 39.47445635347597], [116.79310050022225, 39.47228698863309], [116.78283873628666, 39.47088333019926], [116.77907607564946, 39.464758481589726], [116.78413084986163, 39.46425521764946], [116.78561297345594, 39.459711657346595], [116.78841209865718, 39.46007204549417], [116.7920420795067, 39.456227353292114], [116.79196180049018, 39.44951076423216], [116.786320603501, 39.45276011460983], [116.78996373560936, 39.44572647786766], [116.79387846725199, 39.44852984771493], [116.8014380385326, 39.44452190251345], [116.8043340364451, 39.449699655950745], [116.80976007968472, 39.450641543502485], [116.82080384878519, 39.44460679638584], [116.82111729700587, 39.437551108888016], [116.82655892397237, 39.43443948625205], [116.83431101240417, 39.43861035552769], [116.84134301634481, 39.437639645522275], [116.84126053641486, 39.44037043393398], [116.84959765328311, 39.44233530377465], [116.85695384209544, 39.43583379226813], [116.86301701978545, 39.43623260784124], [116.87000323640713, 39.433578784672505], [116.86509775137846, 39.42639637267276], [116.85842270565948, 39.42952553949243], [116.85870875036208, 39.424215101211125], [116.85487529230286, 39.42324253633776], [116.84660887271198, 39.41584772910523], [116.84605128536528, 39.412843996118895], [116.83838083014236, 39.4115237772573], [116.8341508779555, 39.41261850553571], [116.83221965316291, 39.40940723994332], [116.83329537566198, 39.403605684877576], [116.82816796180016, 39.4016449206847], [116.82916152387928, 39.39601219003014], [116.83379960632651, 39.39301615410947], [116.83199157453498, 39.39009404890405], [116.83524281480227, 39.38050832010592], [116.8310273698754, 39.376868083434054], [116.83166703290064, 39.37308298003607], [116.81779312981286, 39.37190265018627], [116.81217688430631, 39.37247024608199], [116.8146661872297, 39.36558083490317], [116.82092307557008, 39.36258767126782], [116.82898797518027, 39.364945660764924], [116.82757397885779, 39.35940756006509], [116.81718283988296, 39.35685743156936], [116.82325144939456, 39.33784765264952], [116.83701604267532, 39.33972445081346], [116.84121830805886, 39.34277266837033], [116.8432594494719, 39.33849638382848], [116.85186590826744, 39.34664633097086], [116.85570056397809, 39.348588612771884], [116.85435397942945, 39.35322328869912], [116.86487493303422, 39.356533383964845], [116.86873539180955, 39.35538293835838], [116.87020332409533, 39.351733439887056], [116.86679271655692, 39.351831128863815], [116.86509447251677, 39.34593566250897], [116.8665077870815, 39.340299229309366], [116.86990565451451, 39.338248492905926], [116.87573559417818, 39.3397322853912], [116.88374944876793, 39.337242524456464], [116.88399519844845, 39.331773352005655], [116.88121105447708, 39.33126144376264], [116.88357519413788, 39.32219174535703], [116.881226209075, 39.313422274385005], [116.87622720121307, 39.312806005495275], [116.87836165971389, 39.304482274208546], [116.86206807947272, 39.301590320477914], [116.86103527273548, 39.297102130982566], [116.85667127182384, 39.29655183594167], [116.85733881688832, 39.291743353714345], [116.86100911228667, 39.28984484424808], [116.86652782570715, 39.29036321143486], [116.86889336504223, 39.282257458342755], [116.87047149477736, 39.26944216583024], [116.86578261840307, 39.268381818404706], [116.872905543898, 39.25448204239926], [116.86991592849502, 39.25294740621868], [116.87077431937207, 39.24004052646285], [116.87657646703931, 39.2377850908468], [116.87907588447787, 39.239675412026685], [116.88005438581375, 39.23186862306866], [116.88609804539327, 39.23029107876865], [116.88465905441146, 39.22666714733385], [116.88679207738512, 39.22307956658149], [116.88201137312032, 39.223585902025675], [116.878806035526, 39.22036797558965], [116.87770473746019, 39.22533414676418], [116.8744584172854, 39.22475320059908], [116.8735471330933, 39.22917473460982], [116.8687365773089, 39.229186101499906], [116.86977126426157, 39.21561203220653], [116.86580283531337, 39.216814303336506], [116.84991066672129, 39.21478224398504], [116.85117594572372, 39.204490247781784], [116.8549017022491, 39.204718196610884], [116.85730874948356, 39.20048440953497], [116.85733765552703, 39.18494546783143], [116.85846670713143, 39.18118539366545], [116.85724382111924, 39.174102679803255], [116.859854649541, 39.172608515112884], [116.8599516902713, 39.156672102902014], [116.86422063230903, 39.15281250218298], [116.88813060669534, 39.15390958151495], [116.90341418145307, 39.14994570132165], [116.90816185810276, 39.145346566817686], [116.90951945438376, 39.13745986893219], [116.91315328746087, 39.13776510264481], [116.91795439408762, 39.12319790665951], [116.91261274643585, 39.12274145893434], [116.9139425148077, 39.11914594692031], [116.92025925447876, 39.11883474593515], [116.91631395007326, 39.13040568418603], [116.917221273389, 39.13340225678785], [116.92249353486304, 39.13450527349729], [116.9173013364587, 39.148594065982174], [116.93244909817408, 39.149821554318116], [116.9326661489899, 39.153466077059235], [116.9229921393878, 39.1553502947577], [116.92234179051717, 39.15965934323394], [116.93567172546315, 39.16243539070289], [116.9345877344589, 39.159916498825666], [116.94060010737469, 39.15847680236942], [116.94314502822569, 39.165283275762356], [116.93492563178607, 39.17043776820727], [116.93854098050721, 39.173037618041924], [116.9345322262007, 39.17358848870966], [116.93304206928319, 39.17997386802911], [116.9355060972285, 39.187731759789], [116.95189777896876, 39.18877416302152], [116.95864947804914, 39.186870068877916], [116.95836396796805, 39.19134713652574], [116.96123053511069, 39.2069962373903], [116.96520629869333, 39.20793976833893], [116.96216232241562, 39.212915569137245], [116.96608394809316, 39.21561114229658], [116.96171410930279, 39.22848287140907], [116.97131518230763, 39.23102662750194], [116.97392460681125, 39.2297951819442], [116.98331951014275, 39.23856252398349], [116.98402172675033, 39.244394241863915], [116.99007725283812, 39.24226743290139], [116.9996732209555, 39.24196555926529], [117.00460529394233, 39.24773340011534], [117.00533403560924, 39.25562188150868], [117.0167822345912, 39.2557916144069], [117.01916021109086, 39.26149761047271], [117.0179026402074, 39.26952694265477], [117.01144131009966, 39.26713128464292], [117.01064331419173, 39.27145236066605], [117.01344185845902, 39.27191977206404], [117.00960190467067, 39.27981904769818], [117.01150741774539, 39.279899300258464], [117.01043931680304, 39.286666944238725], [117.03095928613872, 39.29102818414164], [117.02909321900415, 39.287837833050936], [117.04202222663726, 39.29003201451047], [117.04724527406134, 39.27988954288317], [117.05784208483507, 39.280072517225435], [117.0692036765985, 39.28183907376687], [117.06463937079974, 39.283341674456125], [117.06345997065614, 39.2864538396866], [117.07016467254634, 39.28853533874972], [117.06868746314616, 39.292650111931124], [117.0824126724672, 39.29848306321304], [117.07318295793633, 39.306563466873975], [117.09861731188421, 39.31157868198735], [117.11353533699727, 39.30949354933846], [117.12080231896574, 39.31036567259628], [117.12809863644132, 39.30464704879696], [117.13421414684342, 39.303720101573234], [117.14027668756974, 39.304901050747894], [117.13980079411861, 39.30680338001913], [117.1466254618373, 39.30897188424899], [117.15124816631744, 39.31468872000206], [117.14908467940225, 39.3220084205174], [117.15361306538469, 39.323170584477516], [117.154389073452, 39.317922544876616], [117.15891772094764, 39.320564306743904], [117.15803239209237, 39.32633885894527], [117.1532451400937, 39.3254808051153], [117.15421037827228, 39.32870990551888], [117.16110536235253, 39.33088021373109], [117.16180002900423, 39.32780698865784], [117.16613806457762, 39.327916958854004], [117.16660130353708, 39.32502924024171], [117.17333395252163, 39.325585570223545], [117.17784860839649, 39.33243965523493], [117.18630925714444, 39.332387181471844], [117.18502863109423, 39.342593954869166], [117.18940825619627, 39.34429995085944], [117.18908117657318, 39.348239505929115], [117.19297131271745, 39.3450707518515], [117.1985734632183, 39.345164985719975], [117.19860002157452, 39.348952233371406], [117.21636659091986, 39.35500521478463], [117.22738577424748, 39.35223139805399], [117.22676114134042, 39.35431990863636], [117.2322615296718, 39.35637898050959], [117.24464394695454, 39.35269878849547], [117.24821455808559, 39.34740069001714], [117.25735912544995, 39.3469577322647], [117.25879731042264, 39.34374678830842], [117.26243171588052, 39.34430598909936], [117.2630952580618, 39.35018187228116], [117.2679363645729, 39.351045555121395], [117.27322442304568, 39.346608522476615], [117.27918739578215, 39.34772320276163], [117.28570515008917, 39.34645918663613], [117.29000145479013, 39.33612644015721], [117.29845305055812, 39.335774021942214], [117.29979441467705, 39.33081228272905], [117.29554188955387, 39.328728978038626], [117.29761441608251, 39.325294459382775], [117.31034366431352, 39.327651756630566], [117.31152195613743, 39.324115368799596], [117.3177762954076, 39.328469673395894]]]]}}