{"type": "Feature", "properties": {"unit_id": "tianjin_120112", "name": "津南区", "district_codes": [120112]}, "geometry": {"type": "MultiPolygon", "coordinates": [[[[117.26101983485933, 39.03851380671243], [117.25745278291849, 39.0326637372844], [117.2566673696968, 39.0250226766947], [117.25898709264392, 39.0197671788367], [117.25293635611598, 39.0218154135952], [117.2506438653077, 39.01983683846809], [117.25619361404104, 39.01801112276901], [117.26034386289895, 39.01961274990987], [117.2682096719458, 39.01392688032315], [117.2713289103803, 39.001708043272544], [117.27668397158817, 38.9984772171289], [117.28490848511143, 39.00189793065582], [117.28879808368947, 38.997234744183174], [117.28224048328792, 38.995297187293865], [117.2877278436919, 38.993190652732814], [117.28350164968556, 38.99072149829668], [117.28608994823047, 38.987339360156625], [117.27962723507763, 38.979784600351614], [117.27844979303447, 38.967990022041654], [117.27602340239342, 38.97191907642904], [117.26723748199892, 38.977610786754305], [117.26230287057851, 38.97208198097502], [117.26749618721296, 38.96936462605261], [117.26368707548737, 38.96656762148188], [117.26264268806091, 38.96270949541786], [117.25412545189957, 38.951185323139605], [117.24032381389078, 38.95311401686441], [117.2392239213203, 38.95210622342134], [117.25978405927806, 38.942439955731246], [117.2550376747238, 38.928434725020985], [117.2662275922624, 38.92287829588603], [117.26325849816595, 38.919001281435584], [117.30169336620145, 38.88506907320584], [117.3179273763169, 38.88616851701647], [117.32225980648994, 38.88284421186887], [117.32339868596738, 38.874567734267984], [117.3276088237345, 38.87553412251673], [117.32964007689259, 38.86831529094786], [117.33467764274913, 38.864082029541976], [117.33107563137533, 38.86398696141427], [117.33150991521669, 38.860121283134696], [117.3357332454491, 38.860079254557675], [117.33810393522677, 38.85082289410777], [117.32975120310923, 38.84911173271189], [117.33285241396649, 38.842606348023985], [117.35647913061203, 38.85655332022084], [117.38128716659817, 38.87177436916157], [117.40099451893919, 38.88624471785199], [117.4309502288337, 38.8576078175071], [117.43407658558961, 38.86874377025091], [117.44178645235537, 38.87844931040279], [117.45803461717044, 38.88978163194717], [117.4804919143678, 38.90455445322643], [117.49696520094417, 38.90689343605979], [117.49070633786103, 38.94187912035869], [117.50520530348946, 38.946585619609685], [117.50656772498891, 38.944318041564586], [117.51542489070498, 38.95119198955412], [117.52301316520152, 38.95235785684084], [117.53742666192146, 38.942268666876735], [117.54482073982754, 38.9422678473524], [117.54250410075397, 38.95794023050816], [117.5441377934951, 38.95833667525339], [117.54318290981459, 38.967384057946965], [117.54900852324596, 38.98054165246391], [117.55081924339068, 38.980819158118926], [117.55401637156888, 38.988113898511955], [117.55185160000728, 38.991198857459224], [117.5435209898137, 38.99070360924633], [117.5337828159961, 39.00028838963564], [117.52491426106232, 39.00499205427556], [117.52073141475981, 39.005133330725286], [117.5171757013093, 39.00379202856651], [117.50545822445706, 38.99440635264721], [117.5026093141649, 38.995558129888224], [117.496421536183, 39.00659781985019], [117.48907503577928, 39.0147319756227], [117.4833118659429, 39.01553367428223], [117.47527399856385, 39.012354981571505], [117.46888565501777, 39.01313939445453], [117.46343702921892, 39.01754487690007], [117.46534252709468, 39.0280411444297], [117.46174706026532, 39.03231465306787], [117.4578669152513, 39.03179284502135], [117.45299429318275, 39.02751769653766], [117.44221687618358, 39.02171440342272], [117.43098440388896, 39.01937696477714], [117.413848097995, 39.019634583672484], [117.40579618537042, 39.021627748655135], [117.39222509614508, 39.027890948922405], [117.38664979685838, 39.032551158607696], [117.38188952944215, 39.04082664907518], [117.37826849302287, 39.0500902315169], [117.37371453996572, 39.052516538703884], [117.36492044245145, 39.05104460263483], [117.35226938116347, 39.05051857981485], [117.34140918640439, 39.052805474395235], [117.33121346120143, 39.05845225224033], [117.32237203699326, 39.06728374385359], [117.30700391851661, 39.07407985981288], [117.29882530808925, 39.07579850526706], [117.28613261831799, 39.07644743634712], [117.27969681044051, 39.06950032536117], [117.28216456814862, 39.059232887428394], [117.2767982828889, 39.0580284086438], [117.2805257646933, 39.05006140835583], [117.27416981212232, 39.04797010753035], [117.27175688769472, 39.0525933359192], [117.2614250628801, 39.04941090033051], [117.26619970623581, 39.0418360022801], [117.26023237240823, 39.04028704454236], [117.26101983485933, 39.03851380671243]]]]}}