{"type": "Feature", "properties": {"unit_id": "tianjin_120106", "name": "红桥区", "district_codes": [120106]}, "geometry": {"type": "MultiPolygon", "coordinates": [[[[117.18811422166515, 39.145927088553314], [117.18014365995145, 39.15401878120052], [117.17081120229713, 39.16094822764397], [117.16976384820211, 39.16390850710742], [117.17369484502906, 39.16730386462978], [117.1712985914887, 39.18083340446217], [117.16671502660205, 39.18029714194664], [117.16116542677703, 39.182857379767654], [117.15289602604663, 39.189190913637844], [117.14215433611149, 39.187931036627425], [117.13534310696343, 39.1899469964026], [117.12788293581806, 39.18416701923702], [117.12470408268285, 39.17767836262673], [117.12346905106924, 39.17071521001004], [117.11988442258249, 39.15773756968117], [117.1220445889398, 39.151064507750284], [117.13033427627161, 39.145300938206844], [117.13790474607157, 39.14742269895159], [117.13770106146373, 39.14290911693984], [117.1534872542736, 39.140464809320754], [117.16546872589308, 39.140827277211294], [117.16531886994014, 39.14535727708884], [117.18268754428583, 39.14479298343031], [117.18811422166515, 39.145927088553314]]], [[[117.1239280825878, 39.188674139216296], [117.13435066389926, 39.19203844415924], [117.1347855958405, 39.19654941246889], [117.12559763913109, 39.202256008017265], [117.1191726554658, 39.199680358027535], [117.12213408097678, 39.19445902462392], [117.11951259887246, 39.19374108064163], [117.1239280825878, 39.188674139216296]]]]}}