{"type": "Feature", "properties": {"unit_id": "tianjin_120116", "name": "滨海新区", "district_codes": [120116]}, "geometry": {"type": "MultiPolygon", "coordinates": [[[[117.52073141475981, 39.005133330725286], [117.52491426106232, 39.00499205427556], [117.5337828159961, 39.00028838963564], [117.5435209898137, 38.99070360924633], [117.55185160000728, 38.991198857459224], [117.55401637156888, 38.988113898511955], [117.55081924339068, 38.980819158118926], [117.54900852324596, 38.98054165246391], [117.54318290981459, 38.967384057946965], [117.5441377934951, 38.95833667525339], [117.54250410075397, 38.95794023050816], [117.54482073982754, 38.9422678473524], [117.53742666192146, 38.942268666876735], [117.52301316520152, 38.95235785684084], [117.51542489070498, 38.95119198955412], [117.50656772498891, 38.944318041564586], [117.50520530348946, 38.946585619609685], [117.49070633786103, 38.94187912035869], [117.49696520094417, 38.90689343605979], [117.4804919143678, 38.90455445322643], [117.45803461717044, 38.88978163194717], [117.44178645235537, 38.87844931040279], [117.43407658558961, 38.86874377025091], [117.4309502288337, 38.8576078175071], [117.40099451893919, 38.88624471785199], [117.38128716659817, 38.87177436916157], [117.35647913061203, 38.85655332022084], [117.33285241396649, 38.842606348023985], [117.32100723104476, 38.83583768348948], [117.32493381971784, 38.83182734720935], [117.32378334616931, 38.82928091138156], [117.32960530584126, 38.827832523166315], [117.32512430592227, 38.82378626943639], [117.32056210653005, 38.822836474513224], [117.30657487035863, 38.83020216348175], [117.2979211683366, 38.83256028791634], [117.25264643377078, 38.84654191843561], [117.2501502846141, 38.8423004173332], [117.24100365108595, 38.833985581310934], [117.2169106357102, 38.81078387881775], [117.2012368670514, 38.81942105781252], [117.19045473341127, 38.80879478452735], [117.19851959439005, 38.80434161894874], [117.18891977519455, 38.79506513113434], [117.20735883894818, 38.78446504215696], [117.20965706162043, 38.78222532460983], [117.18737318637139, 38.7698968701811], [117.15807799608186, 38.75497887771489], [117.15554825154537, 38.757440197839], [117.14870771004242, 38.75855889572962], [117.14773021637964, 38.75018221468624], [117.12836073652296, 38.74057909964732], [117.130657016386, 38.7402219973419], [117.13079409156293, 38.73278753103548], [117.13533287769775, 38.73481450440958], [117.13999616065084, 38.73209735844381], [117.14011882147483, 38.72815729864719], [117.1496503380999, 38.72575650299356], [117.15387876442553, 38.7304756635915], [117.17048462572971, 38.73240718156609], [117.17074336400032, 38.7303865711266], [117.15415145472225, 38.72867694260756], [117.15147376771246, 38.71419263840138], [117.15271200533087, 38.70482075301941], [117.15237339507495, 38.6971753471458], [117.14821360312021, 38.68936848842994], [117.14303259145264, 38.69074861229817], [117.14197256502217, 38.68687254077974], [117.143510514817, 38.68092527922777], [117.14100898906581, 38.68073251760078], [117.14167560416354, 38.67524666924611], [117.14748115081602, 38.67580464800305], [117.14752185603832, 38.67067769034734], [117.15241797440756, 38.669159528192715], [117.1547705043004, 38.664825270807626], [117.15432238393548, 38.6596444146912], [117.15077365929267, 38.65790592170723], [117.15602263178945, 38.657109351034286], [117.1566909921901, 38.647538999988356], [117.15011083015162, 38.631880976519234], [117.15128038312487, 38.626752678847545], [117.15009824931076, 38.620349766132364], [117.14478240222161, 38.61685716448714], [117.15901998963768, 38.616400694987604], [117.16080245136548, 38.61429260726694], [117.17030862621422, 38.6174172671908], [117.17757224470083, 38.61737888003819], [117.17981662158964, 38.61573557315212], [117.18303894968366, 38.62056395214935], [117.19398704879805, 38.62111509934098], [117.19754925827777, 38.625668514273436], [117.19697794994627, 38.628911506111066], [117.20404755796062, 38.629282445443046], [117.20673806197492, 38.63892908398779], [117.21067967627225, 38.6421603762758], [117.21888829629923, 38.64311394474559], [117.22411980521025, 38.6409569405927], [117.22345507210262, 38.63491740486747], [117.21883586203933, 38.63003937250693], [117.2303967018351, 38.63047861792948], [117.22447523541118, 38.6232672386184], [117.22890389191524, 38.623218935210865], [117.23103645268162, 38.61848400242167], [117.24032441101272, 38.617939947401574], [117.24975785103167, 38.613084056760584], [117.25272997818304, 38.607608558691055], [117.25332826560266, 38.60233908458418], [117.2489186102241, 38.601738548365134], [117.25046542342027, 38.59763575820025], [117.2391462635546, 38.59459467478996], [117.23161086080225, 38.58454659486725], [117.23215458396331, 38.58032312003381], [117.25509411067192, 38.586011529521635], [117.25613872017324, 38.58302312145262], [117.23610695027737, 38.57802400274286], [117.23322823252798, 38.578005421372715], [117.23887773903223, 38.566226364589085], [117.24028978402359, 38.566158905541144], [117.24698300868113, 38.55547604666052], [117.25733542877306, 38.56157246920745], [117.25918054484313, 38.55602422934776], [117.27271292489812, 38.5593650897606], [117.28596630851027, 38.561687336804255], [117.28534241127991, 38.57094574299922], [117.29365973159099, 38.57072841542906], [117.29780496189028, 38.56386886333202], [117.29935024904847, 38.55586140203633], [117.3020048716934, 38.554826317777064], [117.3091004629418, 38.556927581863235], [117.31859105279663, 38.56383242218556], [117.34003594197765, 38.5641005393182], [117.34408460821295, 38.5606919427795], [117.34438228722627, 38.5649863156275], [117.35162623703837, 38.56969633420035], [117.34833420022336, 38.57990329859744], [117.36241973865924, 38.581596971694026], [117.36259759667577, 38.56389041012967], [117.38981449205095, 38.57366978965213], [117.4027167608607, 38.58424443161785], [117.39470989441723, 38.587112950013896], [117.40354348825394, 38.59303494700213], [117.4090559011957, 38.589722821540015], [117.42594062398655, 38.600428980815146], [117.46510997001141, 38.61042271735042], [117.46967266928642, 38.60808315335055], [117.47513445241543, 38.610740995202875], [117.47254503608916, 38.61643216287855], [117.48907148036787, 38.614762567141184], [117.49662025683473, 38.61717124875658], [117.49907395680411, 38.61326483872629], [117.50534253357664, 38.61323261544053], [117.51019412709374, 38.60965914962781], [117.51760624320605, 38.6109513542334], [117.51700772076217, 38.605680265237595], [117.52069999830917, 38.605947706113234], [117.51798891092643, 38.60058462602079], [117.52294869475932, 38.600117770873695], [117.53528986341065, 38.60294859121164], [117.5324017834313, 38.60910338401631], [117.53611948204504, 38.611173120373266], [117.54074896302805, 38.61724233807712], [117.5484138096098, 38.616418563036554], [117.55169475269736, 38.6132152226235], [117.57608226510244, 38.618005711068285], [117.63295262854919, 38.62614194920552], [117.63614950626446, 38.6426778941188], [117.64312687062667, 38.653903318986586], [117.65060556866912, 38.65987661791166], [117.72281237278267, 38.679322073066906], [117.73252479883676, 38.68835032550609], [117.73449045591215, 38.69926861366905], [117.73499949832946, 38.753154463651896], [117.73011422502911, 38.760591218274115], [117.72281580114907, 38.7640050190194], [117.66537124579176, 38.77130851210802], [117.64834265864795, 38.777640419818496], [117.64033250122998, 38.788198160001365], [117.63997518909507, 38.82843186194027], [117.65159994566544, 38.8354779130211], [117.68301420078454, 38.83634343530752], [117.74591498297994, 38.84666857688732], [117.76240238384725, 38.863139700583886], [117.77221504831199, 38.868240937804956], [117.81578130079888, 38.85646832225875], [117.82793851496218, 38.854507963448654], [117.84128088593964, 38.85490846711479], [117.85384320054881, 38.87098612743969], [117.8550119255424, 38.88080144636108], [117.85344607322943, 38.88826866139367], [117.86953923114666, 38.91965053586193], [117.88641492087767, 38.924364567926965], [117.89308638473244, 38.94085207663558], [117.89190336197626, 38.94790539373323], [117.8492588140898, 38.95687323405662], [117.84644066987515, 38.96224713257559], [117.84461304750963, 38.99211772709729], [117.8413027862714, 39.009910879885076], [117.83291356129419, 39.032022798878614], [117.83123580757366, 39.0561517578462], [117.83428333722408, 39.072917098751475], [117.84031239986398, 39.08755318557227], [117.85294294149581, 39.10565700365968], [117.86558300270971, 39.121743077038104], [117.91967547748513, 39.15056308040751], [117.95851979807819, 39.17176620487763], [117.96715682279945, 39.18784830083576], [117.97129677406807, 39.204974387043634], [118.02653380054194, 39.21874738331809], [118.02856496121058, 39.217448574471376], [118.0307560947792, 39.229368965039434], [118.05835983940764, 39.229986771322146], [118.05922684344534, 39.23420390622507], [118.0583965908096, 39.254699034573214], [118.05727241324021, 39.25560253642636], [118.0305073925591, 39.26385864068745], [118.02709552495645, 39.27039635012348], [118.02899054692467, 39.27350253885373], [118.0221278305423, 39.276530950193006], [118.02538886781218, 39.28422173418696], [118.02211225344367, 39.28924530999072], [118.01844451413378, 39.291278780281026], [118.01594222589634, 39.28581293288505], [118.01058408417038, 39.282990308600134], [118.00017817927768, 39.28840994452143], [117.98951595160503, 39.28772855826252], [117.98901500895134, 39.29247158895973], [117.98595566272823, 39.29560806781605], [117.97760645386528, 39.29447687381117], [117.97652340781788, 39.297641300022825], [117.97148835062555, 39.29964318443766], [117.96639680711931, 39.30895192513939], [117.96615293718091, 39.313336343757776], [117.95993729462151, 39.315424784227204], [117.94557980432296, 39.314436336730694], [117.94131029497603, 39.316822929423346], [117.93342124831489, 39.31664847487816], [117.92737294790359, 39.318100520299176], [117.90427413228845, 39.318590998226185], [117.89969739354271, 39.31520977825272], [117.89657271864084, 39.31954215507004], [117.88610747235462, 39.32213735685913], [117.88696304101778, 39.3264357694184], [117.88249031650827, 39.33095145092241], [117.87245415013844, 39.330856879894135], [117.86116224946457, 39.32888819798214], [117.85522834500814, 39.33321105610432], [117.84918505666295, 39.331010176586894], [117.84962055263016, 39.328242269886736], [117.84349530868882, 39.326379525727674], [117.84071850483444, 39.32749598517443], [117.83897599269287, 39.324757160331416], [117.84453077656727, 39.32130187247502], [117.84374147041633, 39.31453784583039], [117.83971242721489, 39.31379995747561], [117.83802358817488, 39.322666447995005], [117.83297313724918, 39.31623429108696], [117.83666323571347, 39.310973784966464], [117.83148987139548, 39.30872129962932], [117.83072816874052, 39.3050497374038], [117.84460171707615, 39.29941604457737], [117.84652122923464, 39.296903705803956], [117.82112167402042, 39.259560691810925], [117.8197879638758, 39.25932035207069], [117.79983120107137, 39.26765125578795], [117.8074931414255, 39.27847609764312], [117.80283827564156, 39.27814548485112], [117.78240144254605, 39.28673440741529], [117.7836244782305, 39.28850388025807], [117.78339282424972, 39.29807265711268], [117.78501063593737, 39.30007953128293], [117.7782651453264, 39.30318252812728], [117.76771545237102, 39.30089606431614], [117.75943971592588, 39.29791856992], [117.75472608762598, 39.29404241188584], [117.7257466445721, 39.28937899141244], [117.71537285223665, 39.289763934634564], [117.71431631797796, 39.281368649912416], [117.70298370169175, 39.28211530863542], [117.7026741728377, 39.266934859400955], [117.70413770777705, 39.266558797880094], [117.70952042161767, 39.25587269202183], [117.71168917869942, 39.256192551421194], [117.71522823869357, 39.249045895027315], [117.71912032545023, 39.250163688217484], [117.71916093654954, 39.24501047552794], [117.73691961166095, 39.236815371029806], [117.71482714674353, 39.20680811602915], [117.70958226044998, 39.193558704824184], [117.71336493557415, 39.19249823641872], [117.71248573047089, 39.1722602362183], [117.67649738140237, 39.17242284657363], [117.67376068941977, 39.17079404853652], [117.67386730174378, 39.187850830662974], [117.66037537901428, 39.187859518643165], [117.64639255748561, 39.20410298053544], [117.63958946131683, 39.21049415191375], [117.63750163580582, 39.214173160805515], [117.62901621223556, 39.211733961009735], [117.62897653158947, 39.20962421517045], [117.6222514679914, 39.20661939241095], [117.61127845211614, 39.20417849963671], [117.61168747433945, 39.18586587212878], [117.61453638367452, 39.18640868911942], [117.61711474039473, 39.18220218974697], [117.61025088041676, 39.173507943802534], [117.60912649972896, 39.16537133829668], [117.58570435263562, 39.16935483962758], [117.5626461795668, 39.17663462793654], [117.56090508723462, 39.172614260698246], [117.5600086415327, 39.16088175416762], [117.54957185906039, 39.15829202556411], [117.54690429899624, 39.15304158680647], [117.54644185495609, 39.14634760474029], [117.53456862694088, 39.141824537662025], [117.511788256273, 39.15051446279756], [117.50801326189631, 39.149158119374704], [117.50335425913553, 39.13650783055419], [117.49687148400886, 39.10691338968308], [117.51116660157722, 39.10578071909039], [117.52926059847937, 39.1056437817594], [117.52995677531811, 39.099084633651586], [117.54718284349882, 39.09885401820802], [117.5466960865113, 39.0781437027134], [117.5576247378067, 39.077688240702535], [117.55165192306289, 39.064925037142274], [117.55338161383456, 39.054101063814315], [117.5318415572197, 39.05536546305464], [117.52388612476304, 39.0569811614304], [117.52086283955789, 39.04529094364442], [117.51744238313937, 39.04584487118676], [117.51253841170134, 39.03699510137177], [117.51429606714098, 39.035925896879476], [117.51109544626757, 39.02578477930079], [117.51571494400582, 39.022881064795904], [117.51913509963241, 39.025500267662686], [117.5200891890356, 39.02038512905786], [117.51861864754031, 39.01420475716866], [117.52073141475981, 39.005133330725286]]]]}}