{"type": "FeatureCollection", "features": [{"type": "Feature", "properties": {"districts": ["Dongcheng", "Xicheng", "Chaoyang", "Fengtai", "Shijingshan", "Haidian"], "source_crs": "WGS84", "area_km2": 1376.4959}, "geometry": {"type": "MultiPolygon", "coordinates": [[[[116.41384322795851, 39.82521429566968], [116.40955332511022, 39.82802935730246], [116.40819438972126, 39.82288333018554], [116.41221160638781, 39.82151779146051], [116.41353143426302, 39.81397894284953], [116.40392813298674, 39.815653186629866], [116.4037818364507, 39.80993760432086], [116.4090322333494, 39.81112740839986], [116.41154382646242, 39.80873345337448], [116.41623114930184, 39.809045799514], [116.41949787412034, 39.80396643055253], [116.4231822969714, 39.80219466862556], [116.42305834463103, 39.79271433420838], [116.41481006642883, 39.792740288567884], [116.41401632231666, 39.78604544775108], [116.3897981875112, 39.785345085155214], [116.39167986987088, 39.779674653389016], [116.39266432652794, 39.764471682933724], [116.3856837915673, 39.76388868011537], [116.38442891396123, 39.779076122584506], [116.37939405913428, 39.77746752614512], [116.37300188874208, 39.77801217556141], [116.37227110927573, 39.78426845866037], [116.36139260627006, 39.783599108092915], [116.35955478055874, 39.7927900887689], [116.36199728776785, 39.79345435412448], [116.36084870680737, 39.79845665052913], [116.35066241770593, 39.799124083702445], [116.34953510673164, 39.804322618397705], [116.33561646347312, 39.80626895247152], [116.33398985186784, 39.80083247580521], [116.32211806921572, 39.80012226698058], [116.32072060335067, 39.79709517170604], [116.31677740356037, 39.79710260314511], [116.31569363101096, 39.782345897436336], [116.31189587651322, 39.782173898982684], [116.30461430932503, 39.77079782691556], [116.30100354624922, 39.768832068868704], [116.29549191867729, 39.7736963221122], [116.28916419197631, 39.789721003385644], [116.28511272261123, 39.7920390963803], [116.29004028235497, 39.794329407970075], [116.28314898956452, 39.794664270461], [116.28120600404995, 39.797875261118364], [116.26821120537205, 39.79572039354725], [116.25616969549613, 39.7915725143989], [116.25328298303509, 39.79641169006445], [116.24550214745719, 39.7918500693647], [116.24491480752442, 39.80022228241757], [116.24759233985536, 39.806021142733094], [116.245624707424, 39.81207947246283], [116.23827904587091, 39.81735402024702], [116.23698006774787, 39.823930980895845], [116.2335894298691, 39.82565607368125], [116.22226004345389, 39.82597214410541], [116.22117153380013, 39.82382220970746], [116.2080544300109, 39.82346439142898], [116.20839086831542, 39.817733263071254], [116.21069598636768, 39.81566752752298], [116.20132889665433, 39.80956350861767], [116.20197898866023, 39.8051028537489], [116.19575363693662, 39.79839844503936], [116.19575506067093, 39.78701141047517], [116.19428860200355, 39.776891877772286], [116.18833398033856, 39.77722355676904], [116.18829160650176, 39.779309288641635], [116.18187498166309, 39.780503594817624], [116.17721920032142, 39.778914124280966], [116.17684170134625, 39.78241610123832], [116.16352508758521, 39.78296218407096], [116.15650157354956, 39.76787784143639], [116.14974988027848, 39.76558435667662], [116.14266384202347, 39.767300739783124], [116.14180404356483, 39.76513163848879], [116.12753215484005, 39.765259558768065], [116.12219014695243, 39.76103343671264], [116.11517465844813, 39.760244756439704], [116.111194213078, 39.77197514628835], [116.11519346556089, 39.77766406170243], [116.11806281284306, 39.77536941562652], [116.12118337099886, 39.77766887299202], [116.12629431120091, 39.77725102879099], [116.125225788284, 39.78174647299325], [116.11877378286563, 39.783972204298244], [116.11445975373684, 39.78346403601274], [116.11349590362416, 39.78826899126131], [116.10005779736306, 39.78722235180877], [116.10070658517125, 39.78393069648948], [116.09505811654586, 39.78437080469766], [116.08830314436628, 39.78017021583351], [116.08527144675712, 39.78269656454115], [116.0856058611311, 39.78654102852161], [116.07929179931863, 39.7939419132324], [116.08081687572813, 39.801905006924294], [116.07851623443943, 39.81021329724144], [116.0798747456163, 39.81501676915187], [116.08328102498355, 39.814965201091304], [116.08190029376257, 39.82553343261112], [116.08342625745624, 39.828333165114074], [116.07943400369452, 39.83077804289644], [116.07805438622658, 39.82719749959884], [116.07230802203544, 39.83021527793188], [116.06988500569805, 39.83563988137963], [116.06267939337856, 39.839426924556975], [116.05520539182851, 39.84054678097903], [116.0483812820071, 39.84461420988039], [116.05027941901983, 39.84960693621457], [116.06468171794232, 39.852348070006364], [116.06388803519584, 39.85905489033062], [116.06104782901102, 39.864397106578934], [116.06415860617696, 39.86707704385325], [116.07201138132683, 39.86893834316098], [116.08085081925243, 39.864763856882746], [116.089504859226, 39.867638572194856], [116.09782945488676, 39.867441813700836], [116.09910556749692, 39.87115161942965], [116.10592714609427, 39.87185277193349], [116.11342159365844, 39.87608609688461], [116.11959923549804, 39.87656264731398], [116.12538055853648, 39.87988701927296], [116.14134887280427, 39.88392654719418], [116.14472425605794, 39.882695838272326], [116.14990180933266, 39.887682076405994], [116.15713643062325, 39.88554676729325], [116.16082737254418, 39.887424352227505], [116.15487101614767, 39.89546628270601], [116.14725948013043, 39.89963313622259], [116.14654595088832, 39.90527572337994], [116.1405909125427, 39.908714279487505], [116.13300233877429, 39.920721169435446], [116.12399255265656, 39.92313365334258], [116.12103829473014, 39.9252277339486], [116.12151960414006, 39.9289510234318], [116.11846120261843, 39.93351718023037], [116.11356068607537, 39.93136772947108], [116.10562595082939, 39.94152360369397], [116.10819952006099, 39.94779928258036], [116.11372658329563, 39.94939511954512], [116.108931160975, 39.956348260624324], [116.11439511095011, 39.95979614470827], [116.11665637561961, 39.966168485555244], [116.11026876148304, 39.970535332008225], [116.10712733244182, 39.98011958902046], [116.1126116542561, 39.98471903883343], [116.13840169698304, 39.987816885447565], [116.14531879517149, 39.99208323882228], [116.14827380826982, 39.995920888697654], [116.15542339246045, 39.99864503508259], [116.16590943196798, 39.99931410202349], [116.16913783473866, 40.005085878740154], [116.15854610973734, 40.01299098701846], [116.15770748699454, 40.01545736610407], [116.15106003338282, 40.01968352297564], [116.14300841160977, 40.020790341769526], [116.13380639834557, 40.02735279796503], [116.12324557662451, 40.02971047305613], [116.11727627994053, 40.02826029877767], [116.1081887245496, 40.03159973811089], [116.09914806331622, 40.03080176368698], [116.09205573333959, 40.03240958340792], [116.08873099063162, 40.030381875516575], [116.07790352120563, 40.02951224622602], [116.07184370014173, 40.031369545235485], [116.06879329019434, 40.03853201171262], [116.06173383477032, 40.0505527518162], [116.06480181404561, 40.06065840881019], [116.0586630547703, 40.06608701138284], [116.05770207185859, 40.07165435890999], [116.04828879287835, 40.07688046579608], [116.04503367223072, 40.083002180182504], [116.04259259748706, 40.083965688081435], [116.04555447468356, 40.09031650766168], [116.04960149540945, 40.095076437109526], [116.0556525081962, 40.09819426119917], [116.05661225602637, 40.1014522466245], [116.06312579933686, 40.10353306017434], [116.06634054375537, 40.10787391735291], [116.06750917812282, 40.114049775246194], [116.07154040237704, 40.11365561245339], [116.0781008362789, 40.11885323836023], [116.08343098967154, 40.11792409834412], [116.08970235830746, 40.11985060418771], [116.09589390464392, 40.114579498439795], [116.09951315826525, 40.11660620401876], [116.10696387967621, 40.114191932789616], [116.12134939167159, 40.11499617623432], [116.12589548023425, 40.11368681809722], [116.12660699048367, 40.11996205628974], [116.1464341652323, 40.120411389645334], [116.16333438702773, 40.12322873864824], [116.16117383538759, 40.12711541920014], [116.16555722266172, 40.12660455216566], [116.16238934287557, 40.134103996368275], [116.16144487957257, 40.14050363999763], [116.16790386816803, 40.1422664266997], [116.17421632265228, 40.14597286867148], [116.17690014790732, 40.15202224771774], [116.1765004117052, 40.15678498465576], [116.18589587751515, 40.15437251026], [116.18811834035678, 40.15878299160141], [116.19602288593603, 40.159704448417344], [116.19707143468543, 40.152495962374644], [116.19952494492351, 40.14890229163047], [116.20015436796795, 40.14182101197893], [116.20610755260694, 40.13928623378909], [116.20933526182735, 40.141916482946485], [116.22770852945374, 40.13534012280045], [116.24098061109218, 40.13497458476784], [116.23897421984452, 40.11759645082346], [116.23577135218122, 40.11717304289795], [116.23730045205713, 40.11205020976884], [116.23443328765717, 40.10677918677934], [116.23989665673507, 40.10412290106441], [116.24667669769329, 40.10529137379069], [116.24981410709127, 40.10324867100075], [116.2535165213294, 40.105681161442114], [116.25196767299997, 40.11072395176492], [116.25728008119081, 40.109361011490925], [116.25784584563638, 40.10279335839666], [116.25222002299098, 40.10029675086789], [116.25918481156145, 40.09346759985009], [116.2672745967246, 40.09433934309737], [116.2670450883626, 40.091468703630134], [116.27383875431148, 40.078519323247896], [116.28428269432128, 40.08189899777965], [116.29685484039624, 40.05954085378676], [116.2999020057181, 40.06177588797857], [116.30334671937176, 40.05933633724562], [116.31217440549842, 40.0603747551202], [116.31981243125327, 40.053496939364095], [116.32565384024548, 40.05585466461018], [116.32461044388167, 40.06207130131866], [116.33266450253065, 40.057594120319806], [116.3341046852336, 40.053761590369895], [116.33719259424207, 40.05411271244694], [116.33650362942971, 40.058300774273164], [116.34078086883422, 40.05908770634286], [116.34048811383941, 40.0623170598419], [116.35108789003252, 40.06465090963006], [116.3568064673246, 40.06456043319224], [116.35693183865058, 40.067594047699224], [116.36630419274243, 40.06704518356598], [116.36711923496664, 40.06423725595272], [116.37568082963456, 40.06500589197404], [116.37660030272302, 40.06018521326101], [116.37302927662596, 40.057609276426234], [116.36603498578734, 40.05646617899487], [116.36676624465608, 40.0529593861456], [116.36117092285637, 40.05205939949304], [116.36336387855444, 40.0455805340219], [116.36987753717347, 40.044077825300164], [116.37065073678369, 40.04136700809777], [116.37894195336764, 40.04145492411204], [116.38439571986737, 40.039876348695564], [116.38671477787138, 40.040328684122024], [116.38907676829491, 40.03536048448909], [116.39900571539334, 40.037564752947134], [116.40262310421838, 40.04188125238738], [116.39986225237874, 40.048358064375364], [116.40333259524421, 40.05421559178688], [116.40935730728656, 40.05459057870444], [116.42702352884491, 40.0608825541756], [116.43663923728042, 40.05993811738153], [116.44542093975662, 40.05738904145016], [116.44521110926522, 40.05991950543544], [116.45322009654039, 40.05863756203394], [116.45594589775041, 40.06596107920727], [116.45244362900578, 40.06902028626595], [116.45263145509843, 40.074439339890795], [116.45642708913174, 40.07543755898011], [116.45567138460113, 40.07947460566368], [116.4600762791132, 40.08100959633265], [116.46066208030618, 40.088845442297405], [116.46485842282041, 40.08806073232444], [116.46739721262612, 40.08423942684098], [116.47681992308928, 40.08244775662672], [116.48055574520536, 40.07974942753407], [116.49327638614672, 40.079137594463596], [116.50075064711734, 40.07312533074487], [116.50795147086805, 40.069221074897825], [116.5200408487108, 40.070164183041946], [116.5284565152698, 40.065644620993524], [116.5372895938575, 40.05828463763501], [116.54190372939642, 40.061605375527236], [116.54588805820318, 40.0586614525594], [116.54689531687771, 40.05377890085489], [116.54066787986363, 40.0478412957731], [116.54488311013135, 40.04439405448304], [116.55840505822785, 40.038576886677056], [116.56464962106581, 40.03136311826986], [116.57298470650363, 40.032039696442055], [116.57200116090323, 40.02645387581868], [116.58974963759407, 40.01646548875512], [116.59552232273742, 40.012829883481594], [116.6140803132413, 40.010745169224215], [116.62230848320715, 40.0065973749146], [116.61994962573655, 40.00206882846553], [116.62690270402632, 39.9987647727926], [116.63174524570512, 40.001292712720705], [116.63683730174606, 39.99568194933169], [116.63790283100975, 39.98853369491104], [116.63448014774, 39.98910755834275], [116.633291015082, 39.98581131791654], [116.62782270508158, 39.98513627159748], [116.62819856482281, 39.98063500950968], [116.63398011556419, 39.98153755783664], [116.635985469128, 39.96850428589276], [116.63723877231895, 39.95191114176633], [116.63943073380763, 39.944902168036045], [116.6264075896608, 39.94948734201279], [116.62467511187543, 39.94510043584681], [116.6276195940986, 39.939847325695446], [116.62386237063157, 39.93767259908048], [116.62348688777598, 39.930260291924505], [116.61835080331684, 39.928932214981046], [116.62476194315632, 39.92061733882081], [116.61515580839965, 39.92205704079419], [116.61720432083754, 39.91277084815112], [116.61444753442, 39.90662521160635], [116.61756000364119, 39.903223974302264], [116.61522166876179, 39.897809046823596], [116.609519220673, 39.89446177031135], [116.60981263805618, 39.88875288621142], [116.62177956342364, 39.889426797260754], [116.6231804233214, 39.88054282251733], [116.61852348717323, 39.88010824780813], [116.61913010648426, 39.87620291467034], [116.61420151565189, 39.86790824889167], [116.62115713097397, 39.85963493060547], [116.60766532501135, 39.84914702058585], [116.59840655553606, 39.84903526133451], [116.59888788094877, 39.84509647308048], [116.60258723023196, 39.84550291753123], [116.59612821090393, 39.83969181613104], [116.59646424458839, 39.83064042015242], [116.59320153417667, 39.83062404567241], [116.59345326707127, 39.82455050473351], [116.58569342786305, 39.82532973440528], [116.58581878529434, 39.822837973137794], [116.57795026501789, 39.82387442503365], [116.58123556941541, 39.82718282166851], [116.57169002353568, 39.82648991242501], [116.57135520859569, 39.82963231203725], [116.56358395571742, 39.832437779972764], [116.5527717114673, 39.83360817487381], [116.53779960877532, 39.83396645128568], [116.53681422894347, 39.82909537210097], [116.5272893797352, 39.831594661021406], [116.53226226689657, 39.827082064173], [116.52905323137702, 39.82368691103104], [116.51994565414714, 39.82574575182062], [116.51944150861003, 39.82859412827001], [116.51020573197204, 39.82864832698627], [116.50462301696955, 39.82643388867961], [116.50416203636522, 39.82024494353396], [116.49679334643012, 39.81778006258599], [116.4998169861998, 39.81664919718], [116.4921762396368, 39.81446053683826], [116.48932108866192, 39.817546861181775], [116.47956026945043, 39.81561277373332], [116.47918342943392, 39.81144302070923], [116.46814545863272, 39.8084653540918], [116.46233310311437, 39.81318942077613], [116.45662768105787, 39.814609956030395], [116.44656165018426, 39.821655510962024], [116.43771697207792, 39.81958838433007], [116.43972843794245, 39.82532318209203], [116.43046780913807, 39.826042800846025], [116.43078091882995, 39.829266973626936], [116.42384877413028, 39.828722347022264], [116.41899198955745, 39.83050912715437], [116.41384322795851, 39.82521429566968]]], [[[116.59361540976204, 40.04612599425126], [116.59401310025575, 40.04036336496809], [116.58619037579955, 40.042081723020466], [116.58539395978276, 40.050747838574146], [116.58215125234413, 40.04947992834615], [116.58432588453348, 40.05511299208627], [116.58078737791821, 40.07328353571627], [116.57557569885078, 40.072760078074886], [116.57559745062942, 40.066789474108475], [116.57233060723398, 40.075400501346415], [116.56849595295307, 40.09507151517886], [116.56824314852604, 40.10674728879105], [116.57249460209067, 40.101676817449494], [116.57454779773052, 40.08729307391482], [116.59009585096847, 40.089169446205666], [116.59289775721136, 40.09246194688745], [116.59258348102638, 40.102825100087664], [116.5971012971701, 40.09283537187832], [116.59766602490552, 40.08576387771313], [116.60260394141514, 40.05386630542824], [116.59788009715224, 40.05190399326112], [116.59271474609949, 40.05149752801705], [116.59583116821221, 40.04661323311327], [116.59361540976204, 40.04612599425126]]]]}}]}